;layer_height = 0.4
;line_width = 0.4
;layer_count = 10
;mesh = bird_top
G21 ;start of the code
G1 Z15 F300
G28 X0 Y0 ;Home
G92 X0 Y0 ;Consider this as current
G0 X50 Y50 F3000 ;Go-to Offset
G92 X0 Y0 ;Reset

G0 F3600 X-23.000 Y-22.800 Z0.300 ;Go to start position
M7
G4 P150


M9
G1 Z10.000
G1 X-23.000 Y-22.800
G1 Z0.300
M7
G4 P150
G1 X-22.800 Y-22.677 Z0.300
G1 X-22.800 Y-22.677
G1 X-14.902 Y-26.676
G1 X-14.803 Y-32.600
G1 X14.803 Y-32.600
G1 X14.902 Y-26.676
G1 X22.800 Y-22.677
G1 X22.800 Y-9.800
G1 X35.786 Y-9.800
G1 X56.786 Y-6.800
G1 X62.600 Y-6.800
G1 X62.600 Y6.800
G1 X56.786 Y6.800
G1 X35.786 Y9.800
G1 X22.800 Y9.800
G1 X22.800 Y22.677
G1 X14.902 Y26.676
G1 X14.803 Y32.600
G1 X-14.803 Y32.600
G1 X-14.902 Y26.676
G1 X-22.800 Y22.677
G1 X-22.800 Y-22.677
G1 X-22.400 Y-22.431
G1 X-14.506 Y-26.428
G1 X-14.410 Y-32.200
G1 X14.410 Y-32.200
G1 X14.506 Y-26.428
G1 X22.400 Y-22.431
G1 X22.400 Y-9.400
G1 X35.757 Y-9.400
G1 X56.757 Y-6.400
G1 X62.200 Y-6.400
G1 X62.200 Y6.400
G1 X56.757 Y6.400
G1 X35.757 Y9.400
G1 X22.400 Y9.400
G1 X22.400 Y22.431
G1 X14.506 Y26.428
G1 X14.410 Y32.200
G1 X-14.410 Y32.200
G1 X-14.506 Y26.428
G1 X-22.400 Y22.431
G1 X-22.400 Y-22.431
G1 X-22.000 Y-22.185
G1 X-14.110 Y-26.180
G1 X-14.017 Y-31.800
G1 X14.017 Y-31.800
G1 X14.110 Y-26.180
G1 X22.000 Y-22.185
G1 X22.000 Y-9.000
G1 X35.729 Y-9.000
G1 X56.729 Y-6.000
G1 X61.800 Y-6.000
G1 X61.800 Y6.000
G1 X56.729 Y6.000
G1 X35.729 Y9.000
G1 X22.000 Y9.000
G1 X22.000 Y22.185
G1 X14.110 Y26.180
G1 X14.017 Y31.800
G1 X-14.017 Y31.800
G1 X-14.110 Y26.180
G1 X-22.000 Y22.185
G1 X-22.000 Y-22.185
G1 X-21.600 Y-21.940
G1 X-13.714 Y-25.932
G1 X-13.623 Y-31.400
G1 X13.623 Y-31.400
G1 X13.714 Y-25.932
G1 X21.600 Y-21.940
G1 X21.600 Y-8.600
G1 X35.701 Y-8.600
G1 X56.701 Y-5.600
G1 X61.400 Y-5.600
G1 X61.400 Y5.600
G1 X56.701 Y5.600
G1 X35.701 Y8.600
G1 X21.600 Y8.600
G1 X21.600 Y21.940
G1 X13.714 Y25.932
G1 X13.623 Y31.400
G1 X-13.623 Y31.400
G1 X-13.714 Y25.932
G1 X-21.600 Y21.940
G1 X-21.600 Y-21.940
G1 X-21.200 Y-21.694
G1 X-13.318 Y-25.685
G1 X-13.230 Y-31.000
G1 X13.230 Y-31.000
G1 X13.318 Y-25.685
G1 X21.200 Y-21.694
G1 X21.200 Y-8.200
G1 X35.672 Y-8.200
G1 X56.672 Y-5.200
G1 X61.000 Y-5.200
G1 X61.000 Y5.200
G1 X56.672 Y5.200
G1 X35.672 Y8.200
G1 X21.200 Y8.200
G1 X21.200 Y21.694
G1 X13.318 Y25.685
G1 X13.230 Y31.000
G1 X-13.230 Y31.000
G1 X-13.318 Y25.685
G1 X-21.200 Y21.694
G1 X-21.200 Y-21.694
G1 X-20.800 Y-21.448
G1 X-12.922 Y-25.437
G1 X-12.836 Y-30.600
G1 X12.836 Y-30.600
G1 X12.922 Y-25.437
G1 X20.800 Y-21.448
G1 X20.800 Y-7.800
G1 X35.644 Y-7.800
G1 X56.644 Y-4.800
G1 X60.600 Y-4.800
G1 X60.600 Y4.800
G1 X56.644 Y4.800
G1 X35.644 Y7.800
G1 X20.800 Y7.800
G1 X20.800 Y21.448
G1 X12.922 Y25.437
G1 X12.836 Y30.600
G1 X-12.836 Y30.600
G1 X-12.922 Y25.437
G1 X-20.800 Y21.448
G1 X-20.800 Y-21.448
G1 X-20.400 Y-21.202
G1 X-12.526 Y-25.189
G1 X-12.443 Y-30.200
G1 X12.443 Y-30.200
G1 X12.526 Y-25.189
G1 X20.400 Y-21.202
G1 X20.400 Y-7.400
G1 X35.615 Y-7.400
G1 X56.615 Y-4.400
G1 X60.200 Y-4.400
G1 X60.200 Y4.400
G1 X56.615 Y4.400
G1 X35.615 Y7.400
G1 X20.400 Y7.400
G1 X20.400 Y21.202
G1 X12.526 Y25.189
G1 X12.443 Y30.200
G1 X-12.443 Y30.200
G1 X-12.526 Y25.189
G1 X-20.400 Y21.202
G1 X-20.400 Y-21.202
G1 X-20.000 Y-20.956
G1 X-12.131 Y-24.941
G1 X-12.050 Y-29.800
G1 X12.050 Y-29.800
G1 X12.131 Y-24.941
G1 X20.000 Y-20.956
G1 X20.000 Y-7.000
G1 X35.587 Y-7.000
G1 X56.587 Y-4.000
G1 X59.800 Y-4.000
G1 X59.800 Y4.000
G1 X56.587 Y4.000
G1 X35.587 Y7.000
G1 X20.000 Y7.000
G1 X20.000 Y20.956
G1 X12.131 Y24.941
G1 X12.050 Y29.800
G1 X-12.050 Y29.800
G1 X-12.131 Y24.941
G1 X-20.000 Y20.956
G1 X-20.000 Y-20.956
G1 X-19.600 Y-20.711
G1 X-11.735 Y-24.693
G1 X-11.656 Y-29.400
G1 X11.656 Y-29.400
G1 X11.735 Y-24.693
G1 X19.600 Y-20.711
G1 X19.600 Y-6.600
G1 X35.558 Y-6.600
G1 X56.558 Y-3.600
G1 X59.400 Y-3.600
G1 X59.400 Y3.600
G1 X56.558 Y3.600
G1 X35.558 Y6.600
G1 X19.600 Y6.600
G1 X19.600 Y20.711
G1 X11.735 Y24.693
G1 X11.656 Y29.400
G1 X-11.656 Y29.400
G1 X-11.735 Y24.693
G1 X-19.600 Y20.711
G1 X-19.600 Y-20.711
G1 X-19.200 Y-20.465
G1 X-11.339 Y-24.445
G1 X-11.263 Y-29.000
G1 X11.263 Y-29.000
G1 X11.339 Y-24.445
G1 X19.200 Y-20.465
G1 X19.200 Y-6.200
G1 X35.530 Y-6.200
G1 X56.530 Y-3.200
G1 X59.000 Y-3.200
G1 X59.000 Y3.200
G1 X56.530 Y3.200
G1 X35.530 Y6.200
G1 X19.200 Y6.200
G1 X19.200 Y20.465
G1 X11.339 Y24.445
G1 X11.263 Y29.000
G1 X-11.263 Y29.000
G1 X-11.339 Y24.445
G1 X-19.200 Y20.465
G1 X-19.200 Y-20.465
G1 X-18.800 Y-20.219
G1 X-10.943 Y-24.197
G1 X-10.869 Y-28.600
G1 X10.869 Y-28.600
G1 X10.943 Y-24.197
G1 X18.800 Y-20.219
G1 X18.800 Y-5.800
G1 X35.502 Y-5.800
G1 X56.502 Y-2.800
G1 X58.600 Y-2.800
G1 X58.600 Y2.800
G1 X56.502 Y2.800
G1 X35.502 Y5.800
G1 X18.800 Y5.800
G1 X18.800 Y20.219
G1 X10.943 Y24.197
G1 X10.869 Y28.600
G1 X-10.869 Y28.600
G1 X-10.943 Y24.197
G1 X-18.800 Y20.219
G1 X-18.800 Y-20.219
G1 X-18.400 Y-19.973
G1 X-10.547 Y-23.949
G1 X-10.476 Y-28.200
G1 X10.476 Y-28.200
G1 X10.547 Y-23.949
G1 X18.400 Y-19.973
G1 X18.400 Y-5.400
G1 X35.473 Y-5.400
G1 X56.473 Y-2.400
G1 X58.200 Y-2.400
G1 X58.200 Y2.400
G1 X56.473 Y2.400
G1 X35.473 Y5.400
G1 X18.400 Y5.400
G1 X18.400 Y19.973
G1 X10.547 Y23.949
G1 X10.476 Y28.200
G1 X-10.476 Y28.200
G1 X-10.547 Y23.949
G1 X-18.400 Y19.973
G1 X-18.400 Y-19.973
G1 X-18.000 Y-19.727
G1 X-10.151 Y-23.701
G1 X-10.083 Y-27.800
G1 X10.083 Y-27.800
G1 X10.151 Y-23.701
G1 X18.000 Y-19.727
G1 X18.000 Y-5.000
G1 X35.445 Y-5.000
G1 X56.445 Y-2.000
G1 X57.800 Y-2.000
G1 X57.800 Y2.000
G1 X56.445 Y2.000
G1 X35.445 Y5.000
G1 X18.000 Y5.000
G1 X18.000 Y19.727
G1 X10.151 Y23.701
G1 X10.083 Y27.800
G1 X-10.083 Y27.800
G1 X-10.151 Y23.701
G1 X-18.000 Y19.727
G1 X-18.000 Y-19.727
G1 X-17.600 Y-19.481
G1 X-9.755 Y-23.454
G1 X-9.689 Y-27.400
G1 X9.689 Y-27.400
G1 X9.755 Y-23.454
G1 X17.600 Y-19.481
G1 X17.600 Y-4.600
G1 X35.416 Y-4.600
G1 X56.416 Y-1.600
G1 X57.400 Y-1.600
G1 X57.400 Y1.600
G1 X56.416 Y1.600
G1 X35.416 Y4.600
G1 X17.600 Y4.600
G1 X17.600 Y19.481
G1 X9.755 Y23.454
G1 X9.689 Y27.400
G1 X-9.689 Y27.400
G1 X-9.755 Y23.454
G1 X-17.600 Y19.481
G1 X-17.600 Y-19.481
G1 X-17.200 Y-19.236
G1 X-9.359 Y-23.206
G1 X-9.296 Y-27.000
G1 X9.296 Y-27.000
G1 X9.359 Y-23.206
G1 X17.200 Y-19.236
G1 X17.200 Y-4.200
G1 X35.388 Y-4.200
G1 X56.388 Y-1.200
G1 X57.000 Y-1.200
G1 X57.000 Y1.200
G1 X56.388 Y1.200
G1 X35.388 Y4.200
G1 X17.200 Y4.200
G1 X17.200 Y19.236
G1 X9.359 Y23.206
G1 X9.296 Y27.000
G1 X-9.296 Y27.000
G1 X-9.359 Y23.206
G1 X-17.200 Y19.236
G1 X-17.200 Y-19.236
G1 X-16.800 Y-18.990
G1 X-8.963 Y-22.958
G1 X-8.902 Y-26.600
G1 X8.902 Y-26.600
G1 X8.963 Y-22.958
G1 X16.800 Y-18.990
G1 X16.800 Y-3.800
G1 X35.359 Y-3.800
G1 X56.359 Y-0.800
G1 X56.600 Y-0.800
G1 X56.600 Y0.800
G1 X56.359 Y0.800
G1 X35.359 Y3.800
G1 X16.800 Y3.800
G1 X16.800 Y18.990
G1 X8.963 Y22.958
G1 X8.902 Y26.600
G1 X-8.902 Y26.600
G1 X-8.963 Y22.958
G1 X-16.800 Y18.990
G1 X-16.800 Y-18.990
G1 X-16.400 Y-18.744
G1 X-8.567 Y-22.710
G1 X-8.509 Y-26.200
G1 X8.509 Y-26.200
G1 X8.567 Y-22.710
G1 X16.400 Y-18.744
G1 X16.400 Y-3.400
G1 X35.331 Y-3.400
G1 X56.200 Y-0.419
G1 X56.200 Y0.419
G1 X35.331 Y3.400
G1 X16.400 Y3.400
G1 X16.400 Y18.744
G1 X8.567 Y22.710
G1 X8.509 Y26.200
G1 X-8.509 Y26.200
G1 X-8.567 Y22.710
G1 X-16.400 Y18.744
G1 X-16.400 Y-18.744
G1 X-16.000 Y-18.498
G1 X-8.171 Y-22.462
G1 X-8.116 Y-25.800
G1 X8.116 Y-25.800
G1 X8.171 Y-22.462
G1 X16.000 Y-18.498
G1 X16.000 Y-3.000
G1 X35.303 Y-3.000
G1 X55.800 Y-0.072
G1 X55.800 Y0.072
G1 X35.303 Y3.000
G1 X16.000 Y3.000
G1 X16.000 Y18.498
G1 X8.171 Y22.462
G1 X8.116 Y25.800
G1 X-8.116 Y25.800
G1 X-8.171 Y22.462
G1 X-16.000 Y18.498
G1 X-16.000 Y-18.498
G1 X-15.600 Y-18.252
G1 X-7.775 Y-22.214
G1 X-7.722 Y-25.400
G1 X7.722 Y-25.400
G1 X7.775 Y-22.214
G1 X15.600 Y-18.252
G1 X15.600 Y-2.600
G1 X35.274 Y-2.600
G1 X53.474 Y0.000
G1 X35.274 Y2.600
G1 X15.600 Y2.600
G1 X15.600 Y18.252
G1 X7.775 Y22.214
G1 X7.722 Y25.400
G1 X-7.722 Y25.400
G1 X-7.775 Y22.214
G1 X-15.600 Y18.252
G1 X-15.600 Y-18.252
G1 X-15.200 Y-18.007
G1 X-7.379 Y-21.966
G1 X-7.329 Y-25.000
G1 X7.329 Y-25.000
G1 X7.379 Y-21.966
G1 X15.200 Y-18.007
G1 X15.200 Y-2.200
G1 X35.246 Y-2.200
G1 X50.646 Y0.000
G1 X35.246 Y2.200
G1 X15.200 Y2.200
G1 X15.200 Y18.007
G1 X7.379 Y21.966
G1 X7.329 Y25.000
G1 X-7.329 Y25.000
G1 X-7.379 Y21.966
G1 X-15.200 Y18.007
G1 X-15.200 Y-18.007
G1 X-14.800 Y-17.761
G1 X-6.984 Y-21.718
G1 X-6.936 Y-24.600
G1 X6.936 Y-24.600
G1 X6.984 Y-21.718
G1 X14.800 Y-17.761
G1 X14.800 Y-1.800
G1 X35.217 Y-1.800
G1 X47.817 Y-0.000
G1 X35.217 Y1.800
G1 X14.800 Y1.800
G1 X14.800 Y17.761
G1 X6.984 Y21.718
G1 X6.936 Y24.600
G1 X-6.936 Y24.600
G1 X-6.984 Y21.718
G1 X-14.800 Y17.761
G1 X-14.800 Y-17.761
G1 X-14.400 Y-17.515
G1 X-6.588 Y-21.471
G1 X-6.542 Y-24.200
G1 X6.542 Y-24.200
G1 X6.588 Y-21.471
G1 X14.400 Y-17.515
G1 X14.400 Y-1.400
G1 X35.189 Y-1.400
G1 X44.989 Y0.000
G1 X35.189 Y1.400
G1 X14.400 Y1.400
G1 X14.400 Y17.515
G1 X6.588 Y21.471
G1 X6.542 Y24.200
G1 X-6.542 Y24.200
G1 X-6.588 Y21.471
G1 X-14.400 Y17.515
G1 X-14.400 Y-17.515
G1 X-14.000 Y-17.269
G1 X-6.192 Y-21.223
G1 X-6.149 Y-23.800
G1 X6.149 Y-23.800
G1 X6.192 Y-21.223
G1 X14.000 Y-17.269
G1 X14.000 Y-1.000
G1 X35.160 Y-1.000
G1 X42.160 Y0.000
G1 X35.160 Y1.000
G1 X14.000 Y1.000
G1 X14.000 Y17.269
G1 X6.192 Y21.223
G1 X6.149 Y23.800
G1 X-6.149 Y23.800
G1 X-6.192 Y21.223
G1 X-14.000 Y17.269
G1 X-14.000 Y-17.269
G1 X-13.600 Y-17.023
G1 X-5.796 Y-20.975
G1 X-5.755 Y-23.400
G1 X5.755 Y-23.400
G1 X5.796 Y-20.975
G1 X13.600 Y-17.023
G1 X13.600 Y-0.600
G1 X35.132 Y-0.600
G1 X39.332 Y-0.000
G1 X35.132 Y0.600
G1 X13.600 Y0.600
G1 X13.600 Y17.023
G1 X5.796 Y20.975
G1 X5.755 Y23.400
G1 X-5.755 Y23.400
G1 X-5.796 Y20.975
G1 X-13.600 Y17.023
G1 X-13.600 Y-17.023
G1 X-13.200 Y-16.777
G1 X-5.400 Y-20.727
G1 X-5.362 Y-23.000
G1 X5.362 Y-23.000
G1 X5.400 Y-20.727
G1 X13.200 Y-16.777
G1 X13.200 Y-0.200
G1 X35.104 Y-0.200
G1 X36.504 Y0.000
G1 X35.104 Y0.200
G1 X13.200 Y0.200
G1 X13.200 Y16.777
G1 X5.400 Y20.727
G1 X5.362 Y23.000
G1 X-5.362 Y23.000
G1 X-5.400 Y20.727
G1 X-13.200 Y16.777
G1 X-13.200 Y-16.777
G1 X-12.800 Y-16.532
G1 X-5.004 Y-20.479
G1 X-4.969 Y-22.600
G1 X4.969 Y-22.600
G1 X5.004 Y-20.479
G1 X12.800 Y-16.532
G1 X12.800 Y16.532
G1 X5.004 Y20.479
G1 X4.969 Y22.600
G1 X-4.969 Y22.600
G1 X-5.004 Y20.479
G1 X-12.800 Y16.532
G1 X-12.800 Y-16.532
G1 X-12.400 Y-16.286
G1 X-4.608 Y-20.231
G1 X-4.575 Y-22.200
G1 X4.575 Y-22.200
G1 X4.608 Y-20.231
G1 X12.400 Y-16.286
G1 X12.400 Y16.286
G1 X4.608 Y20.231
G1 X4.575 Y22.200
G1 X-4.575 Y22.200
G1 X-4.608 Y20.231
G1 X-12.400 Y16.286
G1 X-12.400 Y-16.286
G1 X-12.000 Y-16.040
G1 X-4.212 Y-19.983
G1 X-4.182 Y-21.800
G1 X4.182 Y-21.800
G1 X4.212 Y-19.983
G1 X12.000 Y-16.040
G1 X12.000 Y16.040
G1 X4.212 Y19.983
G1 X4.182 Y21.800
G1 X-4.182 Y21.800
G1 X-4.212 Y19.983
G1 X-12.000 Y16.040
G1 X-12.000 Y-16.040
G1 X-11.600 Y-15.794
G1 X-3.816 Y-19.735
G1 X-3.788 Y-21.400
G1 X3.788 Y-21.400
G1 X3.816 Y-19.735
G1 X11.600 Y-15.794
G1 X11.600 Y15.794
G1 X3.816 Y19.735
G1 X3.788 Y21.400
G1 X-3.788 Y21.400
G1 X-3.816 Y19.735
G1 X-11.600 Y15.794
G1 X-11.600 Y-15.794
G1 X-11.200 Y-15.548
G1 X-3.420 Y-19.487
G1 X-3.395 Y-21.000
G1 X3.395 Y-21.000
G1 X3.420 Y-19.487
G1 X11.200 Y-15.548
G1 X11.200 Y15.548
G1 X3.420 Y19.487
G1 X3.395 Y21.000
G1 X-3.395 Y21.000
G1 X-3.420 Y19.487
G1 X-11.200 Y15.548
G1 X-11.200 Y-15.548
G1 X-10.800 Y-15.302
G1 X-3.024 Y-19.240
G1 X-3.002 Y-20.600
G1 X3.002 Y-20.600
G1 X3.024 Y-19.240
G1 X10.800 Y-15.302
G1 X10.800 Y15.302
G1 X3.024 Y19.240
G1 X3.002 Y20.600
G1 X-3.002 Y20.600
G1 X-3.024 Y19.240
G1 X-10.800 Y15.302
G1 X-10.800 Y-15.302
G1 X-10.400 Y-15.057
G1 X-2.628 Y-18.992
G1 X-2.608 Y-20.200
G1 X2.608 Y-20.200
G1 X2.628 Y-18.992
G1 X10.400 Y-15.057
G1 X10.400 Y15.057
G1 X2.628 Y18.992
G1 X2.608 Y20.200
G1 X-2.608 Y20.200
G1 X-2.628 Y18.992
G1 X-10.400 Y15.057
G1 X-10.400 Y-15.057
G1 X-10.000 Y-14.811
G1 X-2.232 Y-18.744
G1 X-2.215 Y-19.800
G1 X2.215 Y-19.800
G1 X2.232 Y-18.744
G1 X10.000 Y-14.811
G1 X10.000 Y14.811
G1 X2.232 Y18.744
G1 X2.215 Y19.800
G1 X-2.215 Y19.800
G1 X-2.232 Y18.744
G1 X-10.000 Y14.811
G1 X-10.000 Y-14.811
G1 X-9.600 Y-14.565
G1 X-1.837 Y-18.496
G1 X-1.821 Y-19.400
G1 X1.821 Y-19.400
G1 X1.837 Y-18.496
G1 X9.600 Y-14.565
G1 X9.600 Y14.565
G1 X1.837 Y18.496
G1 X1.821 Y19.400
G1 X-1.821 Y19.400
G1 X-1.837 Y18.496
G1 X-9.600 Y14.565
G1 X-9.600 Y-14.565
G1 X-9.200 Y-14.319
G1 X-1.441 Y-18.248
G1 X-1.428 Y-19.000
G1 X1.428 Y-19.000
G1 X1.441 Y-18.248
G1 X9.200 Y-14.319
G1 X9.200 Y14.319
G1 X1.441 Y18.248
G1 X1.428 Y19.000
G1 X-1.428 Y19.000
G1 X-1.441 Y18.248
G1 X-9.200 Y14.319
G1 X-9.200 Y-14.319
G1 X-8.800 Y-14.073
G1 X-1.045 Y-18.000
G1 X-1.035 Y-18.600
G1 X1.035 Y-18.600
G1 X1.045 Y-18.000
G1 X8.800 Y-14.073
G1 X8.800 Y14.073
G1 X1.045 Y18.000
G1 X1.035 Y18.600
G1 X-1.035 Y18.600
G1 X-1.045 Y18.000
G1 X-8.800 Y14.073
G1 X-8.800 Y-14.073
G1 X-8.400 Y-13.828
G1 X-0.649 Y-17.752
G1 X-0.641 Y-18.200
G1 X0.641 Y-18.200
G1 X0.649 Y-17.752
G1 X8.400 Y-13.828
G1 X8.400 Y13.828
G1 X0.649 Y17.752
G1 X0.641 Y18.200
G1 X-0.641 Y18.200
G1 X-0.649 Y17.752
G1 X-8.400 Y13.828
G1 X-8.400 Y-13.828
G1 X-8.000 Y-13.582
G1 X-0.253 Y-17.504
G1 X-0.248 Y-17.800
G1 X0.248 Y-17.800
G1 X0.253 Y-17.504
G1 X8.000 Y-13.582
G1 X8.000 Y13.582
G1 X0.253 Y17.504
G1 X0.248 Y17.800
G1 X-0.248 Y17.800
G1 X-0.253 Y17.504
G1 X-8.000 Y13.582
G1 X-8.000 Y-13.582
G1 X-7.600 Y-13.336
G1 X-0.000 Y-17.184
G1 X7.600 Y-13.336
G1 X7.600 Y13.336
G1 X0.000 Y17.184
G1 X-7.600 Y13.336
G1 X-7.600 Y-13.336
G1 X-7.200 Y-13.090
G1 X-0.000 Y-16.736
G1 X7.200 Y-13.090
G1 X7.200 Y13.090
G1 X0.000 Y16.736
G1 X-7.200 Y13.090
G1 X-7.200 Y-13.090
G1 X-6.800 Y-12.844
G1 X-0.000 Y-16.287
G1 X6.800 Y-12.844
G1 X6.800 Y12.844
G1 X0.000 Y16.287
G1 X-6.800 Y12.844
G1 X-6.800 Y-12.844
G1 X-6.400 Y-12.598
G1 X-0.000 Y-15.839
G1 X6.400 Y-12.598
G1 X6.400 Y12.598
G1 X0.000 Y15.839
G1 X-6.400 Y12.598
G1 X-6.400 Y-12.598
G1 X-6.000 Y-12.353
G1 X-0.000 Y-15.391
G1 X6.000 Y-12.353
G1 X6.000 Y12.353
G1 X0.000 Y15.391
G1 X-6.000 Y12.353
G1 X-6.000 Y-12.353
G1 X-5.600 Y-12.107
G1 X-0.000 Y-14.942
G1 X5.600 Y-12.107
G1 X5.600 Y12.107
G1 X0.000 Y14.942
G1 X-5.600 Y12.107
G1 X-5.600 Y-12.107
G1 X-5.200 Y-11.861
G1 X-0.000 Y-14.494
G1 X5.200 Y-11.861
G1 X5.200 Y11.861
G1 X0.000 Y14.494
G1 X-5.200 Y11.861
G1 X-5.200 Y-11.861
G1 X-4.800 Y-11.615
G1 X-0.000 Y-14.046
G1 X4.800 Y-11.615
G1 X4.800 Y11.615
G1 X0.000 Y14.046
G1 X-4.800 Y11.615
G1 X-4.800 Y-11.615
G1 X-4.400 Y-11.369
G1 X-0.000 Y-13.597
G1 X4.400 Y-11.369
G1 X4.400 Y11.369
G1 X0.000 Y13.597
G1 X-4.400 Y11.369
G1 X-4.400 Y-11.369
G1 X-4.000 Y-11.124
G1 X-0.000 Y-13.149
G1 X4.000 Y-11.124
G1 X4.000 Y11.124
G1 X0.000 Y13.149
G1 X-4.000 Y11.124
G1 X-4.000 Y-11.124
G1 X-3.600 Y-10.878
G1 X-0.000 Y-12.701
G1 X3.600 Y-10.878
G1 X3.600 Y10.878
G1 X0.000 Y12.701
G1 X-3.600 Y10.878
G1 X-3.600 Y-10.878
G1 X-3.200 Y-10.632
G1 X-0.000 Y-12.252
G1 X3.200 Y-10.632
G1 X3.200 Y10.632
G1 X0.000 Y12.252
G1 X-3.200 Y10.632
G1 X-3.200 Y-10.632
G1 X-2.800 Y-10.386
G1 X-0.000 Y-11.804
G1 X2.800 Y-10.386
G1 X2.800 Y10.386
G1 X0.000 Y11.804
G1 X-2.800 Y10.386
G1 X-2.800 Y-10.386
G1 X-2.400 Y-10.140
G1 X-0.000 Y-11.355
G1 X2.400 Y-10.140
G1 X2.400 Y10.140
G1 X0.000 Y11.355
G1 X-2.400 Y10.140
G1 X-2.400 Y-10.140
G1 X-2.000 Y-9.894
G1 X-0.000 Y-10.907
G1 X2.000 Y-9.894
G1 X2.000 Y9.894
G1 X0.000 Y10.907
G1 X-2.000 Y9.894
G1 X-2.000 Y-9.894
G1 X-1.600 Y-9.649
G1 X-0.000 Y-10.459
G1 X1.600 Y-9.649
G1 X1.600 Y9.649
G1 X0.000 Y10.459
G1 X-1.600 Y9.649
G1 X-1.600 Y-9.649
G1 X-1.200 Y-9.403
G1 X-0.000 Y-10.010
G1 X1.200 Y-9.403
G1 X1.200 Y9.403
G1 X0.000 Y10.010
G1 X-1.200 Y9.403
G1 X-1.200 Y-9.403
G1 X-0.800 Y-9.157
G1 X-0.000 Y-9.562
G1 X0.800 Y-9.157
G1 X0.800 Y9.157
G1 X0.000 Y9.562
G1 X-0.800 Y9.157
G1 X-0.800 Y-9.157
G1 X-0.400 Y-8.911
G1 X-0.000 Y-9.114
G1 X0.400 Y-8.911
G1 X0.400 Y8.911
G1 X0.000 Y9.114
G1 X-0.400 Y8.911
G1 X-0.400 Y-8.911
G1 X-0.000 Y-8.665
G1 X-0.000 Y-8.665
G1 X0.000 Y-8.665
G1 X0.000 Y8.665
G1 X0.000 Y8.665
G1 X-0.000 Y8.665
G1 X-0.000 Y-8.665
M9
G1 Z10.000
G1 X0.000 Y73.000
G1 Z0.300
M7
G4 P150
G1 X0.000 Y72.634 Z0.300
G1 X0.000 Y72.634
G1 X-14.800 Y49.941
G1 X-14.800 Y44.200
G1 X14.800 Y44.200
G1 X14.800 Y49.941
G1 X0.000 Y72.634
G1 X0.000 Y71.902
G1 X-14.400 Y49.822
G1 X-14.400 Y44.600
G1 X14.400 Y44.600
G1 X14.400 Y49.822
G1 X0.000 Y71.902
G1 X0.000 Y71.169
G1 X-14.000 Y49.703
G1 X-14.000 Y45.000
G1 X14.000 Y45.000
G1 X14.000 Y49.703
G1 X0.000 Y71.169
G1 X0.000 Y70.437
G1 X-13.600 Y49.584
G1 X-13.600 Y45.400
G1 X13.600 Y45.400
G1 X13.600 Y49.584
G1 X0.000 Y70.437
G1 X0.000 Y69.705
G1 X-13.200 Y49.465
G1 X-13.200 Y45.800
G1 X13.200 Y45.800
G1 X13.200 Y49.465
G1 X0.000 Y69.705
G1 X0.000 Y68.973
G1 X-12.800 Y49.346
G1 X-12.800 Y46.200
G1 X12.800 Y46.200
G1 X12.800 Y49.346
G1 X0.000 Y68.973
G1 X0.000 Y68.240
G1 X-12.400 Y49.227
G1 X-12.400 Y46.600
G1 X12.400 Y46.600
G1 X12.400 Y49.227
G1 X0.000 Y68.240
G1 X0.000 Y67.508
G1 X-12.000 Y49.108
G1 X-12.000 Y47.000
G1 X12.000 Y47.000
G1 X12.000 Y49.108
G1 X0.000 Y67.508
G1 X0.000 Y66.776
G1 X-11.600 Y48.989
G1 X-11.600 Y47.400
G1 X11.600 Y47.400
G1 X11.600 Y48.989
G1 X0.000 Y66.776
G1 X0.000 Y66.044
G1 X-11.200 Y48.870
G1 X-11.200 Y47.800
G1 X11.200 Y47.800
G1 X11.200 Y48.870
G1 X0.000 Y66.044
G1 X0.000 Y65.311
G1 X-10.800 Y48.751
G1 X-10.800 Y48.200
G1 X10.800 Y48.200
G1 X10.800 Y48.751
G1 X0.000 Y65.311
G1 X0.000 Y64.579
G1 X-10.400 Y48.633
G1 X-10.400 Y48.600
G1 X10.400 Y48.600
G1 X10.400 Y48.633
G1 X0.000 Y64.579
G1 X0.000 Y63.847
G1 X-9.683 Y49.000
G1 X9.683 Y49.000
G1 X-0.000 Y63.847
G1 X0.000 Y63.115
G1 X-8.944 Y49.400
G1 X8.944 Y49.400
G1 X-0.000 Y63.115
G1 X0.000 Y62.382
G1 X-8.206 Y49.800
G1 X8.206 Y49.800
G1 X-0.000 Y62.382
G1 X0.000 Y61.650
G1 X-7.468 Y50.200
G1 X7.468 Y50.200
G1 X0.000 Y61.650
G1 X0.000 Y60.918
G1 X-6.729 Y50.600
G1 X6.729 Y50.600
G1 X0.000 Y60.918
G1 X0.000 Y60.186
G1 X-5.991 Y51.000
G1 X5.991 Y51.000
G1 X0.000 Y60.186
G1 X0.000 Y59.454
G1 X-5.252 Y51.400
G1 X5.252 Y51.400
G1 X0.000 Y59.454
G1 X0.000 Y58.721
G1 X-4.514 Y51.800
G1 X4.514 Y51.800
G1 X0.000 Y58.721
G1 X0.000 Y57.989
G1 X-3.775 Y52.200
G1 X3.775 Y52.200
G1 X0.000 Y57.989
G1 X0.000 Y57.257
G1 X-3.037 Y52.600
G1 X3.037 Y52.600
G1 X0.000 Y57.257
G1 X0.000 Y56.525
G1 X-2.299 Y53.000
G1 X2.299 Y53.000
G1 X0.000 Y56.525
G1 X0.000 Y55.792
G1 X-1.560 Y53.400
G1 X1.560 Y53.400
G1 X0.000 Y55.792
G1 X0.000 Y55.060
G1 X-0.822 Y53.800
G1 X0.822 Y53.800
G1 X0.000 Y55.060
G1 X0.000 Y54.328
G1 X-0.083 Y54.200
G1 X0.083 Y54.200
G1 X0.000 Y54.328
M9
G1 Z10.000
G1 X0.000 Y-73.000
G1 Z0.300
M7
G4 P150
G1 X0.000 Y-72.634 Z0.300
G1 X0.000 Y-72.634
G1 X14.800 Y-49.941
G1 X14.800 Y-44.200
G1 X-14.800 Y-44.200
G1 X-14.800 Y-49.941
G1 X0.000 Y-72.634
G1 X0.000 Y-71.902
G1 X14.400 Y-49.822
G1 X14.400 Y-44.600
G1 X-14.400 Y-44.600
G1 X-14.400 Y-49.822
G1 X0.000 Y-71.902
G1 X0.000 Y-71.169
G1 X14.000 Y-49.703
G1 X14.000 Y-45.000
G1 X-14.000 Y-45.000
G1 X-14.000 Y-49.703
G1 X0.000 Y-71.169
G1 X0.000 Y-70.437
G1 X13.600 Y-49.584
G1 X13.600 Y-45.400
G1 X-13.600 Y-45.400
G1 X-13.600 Y-49.584
G1 X0.000 Y-70.437
G1 X0.000 Y-69.705
G1 X13.200 Y-49.465
G1 X13.200 Y-45.800
G1 X-13.200 Y-45.800
G1 X-13.200 Y-49.465
G1 X0.000 Y-69.705
G1 X0.000 Y-68.973
G1 X12.800 Y-49.346
G1 X12.800 Y-46.200
G1 X-12.800 Y-46.200
G1 X-12.800 Y-49.346
G1 X0.000 Y-68.973
G1 X0.000 Y-68.240
G1 X12.400 Y-49.227
G1 X12.400 Y-46.600
G1 X-12.400 Y-46.600
G1 X-12.400 Y-49.227
G1 X0.000 Y-68.240
G1 X0.000 Y-67.508
G1 X12.000 Y-49.108
G1 X12.000 Y-47.000
G1 X-12.000 Y-47.000
G1 X-12.000 Y-49.108
G1 X0.000 Y-67.508
G1 X0.000 Y-66.776
G1 X11.600 Y-48.989
G1 X11.600 Y-47.400
G1 X-11.600 Y-47.400
G1 X-11.600 Y-48.989
G1 X0.000 Y-66.776
G1 X0.000 Y-66.044
G1 X11.200 Y-48.870
G1 X11.200 Y-47.800
G1 X-11.200 Y-47.800
G1 X-11.200 Y-48.870
G1 X0.000 Y-66.044
G1 X0.000 Y-65.311
G1 X10.800 Y-48.751
G1 X10.800 Y-48.200
G1 X-10.800 Y-48.200
G1 X-10.800 Y-48.751
G1 X0.000 Y-65.311
G1 X0.000 Y-64.579
G1 X10.400 Y-48.633
G1 X10.400 Y-48.600
G1 X-10.400 Y-48.600
G1 X-10.400 Y-48.633
G1 X0.000 Y-64.579
G1 X0.000 Y-63.847
G1 X9.683 Y-49.000
G1 X-9.683 Y-49.000
G1 X0.000 Y-63.847
G1 X0.000 Y-63.115
G1 X8.944 Y-49.400
G1 X-8.944 Y-49.400
G1 X0.000 Y-63.115
G1 X-0.000 Y-62.382
G1 X8.206 Y-49.800
G1 X-8.206 Y-49.800
G1 X0.000 Y-62.382
G1 X-0.000 Y-61.650
G1 X7.468 Y-50.200
G1 X-7.468 Y-50.200
G1 X0.000 Y-61.650
G1 X-0.000 Y-60.918
G1 X6.729 Y-50.600
G1 X-6.729 Y-50.600
G1 X0.000 Y-60.918
G1 X-0.000 Y-60.186
G1 X5.991 Y-51.000
G1 X-5.991 Y-51.000
G1 X0.000 Y-60.186
G1 X-0.000 Y-59.454
G1 X5.252 Y-51.400
G1 X-5.252 Y-51.400
G1 X0.000 Y-59.454
G1 X-0.000 Y-58.721
G1 X4.514 Y-51.800
G1 X-4.514 Y-51.800
G1 X0.000 Y-58.721
G1 X-0.000 Y-57.989
G1 X3.775 Y-52.200
G1 X-3.775 Y-52.200
G1 X-0.000 Y-57.989
G1 X-0.000 Y-57.257
G1 X3.037 Y-52.600
G1 X-3.037 Y-52.600
G1 X-0.000 Y-57.257
G1 X-0.000 Y-56.525
G1 X2.299 Y-53.000
G1 X-2.299 Y-53.000
G1 X-0.000 Y-56.525
G1 X-0.000 Y-55.792
G1 X1.560 Y-53.400
G1 X-1.560 Y-53.400
G1 X-0.000 Y-55.792
G1 X-0.000 Y-55.060
G1 X0.822 Y-53.800
G1 X-0.822 Y-53.800
G1 X-0.000 Y-55.060
G1 X-0.000 Y-54.328
G1 X0.083 Y-54.200
G1 X-0.083 Y-54.200
G1 X-0.000 Y-54.328
M9
G1 Z10.000
G1 X-15.000 Y-43.200
G1 Z0.300
M7
G4 P150
G1 X-14.800 Y-43.000 Z0.300
G1 X-14.800 Y-43.000
G1 X14.800 Y-43.000
G1 X14.800 Y-33.800
G1 X-14.800 Y-33.800
G1 X-14.800 Y-43.000
G1 X-14.400 Y-42.600
G1 X14.400 Y-42.600
G1 X14.400 Y-34.200
G1 X-14.400 Y-34.200
G1 X-14.400 Y-42.600
G1 X-14.000 Y-42.200
G1 X14.000 Y-42.200
G1 X14.000 Y-34.600
G1 X-14.000 Y-34.600
G1 X-14.000 Y-42.200
G1 X-13.600 Y-41.800
G1 X13.600 Y-41.800
G1 X13.600 Y-35.000
G1 X-13.600 Y-35.000
G1 X-13.600 Y-41.800
G1 X-13.200 Y-41.400
G1 X13.200 Y-41.400
G1 X13.200 Y-35.400
G1 X-13.200 Y-35.400
G1 X-13.200 Y-41.400
G1 X-12.800 Y-41.000
G1 X12.800 Y-41.000
G1 X12.800 Y-35.800
G1 X-12.800 Y-35.800
G1 X-12.800 Y-41.000
G1 X-12.400 Y-40.600
G1 X12.400 Y-40.600
G1 X12.400 Y-36.200
G1 X-12.400 Y-36.200
G1 X-12.400 Y-40.600
G1 X-12.000 Y-40.200
G1 X12.000 Y-40.200
G1 X12.000 Y-36.600
G1 X-12.000 Y-36.600
G1 X-12.000 Y-40.200
G1 X-11.600 Y-39.800
G1 X11.600 Y-39.800
G1 X11.600 Y-37.000
G1 X-11.600 Y-37.000
G1 X-11.600 Y-39.800
G1 X-11.200 Y-39.400
G1 X11.200 Y-39.400
G1 X11.200 Y-37.400
G1 X-11.200 Y-37.400
G1 X-11.200 Y-39.400
G1 X-10.800 Y-39.000
G1 X10.800 Y-39.000
G1 X10.800 Y-37.800
G1 X-10.800 Y-37.800
G1 X-10.800 Y-39.000
G1 X-10.400 Y-38.600
G1 X10.400 Y-38.600
G1 X10.400 Y-38.200
G1 X-10.400 Y-38.200
G1 X-10.400 Y-38.600
M9
G1 Z10.000
G1 X-15.000 Y33.600
G1 Z0.300
M7
G4 P150
G1 X-14.800 Y33.800 Z0.300
G1 X-14.800 Y33.800
G1 X14.800 Y33.800
G1 X14.800 Y43.000
G1 X-14.800 Y43.000
G1 X-14.800 Y33.800
G1 X-14.400 Y34.200
G1 X14.400 Y34.200
G1 X14.400 Y42.600
G1 X-14.400 Y42.600
G1 X-14.400 Y34.200
G1 X-14.000 Y34.600
G1 X14.000 Y34.600
G1 X14.000 Y42.200
G1 X-14.000 Y42.200
G1 X-14.000 Y34.600
G1 X-13.600 Y35.000
G1 X13.600 Y35.000
G1 X13.600 Y41.800
G1 X-13.600 Y41.800
G1 X-13.600 Y35.000
G1 X-13.200 Y35.400
G1 X13.200 Y35.400
G1 X13.200 Y41.400
G1 X-13.200 Y41.400
G1 X-13.200 Y35.400
G1 X-12.800 Y35.800
G1 X12.800 Y35.800
G1 X12.800 Y41.000
G1 X-12.800 Y41.000
G1 X-12.800 Y35.800
G1 X-12.400 Y36.200
G1 X12.400 Y36.200
G1 X12.400 Y40.600
G1 X-12.400 Y40.600
G1 X-12.400 Y36.200
G1 X-12.000 Y36.600
G1 X12.000 Y36.600
G1 X12.000 Y40.200
G1 X-12.000 Y40.200
G1 X-12.000 Y36.600
G1 X-11.600 Y37.000
G1 X11.600 Y37.000
G1 X11.600 Y39.800
G1 X-11.600 Y39.800
G1 X-11.600 Y37.000
G1 X-11.200 Y37.400
G1 X11.200 Y37.400
G1 X11.200 Y39.400
G1 X-11.200 Y39.400
G1 X-11.200 Y37.400
G1 X-10.800 Y37.800
G1 X10.800 Y37.800
G1 X10.800 Y39.000
G1 X-10.800 Y39.000
G1 X-10.800 Y37.800
G1 X-10.400 Y38.200
G1 X10.400 Y38.200
G1 X10.400 Y38.600
G1 X-10.400 Y38.600
G1 X-10.400 Y38.200
M9
G1 Z10.000
G1 X63.600 Y-7.000
G1 Z0.300
M7
G4 P150
G1 X63.800 Y-6.800 Z0.300
G1 X63.800 Y-6.800
G1 X69.557 Y-6.800
G1 X80.400 Y-1.871
G1 X80.400 Y1.871
G1 X69.557 Y6.800
G1 X63.800 Y6.800
G1 X63.800 Y-6.800
G1 X64.200 Y-6.400
G1 X69.470 Y-6.400
G1 X80.000 Y-1.614
G1 X80.000 Y1.614
G1 X69.470 Y6.400
G1 X64.200 Y6.400
G1 X64.200 Y-6.400
G1 X64.600 Y-6.000
G1 X69.383 Y-6.000
G1 X79.600 Y-1.356
G1 X79.600 Y1.356
G1 X69.383 Y6.000
G1 X64.600 Y6.000
G1 X64.600 Y-6.000
G1 X65.000 Y-5.600
G1 X69.297 Y-5.600
G1 X79.200 Y-1.099
G1 X79.200 Y1.099
G1 X69.297 Y5.600
G1 X65.000 Y5.600
G1 X65.000 Y-5.600
G1 X65.400 Y-5.200
G1 X69.210 Y-5.200
G1 X78.800 Y-0.841
G1 X78.800 Y0.841
G1 X69.210 Y5.200
G1 X65.400 Y5.200
G1 X65.400 Y-5.200
G1 X65.800 Y-4.800
G1 X69.123 Y-4.800
G1 X78.400 Y-0.583
G1 X78.400 Y0.583
G1 X69.123 Y4.800
G1 X65.800 Y4.800
G1 X65.800 Y-4.800
G1 X66.200 Y-4.400
G1 X69.037 Y-4.400
G1 X78.000 Y-0.326
G1 X78.000 Y0.326
G1 X69.037 Y4.400
G1 X66.200 Y4.400
G1 X66.200 Y-4.400
G1 X66.600 Y-4.000
G1 X68.950 Y-4.000
G1 X77.600 Y-0.068
G1 X77.600 Y0.068
G1 X68.950 Y4.000
G1 X66.600 Y4.000
G1 X66.600 Y-4.000
G1 X67.000 Y-3.600
G1 X68.864 Y-3.600
G1 X76.784 Y0.000
G1 X68.864 Y3.600
G1 X67.000 Y3.600
G1 X67.000 Y-3.600
G1 X67.400 Y-3.200
G1 X68.777 Y-3.200
G1 X75.817 Y0.000
G1 X68.777 Y3.200
G1 X67.400 Y3.200
G1 X67.400 Y-3.200
G1 X67.800 Y-2.800
G1 X68.690 Y-2.800
G1 X74.850 Y0.000
G1 X68.690 Y2.800
G1 X67.800 Y2.800
G1 X67.800 Y-2.800
G1 X68.200 Y-2.400
G1 X68.604 Y-2.400
G1 X73.884 Y0.000
G1 X68.604 Y2.400
G1 X68.200 Y2.400
G1 X68.200 Y-2.400
G1 X68.600 Y-1.962
G1 X72.917 Y0.000
G1 X68.600 Y1.962
G1 X68.600 Y-1.962
G1 X69.000 Y-1.341
G1 X71.950 Y-0.000
G1 X69.000 Y1.341
G1 X69.000 Y-1.341
G1 X69.400 Y-0.720
G1 X70.984 Y-0.000
G1 X69.400 Y0.720
G1 X69.400 Y-0.720
G1 X69.800 Y-0.099
G1 X70.017 Y-0.000
G1 X69.800 Y0.099
G1 X69.800 Y-0.099
M9
G1 Z10.000
G1 X-23.000 Y-22.800
G1 Z0.300
M7
G4 P150
G1 X-22.800 Y-22.677 Z0.700
G1 X-22.800 Y-22.677
G1 X-14.901 Y-26.677
G1 X-14.800 Y-49.940
G1 X0.000 Y-72.634
G1 X14.800 Y-49.940
G1 X14.901 Y-26.677
G1 X22.800 Y-22.677
G1 X22.800 Y-9.800
G1 X35.786 Y-9.800
G1 X56.786 Y-6.800
G1 X69.557 Y-6.800
G1 X80.400 Y-1.871
G1 X80.400 Y1.871
G1 X69.557 Y6.800
G1 X56.786 Y6.800
G1 X35.786 Y9.800
G1 X22.800 Y9.800
G1 X22.800 Y22.677
G1 X14.901 Y26.677
G1 X14.800 Y49.940
G1 X0.000 Y72.634
G1 X-14.800 Y49.940
G1 X-14.901 Y26.677
G1 X-22.800 Y22.677
G1 X-22.800 Y-22.677
G1 X-22.400 Y-22.431
G1 X-14.502 Y-26.430
G1 X-14.401 Y-49.820
G1 X0.000 Y-71.902
G1 X14.401 Y-49.820
G1 X14.502 Y-26.430
G1 X22.400 Y-22.431
G1 X22.400 Y-9.400
G1 X35.757 Y-9.400
G1 X56.757 Y-6.400
G1 X69.470 Y-6.400
G1 X80.000 Y-1.614
G1 X80.000 Y1.614
G1 X69.470 Y6.400
G1 X56.757 Y6.400
G1 X35.757 Y9.400
G1 X22.400 Y9.400
G1 X22.400 Y22.431
G1 X14.502 Y26.430
G1 X14.401 Y49.820
G1 X0.000 Y71.902
G1 X-14.401 Y49.820
G1 X-14.502 Y26.430
G1 X-22.400 Y22.431
G1 X-22.400 Y-22.431
G1 X-22.000 Y-22.185
G1 X-14.103 Y-26.184
G1 X-14.001 Y-49.701
G1 X0.000 Y-71.169
G1 X14.001 Y-49.701
G1 X14.103 Y-26.184
G1 X22.000 Y-22.185
G1 X22.000 Y-9.000
G1 X35.729 Y-9.000
G1 X56.729 Y-6.000
G1 X69.383 Y-6.000
G1 X79.600 Y-1.356
G1 X79.600 Y1.356
G1 X69.383 Y6.000
G1 X56.729 Y6.000
G1 X35.729 Y9.000
G1 X22.000 Y9.000
G1 X22.000 Y22.185
G1 X14.103 Y26.184
G1 X14.001 Y49.701
G1 X0.000 Y71.169
G1 X-14.001 Y49.701
G1 X-14.103 Y26.184
G1 X-22.000 Y22.185
G1 X-22.000 Y-22.185
G1 X-21.600 Y-21.940
G1 X-13.704 Y-25.938
G1 X-13.602 Y-49.581
G1 X0.000 Y-70.437
G1 X13.602 Y-49.581
G1 X13.704 Y-25.938
G1 X21.600 Y-21.940
G1 X21.600 Y-8.600
G1 X35.701 Y-8.600
G1 X56.701 Y-5.600
G1 X69.297 Y-5.600
G1 X79.200 Y-1.099
G1 X79.200 Y1.099
G1 X69.297 Y5.600
G1 X56.701 Y5.600
G1 X35.701 Y8.600
G1 X21.600 Y8.600
G1 X21.600 Y21.940
G1 X13.704 Y25.938
G1 X13.602 Y49.581
G1 X0.000 Y70.437
G1 X-13.602 Y49.581
G1 X-13.704 Y25.938
G1 X-21.600 Y21.940
G1 X-21.600 Y-21.940
G1 X-21.200 Y-21.694
G1 X-13.305 Y-25.691
G1 X-13.202 Y-49.461
G1 X0.000 Y-69.705
G1 X13.202 Y-49.461
G1 X13.305 Y-25.691
G1 X21.200 Y-21.694
G1 X21.200 Y-8.200
G1 X35.672 Y-8.200
G1 X56.672 Y-5.200
G1 X69.210 Y-5.200
G1 X78.800 Y-0.841
G1 X78.800 Y0.841
G1 X69.210 Y5.200
G1 X56.672 Y5.200
G1 X35.672 Y8.200
G1 X21.200 Y8.200
G1 X21.200 Y21.694
G1 X13.305 Y25.691
G1 X13.202 Y49.461
G1 X0.000 Y69.705
G1 X-13.202 Y49.461
G1 X-13.305 Y25.691
G1 X-21.200 Y21.694
G1 X-21.200 Y-21.694
G1 X-20.800 Y-21.448
G1 X-12.906 Y-25.445
G1 X-12.803 Y-49.342
G1 X0.000 Y-68.973
G1 X12.803 Y-49.342
G1 X12.906 Y-25.445
G1 X20.800 Y-21.448
G1 X20.800 Y-7.800
G1 X35.644 Y-7.800
G1 X56.644 Y-4.800
G1 X69.123 Y-4.800
G1 X78.400 Y-0.583
G1 X78.400 Y0.583
G1 X69.123 Y4.800
G1 X56.644 Y4.800
G1 X35.644 Y7.800
G1 X20.800 Y7.800
G1 X20.800 Y21.448
G1 X12.906 Y25.445
G1 X12.803 Y49.342
G1 X0.000 Y68.973
G1 X-12.803 Y49.342
G1 X-12.906 Y25.445
G1 X-20.800 Y21.448
G1 X-20.800 Y-21.448
G1 X-20.400 Y-21.202
G1 X-12.507 Y-25.199
G1 X-12.403 Y-49.222
G1 X0.000 Y-68.240
G1 X12.403 Y-49.222
G1 X12.507 Y-25.199
G1 X20.400 Y-21.202
G1 X20.400 Y-7.400
G1 X35.615 Y-7.400
G1 X56.615 Y-4.400
G1 X69.037 Y-4.400
G1 X78.000 Y-0.326
G1 X78.000 Y0.326
G1 X69.037 Y4.400
G1 X56.615 Y4.400
G1 X35.615 Y7.400
G1 X20.400 Y7.400
G1 X20.400 Y21.202
G1 X12.507 Y25.199
G1 X12.403 Y49.222
G1 X0.000 Y68.240
G1 X-12.403 Y49.222
G1 X-12.507 Y25.199
G1 X-20.400 Y21.202
G1 X-20.400 Y-21.202
G1 X-20.000 Y-20.956
G1 X-12.108 Y-24.952
G1 X-12.004 Y-49.102
G1 X0.000 Y-67.508
G1 X12.004 Y-49.102
G1 X12.108 Y-24.952
G1 X20.000 Y-20.956
G1 X20.000 Y-7.000
G1 X35.587 Y-7.000
G1 X56.587 Y-4.000
G1 X68.950 Y-4.000
G1 X77.600 Y-0.068
G1 X77.600 Y0.068
G1 X68.950 Y4.000
G1 X56.587 Y4.000
G1 X35.587 Y7.000
G1 X20.000 Y7.000
G1 X20.000 Y20.956
G1 X12.108 Y24.952
G1 X12.004 Y49.102
G1 X0.000 Y67.508
G1 X-12.004 Y49.102
G1 X-12.108 Y24.952
G1 X-20.000 Y20.956
G1 X-20.000 Y-20.956
G1 X-19.600 Y-20.711
G1 X-11.709 Y-24.706
G1 X-11.604 Y-48.983
G1 X0.000 Y-66.776
G1 X11.604 Y-48.983
G1 X11.709 Y-24.706
G1 X19.600 Y-20.711
G1 X19.600 Y-6.600
G1 X35.558 Y-6.600
G1 X56.558 Y-3.600
G1 X68.864 Y-3.600
G1 X76.784 Y0.000
G1 X68.864 Y3.600
G1 X56.558 Y3.600
G1 X35.558 Y6.600
G1 X19.600 Y6.600
G1 X19.600 Y20.711
G1 X11.709 Y24.706
G1 X11.604 Y48.983
G1 X0.000 Y66.776
G1 X-11.604 Y48.983
G1 X-11.709 Y24.706
G1 X-19.600 Y20.711
G1 X-19.600 Y-20.711
G1 X-19.200 Y-20.465
G1 X-11.310 Y-24.460
G1 X-11.205 Y-48.863
G1 X0.000 Y-66.044
G1 X11.205 Y-48.863
G1 X11.310 Y-24.460
G1 X19.200 Y-20.465
G1 X19.200 Y-6.200
G1 X35.530 Y-6.200
G1 X56.530 Y-3.200
G1 X68.777 Y-3.200
G1 X75.817 Y0.000
G1 X68.777 Y3.200
G1 X56.530 Y3.200
G1 X35.530 Y6.200
G1 X19.200 Y6.200
G1 X19.200 Y20.465
G1 X11.310 Y24.460
G1 X11.205 Y48.863
G1 X0.000 Y66.044
G1 X-11.205 Y48.863
G1 X-11.310 Y24.460
G1 X-19.200 Y20.465
G1 X-19.200 Y-20.465
G1 X-18.800 Y-20.219
G1 X-10.911 Y-24.213
G1 X-10.805 Y-48.743
G1 X0.000 Y-65.311
G1 X10.805 Y-48.743
G1 X10.911 Y-24.213
G1 X18.800 Y-20.219
G1 X18.800 Y-5.800
G1 X35.502 Y-5.800
G1 X56.502 Y-2.800
G1 X68.690 Y-2.800
G1 X74.850 Y0.000
G1 X68.690 Y2.800
G1 X56.502 Y2.800
G1 X35.502 Y5.800
G1 X18.800 Y5.800
G1 X18.800 Y20.219
G1 X10.911 Y24.213
G1 X10.805 Y48.743
G1 X0.000 Y65.311
G1 X-10.805 Y48.743
G1 X-10.911 Y24.213
G1 X-18.800 Y20.219
G1 X-18.800 Y-20.219
G1 X-18.400 Y-19.973
G1 X-10.512 Y-23.967
G1 X-10.406 Y-48.624
G1 X0.000 Y-64.579
G1 X10.406 Y-48.624
G1 X10.512 Y-23.967
G1 X18.400 Y-19.973
G1 X18.400 Y-5.400
G1 X35.473 Y-5.400
G1 X56.473 Y-2.400
G1 X68.604 Y-2.400
G1 X73.884 Y0.000
G1 X68.604 Y2.400
G1 X56.473 Y2.400
G1 X35.473 Y5.400
G1 X18.400 Y5.400
G1 X18.400 Y19.973
G1 X10.512 Y23.967
G1 X10.406 Y48.624
G1 X0.000 Y64.579
G1 X-10.406 Y48.624
G1 X-10.512 Y23.967
G1 X-18.400 Y19.973
G1 X-18.400 Y-19.973
G1 X-18.000 Y-19.727
G1 X-10.113 Y-23.721
G1 X-10.006 Y-48.504
G1 X0.000 Y-63.847
G1 X10.006 Y-48.504
G1 X10.113 Y-23.721
G1 X18.000 Y-19.727
G1 X18.000 Y-5.000
G1 X35.445 Y-5.000
G1 X56.445 Y-2.000
G1 X68.517 Y-2.000
G1 X72.917 Y0.000
G1 X68.517 Y2.000
G1 X56.445 Y2.000
G1 X35.445 Y5.000
G1 X18.000 Y5.000
G1 X18.000 Y19.727
G1 X10.113 Y23.721
G1 X10.006 Y48.504
G1 X0.000 Y63.847
G1 X-10.006 Y48.504
G1 X-10.113 Y23.721
G1 X-18.000 Y19.727
G1 X-18.000 Y-19.727
G1 X-17.600 Y-19.481
G1 X-9.714 Y-23.474
G1 X-9.607 Y-48.384
G1 X0.000 Y-63.115
G1 X9.607 Y-48.384
G1 X9.714 Y-23.474
G1 X17.600 Y-19.481
G1 X17.600 Y-4.600
G1 X35.416 Y-4.600
G1 X56.416 Y-1.600
G1 X68.430 Y-1.600
G1 X71.950 Y0.000
G1 X68.430 Y1.600
G1 X56.416 Y1.600
G1 X35.416 Y4.600
G1 X17.600 Y4.600
G1 X17.600 Y19.481
G1 X9.714 Y23.474
G1 X9.607 Y48.384
G1 X0.000 Y63.115
G1 X-9.607 Y48.384
G1 X-9.714 Y23.474
G1 X-17.600 Y19.481
G1 X-17.600 Y-19.481
G1 X-17.200 Y-19.236
G1 X-9.315 Y-23.228
G1 X-9.207 Y-48.264
G1 X0.000 Y-62.382
G1 X9.207 Y-48.264
G1 X9.315 Y-23.228
G1 X17.200 Y-19.236
G1 X17.200 Y-4.200
G1 X35.388 Y-4.200
G1 X56.388 Y-1.200
G1 X68.344 Y-1.200
G1 X70.984 Y0.000
G1 X68.344 Y1.200
G1 X56.388 Y1.200
G1 X35.388 Y4.200
G1 X17.200 Y4.200
G1 X17.200 Y19.236
G1 X9.315 Y23.228
G1 X9.207 Y48.264
G1 X0.000 Y62.382
G1 X-9.207 Y48.264
G1 X-9.315 Y23.228
G1 X-17.200 Y19.236
G1 X-17.200 Y-19.236
G1 X-16.800 Y-18.990
G1 X-8.916 Y-22.981
G1 X-8.808 Y-48.145
G1 X0.000 Y-61.650
G1 X8.808 Y-48.145
G1 X8.916 Y-22.981
G1 X16.800 Y-18.990
G1 X16.800 Y-3.800
G1 X35.359 Y-3.800
G1 X56.359 Y-0.800
G1 X68.257 Y-0.800
G1 X70.017 Y0.000
G1 X68.257 Y0.800
G1 X56.359 Y0.800
G1 X35.359 Y3.800
G1 X16.800 Y3.800
G1 X16.800 Y18.990
G1 X8.916 Y22.981
G1 X8.808 Y48.145
G1 X0.000 Y61.650
G1 X-8.808 Y48.145
G1 X-8.916 Y22.981
G1 X-16.800 Y18.990
G1 X-16.800 Y-18.990
G1 X-16.400 Y-18.744
G1 X-8.517 Y-22.735
G1 X-8.408 Y-48.025
G1 X0.000 Y-60.918
G1 X8.408 Y-48.025
G1 X8.517 Y-22.735
G1 X16.400 Y-18.744
G1 X16.400 Y-3.400
G1 X35.331 Y-3.400
G1 X56.331 Y-0.400
G1 X68.170 Y-0.400
G1 X69.050 Y0.000
G1 X68.170 Y0.400
G1 X56.331 Y0.400
G1 X35.331 Y3.400
G1 X16.400 Y3.400
G1 X16.400 Y18.744
G1 X8.517 Y22.735
G1 X8.408 Y48.025
G1 X0.000 Y60.918
G1 X-8.408 Y48.025
G1 X-8.517 Y22.735
G1 X-16.400 Y18.744
G1 X-16.400 Y-18.744
G1 X-16.000 Y-18.498
G1 X-8.119 Y-22.489
G1 X-8.009 Y-47.905
G1 X0.000 Y-60.186
G1 X8.009 Y-47.905
G1 X8.119 Y-22.489
G1 X16.000 Y-18.498
G1 X16.000 Y-3.000
G1 X35.303 Y-3.000
G1 X56.303 Y-0.000
G1 X35.303 Y3.000
G1 X16.000 Y3.000
G1 X16.000 Y18.498
G1 X8.119 Y22.489
G1 X8.009 Y47.905
G1 X0.000 Y60.186
G1 X-8.009 Y47.905
G1 X-8.119 Y22.489
G1 X-16.000 Y18.498
G1 X-16.000 Y-18.498
G1 X-15.600 Y-18.252
G1 X-7.720 Y-22.242
G1 X-7.609 Y-47.786
G1 X0.000 Y-59.454
G1 X7.609 Y-47.786
G1 X7.720 Y-22.242
G1 X15.600 Y-18.252
G1 X15.600 Y-2.600
G1 X35.274 Y-2.600
G1 X53.474 Y0.000
G1 X35.274 Y2.600
G1 X15.600 Y2.600
G1 X15.600 Y18.252
G1 X7.720 Y22.242
G1 X7.609 Y47.786
G1 X-0.000 Y59.454
G1 X-7.609 Y47.786
G1 X-7.720 Y22.242
G1 X-15.600 Y18.252
G1 X-15.600 Y-18.252
G1 X-15.200 Y-18.007
G1 X-7.321 Y-21.996
G1 X-7.210 Y-47.666
G1 X0.000 Y-58.721
G1 X7.210 Y-47.666
G1 X7.321 Y-21.996
G1 X15.200 Y-18.007
G1 X15.200 Y-2.200
G1 X35.246 Y-2.200
G1 X50.646 Y0.000
G1 X35.246 Y2.200
G1 X15.200 Y2.200
G1 X15.200 Y18.007
G1 X7.321 Y21.996
G1 X7.210 Y47.666
G1 X0.000 Y58.721
G1 X-7.210 Y47.666
G1 X-7.321 Y21.996
G1 X-15.200 Y18.007
G1 X-15.200 Y-18.007
G1 X-14.800 Y-17.761
G1 X-6.922 Y-21.750
G1 X-6.811 Y-47.546
G1 X0.000 Y-57.989
G1 X6.811 Y-47.546
G1 X6.922 Y-21.750
G1 X14.800 Y-17.761
G1 X14.800 Y-1.800
G1 X35.217 Y-1.800
G1 X47.817 Y-0.000
G1 X35.217 Y1.800
G1 X14.800 Y1.800
G1 X14.800 Y17.761
G1 X6.922 Y21.750
G1 X6.811 Y47.546
G1 X0.000 Y57.989
G1 X-6.811 Y47.546
G1 X-6.922 Y21.750
G1 X-14.800 Y17.761
G1 X-14.800 Y-17.761
G1 X-14.400 Y-17.515
G1 X-6.523 Y-21.503
G1 X-6.411 Y-47.427
G1 X0.000 Y-57.257
G1 X6.411 Y-47.427
G1 X6.523 Y-21.503
G1 X14.400 Y-17.515
G1 X14.400 Y-1.400
G1 X35.189 Y-1.400
G1 X44.989 Y0.000
G1 X35.189 Y1.400
G1 X14.400 Y1.400
G1 X14.400 Y17.515
G1 X6.523 Y21.503
G1 X6.411 Y47.427
G1 X0.000 Y57.257
G1 X-6.411 Y47.427
G1 X-6.523 Y21.503
G1 X-14.400 Y17.515
G1 X-14.400 Y-17.515
G1 X-14.000 Y-17.269
G1 X-6.124 Y-21.257
G1 X-6.012 Y-47.307
G1 X0.000 Y-56.525
G1 X6.012 Y-47.307
G1 X6.124 Y-21.257
G1 X14.000 Y-17.269
G1 X14.000 Y-1.000
G1 X35.160 Y-1.000
G1 X42.160 Y0.000
G1 X35.160 Y1.000
G1 X14.000 Y1.000
G1 X14.000 Y17.269
G1 X6.124 Y21.257
G1 X6.012 Y47.307
G1 X-0.000 Y56.525
G1 X-6.012 Y47.307
G1 X-6.124 Y21.257
G1 X-14.000 Y17.269
G1 X-14.000 Y-17.269
G1 X-13.600 Y-17.023
G1 X-5.725 Y-21.011
G1 X-5.612 Y-47.187
G1 X0.000 Y-55.792
G1 X5.612 Y-47.187
G1 X5.725 Y-21.011
G1 X13.600 Y-17.023
G1 X13.600 Y-0.600
G1 X35.132 Y-0.600
G1 X39.332 Y-0.000
G1 X35.132 Y0.600
G1 X13.600 Y0.600
G1 X13.600 Y17.023
G1 X5.725 Y21.011
G1 X5.612 Y47.187
G1 X0.000 Y55.792
G1 X-5.612 Y47.187
G1 X-5.725 Y21.011
G1 X-13.600 Y17.023
G1 X-13.600 Y-17.023
G1 X-13.200 Y-16.777
G1 X-5.326 Y-20.764
G1 X-5.213 Y-47.068
G1 X0.000 Y-55.060
G1 X5.213 Y-47.068
G1 X5.326 Y-20.764
G1 X13.200 Y-16.777
G1 X13.200 Y-0.200
G1 X35.104 Y-0.200
G1 X36.504 Y0.000
G1 X35.104 Y0.200
G1 X13.200 Y0.200
G1 X13.200 Y16.777
G1 X5.326 Y20.764
G1 X5.213 Y47.068
G1 X0.000 Y55.060
G1 X-5.213 Y47.068
G1 X-5.326 Y20.764
G1 X-13.200 Y16.777
G1 X-13.200 Y-16.777
G1 X-12.800 Y-16.532
G1 X-4.927 Y-20.518
G1 X-4.813 Y-46.948
G1 X0.000 Y-54.328
G1 X4.813 Y-46.948
G1 X4.927 Y-20.518
G1 X12.800 Y-16.532
G1 X12.800 Y16.532
G1 X4.927 Y20.518
G1 X4.813 Y46.948
G1 X0.000 Y54.328
G1 X-4.813 Y46.948
G1 X-4.927 Y20.518
G1 X-12.800 Y16.532
G1 X-12.800 Y-16.532
G1 X-12.400 Y-16.286
G1 X-4.528 Y-20.272
G1 X-4.414 Y-46.828
G1 X0.000 Y-53.596
G1 X4.414 Y-46.828
G1 X4.528 Y-20.272
G1 X12.400 Y-16.286
G1 X12.400 Y16.286
G1 X4.528 Y20.272
G1 X4.414 Y46.828
G1 X0.000 Y53.596
G1 X-4.414 Y46.828
G1 X-4.528 Y20.272
G1 X-12.400 Y16.286
G1 X-12.400 Y-16.286
G1 X-12.000 Y-16.040
G1 X-4.129 Y-20.025
G1 X-4.014 Y-46.708
G1 X0.000 Y-52.863
G1 X4.014 Y-46.708
G1 X4.129 Y-20.025
G1 X12.000 Y-16.040
G1 X12.000 Y16.040
G1 X4.129 Y20.025
G1 X4.014 Y46.708
G1 X0.000 Y52.863
G1 X-4.014 Y46.708
G1 X-4.129 Y20.025
G1 X-12.000 Y16.040
G1 X-12.000 Y-16.040
G1 X-11.600 Y-15.794
G1 X-3.730 Y-19.779
G1 X-3.615 Y-46.589
G1 X0.000 Y-52.131
G1 X3.615 Y-46.589
G1 X3.730 Y-19.779
G1 X11.600 Y-15.794
G1 X11.600 Y15.794
G1 X3.730 Y19.779
G1 X3.615 Y46.589
G1 X0.000 Y52.131
G1 X-3.615 Y46.589
G1 X-3.730 Y19.779
G1 X-11.600 Y15.794
G1 X-11.600 Y-15.794
G1 X-11.200 Y-15.548
G1 X-3.331 Y-19.533
G1 X-3.215 Y-46.469
G1 X0.000 Y-51.399
G1 X3.215 Y-46.469
G1 X3.331 Y-19.533
G1 X11.200 Y-15.548
G1 X11.200 Y15.548
G1 X3.331 Y19.533
G1 X3.215 Y46.469
G1 X0.000 Y51.399
G1 X-3.215 Y46.469
G1 X-3.331 Y19.533
G1 X-11.200 Y15.548
G1 X-11.200 Y-15.548
G1 X-10.800 Y-15.302
G1 X-2.932 Y-19.286
G1 X-2.816 Y-46.349
G1 X0.000 Y-50.667
G1 X2.816 Y-46.349
G1 X2.932 Y-19.286
G1 X10.800 Y-15.302
G1 X10.800 Y15.302
G1 X2.932 Y19.286
G1 X2.816 Y46.349
G1 X0.000 Y50.667
G1 X-2.816 Y46.349
G1 X-2.932 Y19.286
G1 X-10.800 Y15.302
G1 X-10.800 Y-15.302
G1 X-10.400 Y-15.057
G1 X-2.533 Y-19.040
G1 X-2.416 Y-46.230
G1 X0.000 Y-49.934
G1 X2.416 Y-46.230
G1 X2.533 Y-19.040
G1 X10.400 Y-15.057
G1 X10.400 Y15.057
G1 X2.533 Y19.040
G1 X2.416 Y46.230
G1 X0.000 Y49.934
G1 X-2.416 Y46.230
G1 X-2.533 Y19.040
G1 X-10.400 Y15.057
G1 X-10.400 Y-15.057
G1 X-10.000 Y-14.811
G1 X-2.134 Y-18.793
G1 X-2.017 Y-46.110
G1 X0.000 Y-49.202
G1 X2.017 Y-46.110
G1 X2.134 Y-18.793
G1 X10.000 Y-14.811
G1 X10.000 Y14.811
G1 X2.134 Y18.793
G1 X2.017 Y46.110
G1 X0.000 Y49.202
G1 X-2.017 Y46.110
G1 X-2.134 Y18.793
G1 X-10.000 Y14.811
G1 X-10.000 Y-14.811
G1 X-9.600 Y-14.565
G1 X-1.735 Y-18.547
G1 X-1.617 Y-45.990
G1 X0.000 Y-48.470
G1 X1.617 Y-45.990
G1 X1.735 Y-18.547
G1 X9.600 Y-14.565
G1 X9.600 Y14.565
G1 X1.735 Y18.547
G1 X1.617 Y45.990
G1 X0.000 Y48.470
G1 X-1.617 Y45.990
G1 X-1.735 Y18.547
G1 X-9.600 Y14.565
G1 X-9.600 Y-14.565
G1 X-9.200 Y-14.319
G1 X-1.337 Y-18.301
G1 X-1.218 Y-45.871
G1 X0.000 Y-47.738
G1 X1.218 Y-45.871
G1 X1.337 Y-18.301
G1 X9.200 Y-14.319
G1 X9.200 Y14.319
G1 X1.337 Y18.301
G1 X1.218 Y45.871
G1 X0.000 Y47.738
G1 X-1.218 Y45.871
G1 X-1.337 Y18.301
G1 X-9.200 Y14.319
G1 X-9.200 Y-14.319
G1 X-8.800 Y-14.073
G1 X-0.938 Y-18.054
G1 X-0.818 Y-45.751
G1 X0.000 Y-47.005
G1 X0.818 Y-45.751
G1 X0.938 Y-18.054
G1 X8.800 Y-14.073
G1 X8.800 Y14.073
G1 X0.938 Y18.054
G1 X0.818 Y45.751
G1 X0.000 Y47.005
G1 X-0.818 Y45.751
G1 X-0.938 Y18.054
G1 X-8.800 Y14.073
G1 X-8.800 Y-14.073
G1 X-8.400 Y-13.828
G1 X-0.539 Y-17.808
G1 X-0.419 Y-45.631
G1 X0.000 Y-46.273
G1 X0.419 Y-45.631
G1 X0.539 Y-17.808
G1 X8.400 Y-13.828
G1 X8.400 Y13.828
G1 X0.539 Y17.808
G1 X0.419 Y45.631
G1 X0.000 Y46.273
G1 X-0.419 Y45.631
G1 X-0.539 Y17.808
G1 X-8.400 Y13.828
G1 X-8.400 Y-13.828
G1 X-8.000 Y-13.582
G1 X-0.140 Y-17.562
G1 X-0.019 Y-45.511
G1 X0.000 Y-45.541
G1 X0.019 Y-45.511
G1 X0.140 Y-17.562
G1 X8.000 Y-13.582
G1 X8.000 Y13.582
G1 X0.140 Y17.562
G1 X0.019 Y45.511
G1 X-0.000 Y45.541
G1 X-0.019 Y45.511
G1 X-0.140 Y17.562
G1 X-8.000 Y13.582
G1 X-8.000 Y-13.582
G1 X-7.600 Y-13.336
G1 X-0.000 Y-17.184
G1 X7.600 Y-13.336
G1 X7.600 Y13.336
G1 X0.000 Y17.184
G1 X-7.600 Y13.336
G1 X-7.600 Y-13.336
G1 X-7.200 Y-13.090
G1 X-0.000 Y-16.736
G1 X7.200 Y-13.090
G1 X7.200 Y13.090
G1 X0.000 Y16.736
G1 X-7.200 Y13.090
G1 X-7.200 Y-13.090
G1 X-6.800 Y-12.844
G1 X-0.000 Y-16.287
G1 X6.800 Y-12.844
G1 X6.800 Y12.844
G1 X0.000 Y16.287
G1 X-6.800 Y12.844
G1 X-6.800 Y-12.844
G1 X-6.400 Y-12.598
G1 X-0.000 Y-15.839
G1 X6.400 Y-12.598
G1 X6.400 Y12.598
G1 X0.000 Y15.839
G1 X-6.400 Y12.598
G1 X-6.400 Y-12.598
G1 X-6.000 Y-12.353
G1 X-0.000 Y-15.391
G1 X6.000 Y-12.353
G1 X6.000 Y12.353
G1 X0.000 Y15.391
G1 X-6.000 Y12.353
G1 X-6.000 Y-12.353
G1 X-5.600 Y-12.107
G1 X-0.000 Y-14.942
G1 X5.600 Y-12.107
G1 X5.600 Y12.107
G1 X0.000 Y14.942
G1 X-5.600 Y12.107
G1 X-5.600 Y-12.107
G1 X-5.200 Y-11.861
G1 X-0.000 Y-14.494
G1 X5.200 Y-11.861
G1 X5.200 Y11.861
G1 X0.000 Y14.494
G1 X-5.200 Y11.861
G1 X-5.200 Y-11.861
G1 X-4.800 Y-11.615
G1 X-0.000 Y-14.046
G1 X4.800 Y-11.615
G1 X4.800 Y11.615
G1 X0.000 Y14.046
G1 X-4.800 Y11.615
G1 X-4.800 Y-11.615
G1 X-4.400 Y-11.369
G1 X-0.000 Y-13.597
G1 X4.400 Y-11.369
G1 X4.400 Y11.369
G1 X0.000 Y13.597
G1 X-4.400 Y11.369
G1 X-4.400 Y-11.369
G1 X-4.000 Y-11.124
G1 X-0.000 Y-13.149
G1 X4.000 Y-11.124
G1 X4.000 Y11.124
G1 X0.000 Y13.149
G1 X-4.000 Y11.124
G1 X-4.000 Y-11.124
G1 X-3.600 Y-10.878
G1 X-0.000 Y-12.701
G1 X3.600 Y-10.878
G1 X3.600 Y10.878
G1 X0.000 Y12.701
G1 X-3.600 Y10.878
G1 X-3.600 Y-10.878
G1 X-3.200 Y-10.632
G1 X-0.000 Y-12.252
G1 X3.200 Y-10.632
G1 X3.200 Y10.632
G1 X0.000 Y12.252
G1 X-3.200 Y10.632
G1 X-3.200 Y-10.632
G1 X-2.800 Y-10.386
G1 X-0.000 Y-11.804
G1 X2.800 Y-10.386
G1 X2.800 Y10.386
G1 X0.000 Y11.804
G1 X-2.800 Y10.386
G1 X-2.800 Y-10.386
G1 X-2.400 Y-10.140
G1 X-0.000 Y-11.355
G1 X2.400 Y-10.140
G1 X2.400 Y10.140
G1 X0.000 Y11.355
G1 X-2.400 Y10.140
G1 X-2.400 Y-10.140
G1 X-2.000 Y-9.894
G1 X-0.000 Y-10.907
G1 X2.000 Y-9.894
G1 X2.000 Y9.894
G1 X0.000 Y10.907
G1 X-2.000 Y9.894
G1 X-2.000 Y-9.894
G1 X-1.600 Y-9.649
G1 X-0.000 Y-10.459
G1 X1.600 Y-9.649
G1 X1.600 Y9.649
G1 X0.000 Y10.459
G1 X-1.600 Y9.649
G1 X-1.600 Y-9.649
G1 X-1.200 Y-9.403
G1 X-0.000 Y-10.010
G1 X1.200 Y-9.403
G1 X1.200 Y9.403
G1 X0.000 Y10.010
G1 X-1.200 Y9.403
G1 X-1.200 Y-9.403
G1 X-0.800 Y-9.157
G1 X-0.000 Y-9.562
G1 X0.800 Y-9.157
G1 X0.800 Y9.157
G1 X0.000 Y9.562
G1 X-0.800 Y9.157
G1 X-0.800 Y-9.157
G1 X-0.400 Y-8.911
G1 X-0.000 Y-9.114
G1 X0.400 Y-8.911
G1 X0.400 Y8.911
G1 X0.000 Y9.114
G1 X-0.400 Y8.911
G1 X-0.400 Y-8.911
G1 X-0.000 Y-8.665
G1 X-0.000 Y-8.665
G1 X0.000 Y-8.665
G1 X0.000 Y8.665
G1 X0.000 Y8.665
G1 X-0.000 Y8.665
G1 X-0.000 Y-8.665
M9
G1 Z10.000
G1 X0.023 Y-0.012
G1 Z1.100
M7
G4 P150