;layer_height = 0.4
;line_width = 0.4
;layer_count = 10
;mesh = bird_base_bad
G21 ;start of the code
G1 Z15 F300
G28 X0 Y0 ;Home
G92 X0 Y0 ;Consider this as current
G0 X50 Y50 F3000 ;Go-to Offset
G92 X0 Y0 ;Reset

G0 F3600 X-70.711 Y4.800 Z0.300 ;Go to start position
M7
G4 P150


G1 X-70.511 Y9.400 Z0.300
G1 X-70.511 Y9.400
G1 X-70.511 Y-9.400
G1 X-0.200 Y-9.400
G1 X-0.200 Y9.400
G1 X-70.511 Y9.400
G1 X-70.111 Y9.000
G1 X-70.111 Y-9.000
G1 X-0.600 Y-9.000
G1 X-0.600 Y9.000
G1 X-70.111 Y9.000
G1 X-69.711 Y8.600
G1 X-69.711 Y-8.600
G1 X-1.000 Y-8.600
G1 X-1.000 Y8.600
G1 X-69.711 Y8.600
G1 X-69.311 Y8.200
G1 X-69.311 Y-8.200
G1 X-1.400 Y-8.200
G1 X-1.400 Y8.200
G1 X-69.311 Y8.200
G1 X-68.911 Y7.800
G1 X-68.911 Y-7.800
G1 X-1.800 Y-7.800
G1 X-1.800 Y7.800
G1 X-68.911 Y7.800
G1 X-68.511 Y7.400
G1 X-68.511 Y-7.400
G1 X-2.200 Y-7.400
G1 X-2.200 Y7.400
G1 X-68.511 Y7.400
G1 X-68.111 Y7.000
G1 X-68.111 Y-7.000
G1 X-2.600 Y-7.000
G1 X-2.600 Y7.000
G1 X-68.111 Y7.000
G1 X-67.711 Y6.600
G1 X-67.711 Y-6.600
G1 X-3.000 Y-6.600
G1 X-3.000 Y6.600
G1 X-67.711 Y6.600
G1 X-67.311 Y6.200
G1 X-67.311 Y-6.200
G1 X-3.400 Y-6.200
G1 X-3.400 Y6.200
G1 X-67.311 Y6.200
G1 X-66.911 Y5.800
G1 X-66.911 Y-5.800
G1 X-3.800 Y-5.800
G1 X-3.800 Y5.800
G1 X-66.911 Y5.800
G1 X-66.511 Y5.400
G1 X-66.511 Y-5.400
G1 X-4.200 Y-5.400
G1 X-4.200 Y5.400
G1 X-66.511 Y5.400
G1 X-66.111 Y5.000
G1 X-66.111 Y-5.000
G1 X-4.600 Y-5.000
G1 X-4.600 Y5.000
G1 X-66.111 Y5.000
G1 X-65.711 Y4.600
G1 X-65.711 Y-4.600
G1 X-5.000 Y-4.600
G1 X-5.000 Y4.600
G1 X-65.711 Y4.600
G1 X-65.311 Y4.200
G1 X-65.311 Y-4.200
G1 X-5.400 Y-4.200
G1 X-5.400 Y4.200
G1 X-65.311 Y4.200
G1 X-64.911 Y3.800
G1 X-64.911 Y-3.800
G1 X-5.800 Y-3.800
G1 X-5.800 Y3.800
G1 X-64.911 Y3.800
G1 X-64.511 Y3.400
G1 X-64.511 Y-3.400
G1 X-6.200 Y-3.400
G1 X-6.200 Y3.400
G1 X-64.511 Y3.400
G1 X-64.111 Y3.000
G1 X-64.111 Y-3.000
G1 X-6.600 Y-3.000
G1 X-6.600 Y3.000
G1 X-64.111 Y3.000
G1 X-63.711 Y2.600
G1 X-63.711 Y-2.600
G1 X-7.000 Y-2.600
G1 X-7.000 Y2.600
G1 X-63.711 Y2.600
G1 X-63.311 Y2.200
G1 X-63.311 Y-2.200
G1 X-7.400 Y-2.200
G1 X-7.400 Y2.200
G1 X-63.311 Y2.200
G1 X-62.911 Y1.800
G1 X-62.911 Y-1.800
G1 X-7.800 Y-1.800
G1 X-7.800 Y1.800
G1 X-62.911 Y1.800
G1 X-62.511 Y1.400
G1 X-62.511 Y-1.400
G1 X-8.200 Y-1.400
G1 X-8.200 Y1.400
G1 X-62.511 Y1.400
G1 X-62.111 Y1.000
G1 X-62.111 Y-1.000
G1 X-8.600 Y-1.000
G1 X-8.600 Y1.000
G1 X-62.111 Y1.000
G1 X-61.711 Y0.600
G1 X-61.711 Y-0.600
G1 X-9.000 Y-0.600
G1 X-9.000 Y0.600
G1 X-61.711 Y0.600
G1 X-61.311 Y0.200
G1 X-61.311 Y-0.200
G1 X-9.400 Y-0.200
G1 X-9.400 Y0.200
G1 X-61.311 Y0.200
M9
G1 Z10.000
G1 X-70.711 Y10.400
G1 Z0.300
M7
G4 P150
G1 X-69.705 Y10.600 Z0.300
G1 X-69.705 Y10.600
G1 X-0.040 Y10.600
G1 X34.833 Y25.045
G1 X20.558 Y30.958
G1 X-0.000 Y80.588
G1 X-20.558 Y30.958
G1 X-69.705 Y10.600
G1 X-67.694 Y11.000
G1 X-0.119 Y11.000
G1 X33.787 Y25.045
G1 X20.251 Y30.651
G1 X-0.000 Y79.543
G1 X-20.251 Y30.651
G1 X-67.694 Y11.000
G1 X-65.683 Y11.400
G1 X-0.199 Y11.400
G1 X32.742 Y25.045
G1 X19.945 Y30.345
G1 X-0.000 Y78.498
G1 X-19.945 Y30.345
G1 X-65.683 Y11.400
G1 X-63.672 Y11.800
G1 X-0.278 Y11.800
G1 X31.697 Y25.045
G1 X19.639 Y30.039
G1 X0.000 Y77.452
G1 X-19.639 Y30.039
G1 X-63.672 Y11.800
G1 X-61.661 Y12.200
G1 X-0.358 Y12.200
G1 X30.652 Y25.045
G1 X19.333 Y29.733
G1 X-0.000 Y76.407
G1 X-19.333 Y29.733
G1 X-61.661 Y12.200
G1 X-59.651 Y12.600
G1 X-0.438 Y12.600
G1 X29.606 Y25.045
G1 X19.027 Y29.427
G1 X-0.000 Y75.362
G1 X-19.027 Y29.427
G1 X-59.651 Y12.600
G1 X-57.640 Y13.000
G1 X-0.517 Y13.000
G1 X28.561 Y25.045
G1 X18.721 Y29.121
G1 X0.000 Y74.317
G1 X-18.721 Y29.121
G1 X-57.640 Y13.000
G1 X-55.629 Y13.400
G1 X-0.597 Y13.400
G1 X27.516 Y25.045
G1 X18.415 Y28.815
G1 X0.000 Y73.271
G1 X-18.415 Y28.815
G1 X-55.629 Y13.400
G1 X-53.618 Y13.800
G1 X-0.676 Y13.800
G1 X26.471 Y25.045
G1 X18.108 Y28.508
G1 X0.000 Y72.226
G1 X-18.108 Y28.508
G1 X-53.618 Y13.800
G1 X-51.607 Y14.200
G1 X-0.756 Y14.200
G1 X25.425 Y25.045
G1 X17.802 Y28.202
G1 X0.000 Y71.181
G1 X-17.802 Y28.202
G1 X-51.607 Y14.200
G1 X-49.596 Y14.600
G1 X-0.835 Y14.600
G1 X24.380 Y25.045
G1 X17.496 Y27.896
G1 X0.000 Y70.136
G1 X-17.496 Y27.896
G1 X-49.596 Y14.600
G1 X-47.585 Y15.000
G1 X-0.915 Y15.000
G1 X23.335 Y25.045
G1 X17.190 Y27.590
G1 X0.000 Y69.090
G1 X-17.190 Y27.590
G1 X-47.585 Y15.000
G1 X-45.574 Y15.400
G1 X-0.995 Y15.400
G1 X22.290 Y25.045
G1 X16.884 Y27.284
G1 X-0.000 Y68.045
G1 X-16.884 Y27.284
G1 X-45.574 Y15.400
G1 X-43.563 Y15.800
G1 X-1.074 Y15.800
G1 X21.244 Y25.045
G1 X16.578 Y26.978
G1 X0.000 Y67.000
G1 X-16.578 Y26.978
G1 X-43.563 Y15.800
G1 X-41.552 Y16.200
G1 X-1.154 Y16.200
G1 X20.199 Y25.045
G1 X16.272 Y26.672
G1 X0.000 Y65.955
G1 X-16.272 Y26.672
G1 X-41.552 Y16.200
G1 X-39.541 Y16.600
G1 X-1.233 Y16.600
G1 X19.154 Y25.045
G1 X15.965 Y26.365
G1 X0.000 Y64.909
G1 X-15.965 Y26.365
G1 X-39.541 Y16.600
G1 X-37.530 Y17.000
G1 X-1.313 Y17.000
G1 X18.109 Y25.045
G1 X15.659 Y26.059
G1 X0.000 Y63.864
G1 X-15.659 Y26.059
G1 X-37.530 Y17.000
G1 X-35.519 Y17.400
G1 X-1.392 Y17.400
G1 X17.063 Y25.045
G1 X15.353 Y25.753
G1 X0.000 Y62.819
G1 X-15.353 Y25.753
G1 X-35.519 Y17.400
G1 X-33.508 Y17.800
G1 X-1.472 Y17.800
G1 X16.018 Y25.045
G1 X15.047 Y25.447
G1 X0.000 Y61.774
G1 X-15.047 Y25.447
G1 X-33.508 Y17.800
G1 X-31.497 Y18.200
G1 X-1.552 Y18.200
G1 X14.973 Y25.045
G1 X14.741 Y25.141
G1 X0.000 Y60.728
G1 X-14.741 Y25.141
G1 X-31.497 Y18.200
G1 X-29.486 Y18.600
G1 X-1.631 Y18.600
G1 X14.286 Y25.193
G1 X0.000 Y59.683
G1 X-14.435 Y24.835
G1 X-29.486 Y18.600
G1 X-27.476 Y19.000
G1 X-1.711 Y19.000
G1 X13.764 Y25.410
G1 X-0.000 Y58.638
G1 X-14.129 Y24.529
G1 X-27.476 Y19.000
G1 X-25.465 Y19.400
G1 X-1.790 Y19.400
G1 X13.241 Y25.626
G1 X0.000 Y57.593
G1 X-13.822 Y24.222
G1 X-25.465 Y19.400
G1 X-23.454 Y19.800
G1 X-1.870 Y19.800
G1 X12.718 Y25.843
G1 X0.000 Y56.547
G1 X-13.516 Y23.916
G1 X-23.454 Y19.800
G1 X-21.443 Y20.200
G1 X-1.949 Y20.200
G1 X12.196 Y26.059
G1 X0.000 Y55.502
G1 X-13.210 Y23.610
G1 X-21.443 Y20.200
G1 X-19.432 Y20.600
G1 X-2.029 Y20.600
G1 X11.673 Y26.276
G1 X0.000 Y54.457
G1 X-12.904 Y23.304
G1 X-19.432 Y20.600
G1 X-17.421 Y21.000
G1 X-2.108 Y21.000
G1 X11.150 Y26.492
G1 X0.000 Y53.412
G1 X-12.598 Y22.998
G1 X-17.421 Y21.000
G1 X-15.410 Y21.400
G1 X-2.188 Y21.400
G1 X10.628 Y26.708
G1 X-0.000 Y52.366
G1 X-12.292 Y22.692
G1 X-15.410 Y21.400
G1 X-13.399 Y21.800
G1 X-2.268 Y21.800
G1 X10.105 Y26.925
G1 X0.000 Y51.321
G1 X-11.985 Y22.385
G1 X-13.399 Y21.800
G1 X-11.629 Y22.200
G1 X-2.347 Y22.200
G1 X9.583 Y27.141
G1 X0.000 Y50.276
G1 X-11.629 Y22.200
G1 X-11.031 Y22.600
G1 X-2.427 Y22.600
G1 X9.060 Y27.358
G1 X-0.000 Y49.231
G1 X-11.031 Y22.600
G1 X-10.432 Y23.000
G1 X-2.506 Y23.000
G1 X8.537 Y27.574
G1 X-0.000 Y48.185
G1 X-10.432 Y23.000
G1 X-9.833 Y23.400
G1 X-2.586 Y23.400
G1 X8.015 Y27.791
G1 X-0.000 Y47.140
G1 X-9.833 Y23.400
G1 X-9.235 Y23.800
G1 X-2.665 Y23.800
G1 X7.492 Y28.007
G1 X0.000 Y46.095
G1 X-9.235 Y23.800
G1 X-8.636 Y24.200
G1 X-2.745 Y24.200
G1 X6.969 Y28.224
G1 X-0.000 Y45.050
G1 X-8.636 Y24.200
G1 X-8.038 Y24.600
G1 X-2.825 Y24.600
G1 X6.447 Y28.440
G1 X-0.000 Y44.004
G1 X-8.038 Y24.600
G1 X-7.439 Y25.000
G1 X-2.904 Y25.000
G1 X5.924 Y28.657
G1 X-0.000 Y42.959
G1 X-7.439 Y25.000
G1 X-6.840 Y25.400
G1 X-2.984 Y25.400
G1 X5.402 Y28.873
G1 X-0.000 Y41.914
G1 X-6.840 Y25.400
G1 X-6.242 Y25.800
G1 X-3.063 Y25.800
G1 X4.879 Y29.090
G1 X-0.000 Y40.869
G1 X-6.242 Y25.800
G1 X-5.643 Y26.200
G1 X-3.143 Y26.200
G1 X4.356 Y29.306
G1 X-0.000 Y39.823
G1 X-5.643 Y26.200
G1 X-5.044 Y26.600
G1 X-3.222 Y26.600
G1 X3.834 Y29.523
G1 X-0.000 Y38.778
G1 X-5.044 Y26.600
G1 X-4.446 Y27.000
G1 X-3.302 Y27.000
G1 X3.311 Y29.739
G1 X-0.000 Y37.733
G1 X-4.446 Y27.000
G1 X-3.847 Y27.400
G1 X-3.382 Y27.400
G1 X2.788 Y29.956
G1 X-0.000 Y36.688
G1 X-3.847 Y27.400
G1 X-3.204 Y27.906
G1 X2.266 Y30.172
G1 X-0.000 Y35.642
G1 X-3.204 Y27.906
G1 X-2.465 Y28.645
G1 X1.743 Y30.389
G1 X-0.000 Y34.597
G1 X-2.465 Y28.645
G1 X-1.726 Y29.385
G1 X1.221 Y30.605
G1 X-0.000 Y33.552
G1 X-1.726 Y29.385
G1 X-0.987 Y30.124
G1 X0.698 Y30.822
G1 X-0.000 Y32.507
G1 X-0.987 Y30.124
G1 X-0.248 Y30.863
G1 X0.175 Y31.038
G1 X-0.000 Y31.461
G1 X-0.248 Y30.863
M9
G1 Z10.000
G1 X-70.711 Y-5.600
G1 Z0.300
M7
G4 P150
G1 X-69.705 Y-10.600 Z0.300
G1 X-69.705 Y-10.600
G1 X-20.558 Y-30.958
G1 X0.000 Y-80.588
G1 X20.558 Y-30.958
G1 X34.833 Y-25.045
G1 X-0.040 Y-10.600
G1 X-69.705 Y-10.600
G1 X-67.694 Y-11.000
G1 X-20.251 Y-30.651
G1 X0.000 Y-79.543
G1 X20.251 Y-30.651
G1 X33.787 Y-25.045
G1 X-0.119 Y-11.000
G1 X-67.694 Y-11.000
G1 X-65.683 Y-11.400
G1 X-19.945 Y-30.345
G1 X0.000 Y-78.498
G1 X19.945 Y-30.345
G1 X32.742 Y-25.045
G1 X-0.199 Y-11.400
G1 X-65.683 Y-11.400
G1 X-63.672 Y-11.800
G1 X-19.639 Y-30.039
G1 X0.000 Y-77.452
G1 X19.639 Y-30.039
G1 X31.697 Y-25.045
G1 X-0.278 Y-11.800
G1 X-63.672 Y-11.800
G1 X-61.661 Y-12.200
G1 X-19.333 Y-29.733
G1 X0.000 Y-76.407
G1 X19.333 Y-29.733
G1 X30.652 Y-25.045
G1 X-0.358 Y-12.200
G1 X-61.661 Y-12.200
G1 X-59.651 Y-12.600
G1 X-19.027 Y-29.427
G1 X0.000 Y-75.362
G1 X19.027 Y-29.427
G1 X29.606 Y-25.045
G1 X-0.438 Y-12.600
G1 X-59.651 Y-12.600
G1 X-57.640 Y-13.000
G1 X-18.721 Y-29.121
G1 X0.000 Y-74.317
G1 X18.721 Y-29.121
G1 X28.561 Y-25.045
G1 X-0.517 Y-13.000
G1 X-57.640 Y-13.000
G1 X-55.629 Y-13.400
G1 X-18.415 Y-28.815
G1 X0.000 Y-73.271
G1 X18.415 Y-28.815
G1 X27.516 Y-25.045
G1 X-0.597 Y-13.400
G1 X-55.629 Y-13.400
G1 X-53.618 Y-13.800
G1 X-18.108 Y-28.508
G1 X0.000 Y-72.226
G1 X18.108 Y-28.508
G1 X26.471 Y-25.045
G1 X-0.676 Y-13.800
G1 X-53.618 Y-13.800
G1 X-51.607 Y-14.200
G1 X-17.802 Y-28.202
G1 X0.000 Y-71.181
G1 X17.802 Y-28.202
G1 X25.425 Y-25.045
G1 X-0.756 Y-14.200
G1 X-51.607 Y-14.200
G1 X-49.596 Y-14.600
G1 X-17.496 Y-27.896
G1 X0.000 Y-70.136
G1 X17.496 Y-27.896
G1 X24.380 Y-25.045
G1 X-0.835 Y-14.600
G1 X-49.596 Y-14.600
G1 X-47.585 Y-15.000
G1 X-17.190 Y-27.590
G1 X0.000 Y-69.090
G1 X17.190 Y-27.590
G1 X23.335 Y-25.045
G1 X-0.915 Y-15.000
G1 X-47.585 Y-15.000
G1 X-45.574 Y-15.400
G1 X-16.884 Y-27.284
G1 X0.000 Y-68.045
G1 X16.884 Y-27.284
G1 X22.290 Y-25.045
G1 X-0.995 Y-15.400
G1 X-45.574 Y-15.400
G1 X-43.563 Y-15.800
G1 X-16.578 Y-26.978
G1 X0.000 Y-67.000
G1 X16.578 Y-26.978
G1 X21.244 Y-25.045
G1 X-1.074 Y-15.800
G1 X-43.563 Y-15.800
G1 X-41.552 Y-16.200
G1 X-16.272 Y-26.672
G1 X0.000 Y-65.955
G1 X16.272 Y-26.672
G1 X20.199 Y-25.045
G1 X-1.154 Y-16.200
G1 X-41.552 Y-16.200
G1 X-39.541 Y-16.600
G1 X-15.965 Y-26.365
G1 X0.000 Y-64.909
G1 X15.965 Y-26.365
G1 X19.154 Y-25.045
G1 X-1.233 Y-16.600
G1 X-39.541 Y-16.600
G1 X-37.530 Y-17.000
G1 X-15.659 Y-26.059
G1 X0.000 Y-63.864
G1 X15.659 Y-26.059
G1 X18.109 Y-25.045
G1 X-1.313 Y-17.000
G1 X-37.530 Y-17.000
G1 X-35.519 Y-17.400
G1 X-15.353 Y-25.753
G1 X0.000 Y-62.819
G1 X15.353 Y-25.753
G1 X17.063 Y-25.045
G1 X-1.392 Y-17.400
G1 X-35.519 Y-17.400
G1 X-33.508 Y-17.800
G1 X-15.047 Y-25.447
G1 X0.000 Y-61.774
G1 X15.047 Y-25.447
G1 X16.018 Y-25.045
G1 X-1.472 Y-17.800
G1 X-33.508 Y-17.800
G1 X-31.497 Y-18.200
G1 X-14.741 Y-25.141
G1 X0.000 Y-60.728
G1 X14.741 Y-25.141
G1 X14.973 Y-25.045
G1 X-1.552 Y-18.200
G1 X-31.497 Y-18.200
G1 X-29.486 Y-18.600
G1 X-14.435 Y-24.835
G1 X0.000 Y-59.683
G1 X14.286 Y-25.193
G1 X-1.631 Y-18.600
G1 X-29.486 Y-18.600
G1 X-27.476 Y-19.000
G1 X-14.129 Y-24.529
G1 X0.000 Y-58.638
G1 X13.764 Y-25.410
G1 X-1.711 Y-19.000
G1 X-27.476 Y-19.000
G1 X-25.465 Y-19.400
G1 X-13.822 Y-24.222
G1 X0.000 Y-57.593
G1 X13.241 Y-25.626
G1 X-1.790 Y-19.400
G1 X-25.465 Y-19.400
G1 X-23.454 Y-19.800
G1 X-13.516 Y-23.916
G1 X0.000 Y-56.547
G1 X12.718 Y-25.843
G1 X-1.870 Y-19.800
G1 X-23.454 Y-19.800
G1 X-21.443 Y-20.200
G1 X-13.210 Y-23.610
G1 X0.000 Y-55.502
G1 X12.196 Y-26.059
G1 X-1.949 Y-20.200
G1 X-21.443 Y-20.200
G1 X-19.432 Y-20.600
G1 X-12.904 Y-23.304
G1 X0.000 Y-54.457
G1 X11.673 Y-26.276
G1 X-2.029 Y-20.600
G1 X-19.432 Y-20.600
G1 X-17.421 Y-21.000
G1 X-12.598 Y-22.998
G1 X0.000 Y-53.412
G1 X11.150 Y-26.492
G1 X-2.108 Y-21.000
G1 X-17.421 Y-21.000
G1 X-15.410 Y-21.400
G1 X-12.292 Y-22.692
G1 X0.000 Y-52.366
G1 X10.628 Y-26.708
G1 X-2.188 Y-21.400
G1 X-15.410 Y-21.400
G1 X-13.399 Y-21.800
G1 X-11.985 Y-22.385
G1 X0.000 Y-51.321
G1 X10.105 Y-26.925
G1 X-2.268 Y-21.800
G1 X-13.399 Y-21.800
G1 X-11.629 Y-22.200
G1 X0.000 Y-50.276
G1 X9.583 Y-27.141
G1 X-2.347 Y-22.200
G1 X-11.629 Y-22.200
G1 X-11.031 Y-22.600
G1 X-0.000 Y-49.231
G1 X9.060 Y-27.358
G1 X-2.427 Y-22.600
G1 X-11.031 Y-22.600
G1 X-10.432 Y-23.000
G1 X-0.000 Y-48.185
G1 X8.537 Y-27.574
G1 X-2.506 Y-23.000
G1 X-10.432 Y-23.000
G1 X-9.833 Y-23.400
G1 X-0.000 Y-47.140
G1 X8.015 Y-27.791
G1 X-2.586 Y-23.400
G1 X-9.833 Y-23.400
G1 X-9.235 Y-23.800
G1 X-0.000 Y-46.095
G1 X7.492 Y-28.007
G1 X-2.665 Y-23.800
G1 X-9.235 Y-23.800
G1 X-8.636 Y-24.200
G1 X-0.000 Y-45.050
G1 X6.969 Y-28.224
G1 X-2.745 Y-24.200
G1 X-8.636 Y-24.200
G1 X-8.038 Y-24.600
G1 X-0.000 Y-44.004
G1 X6.447 Y-28.440
G1 X-2.825 Y-24.600
G1 X-8.038 Y-24.600
G1 X-7.439 Y-25.000
G1 X-0.000 Y-42.959
G1 X5.924 Y-28.657
G1 X-2.904 Y-25.000
G1 X-7.439 Y-25.000
G1 X-6.840 Y-25.400
G1 X-0.000 Y-41.914
G1 X5.402 Y-28.873
G1 X-2.984 Y-25.400
G1 X-6.840 Y-25.400
G1 X-6.242 Y-25.800
G1 X-0.000 Y-40.869
G1 X4.879 Y-29.090
G1 X-3.063 Y-25.800
G1 X-6.242 Y-25.800
G1 X-5.643 Y-26.200
G1 X-0.000 Y-39.823
G1 X4.356 Y-29.306
G1 X-3.143 Y-26.200
G1 X-5.643 Y-26.200
G1 X-5.044 Y-26.600
G1 X-0.000 Y-38.778
G1 X3.834 Y-29.523
G1 X-3.222 Y-26.600
G1 X-5.044 Y-26.600
G1 X-4.446 Y-27.000
G1 X-0.000 Y-37.733
G1 X3.311 Y-29.739
G1 X-3.302 Y-27.000
G1 X-4.446 Y-27.000
G1 X-3.847 Y-27.400
G1 X-0.000 Y-36.688
G1 X2.788 Y-29.956
G1 X-3.382 Y-27.400
G1 X-3.847 Y-27.400
G1 X-3.204 Y-27.906
G1 X-0.000 Y-35.642
G1 X2.266 Y-30.172
G1 X-3.204 Y-27.906
G1 X-2.465 Y-28.645
G1 X-0.000 Y-34.597
G1 X1.743 Y-30.389
G1 X-2.465 Y-28.645
G1 X-1.726 Y-29.385
G1 X-0.000 Y-33.552
G1 X1.221 Y-30.605
G1 X-1.726 Y-29.385
G1 X-0.987 Y-30.124
G1 X-0.000 Y-32.507
G1 X0.698 Y-30.822
G1 X-0.987 Y-30.124
G1 X-0.248 Y-30.863
G1 X-0.000 Y-31.461
G1 X0.175 Y-31.038
G1 X-0.248 Y-30.863
M9
G1 Z10.000
G1 X2.091 Y10.400
G1 Z0.300
M7
G4 P150
G1 X2.542 Y10.370 Z0.300
G1 X2.542 Y10.370
G1 X12.584 Y4.572
G1 X48.421 Y19.416
G1 X36.401 Y24.395
G1 X2.542 Y10.370
G1 X3.444 Y10.311
G1 X12.614 Y5.017
G1 X47.376 Y19.416
G1 X36.401 Y23.962
G1 X3.444 Y10.311
G1 X4.347 Y10.252
G1 X12.643 Y5.462
G1 X46.330 Y19.416
G1 X36.401 Y23.529
G1 X4.347 Y10.252
G1 X5.249 Y10.193
G1 X12.672 Y5.907
G1 X45.285 Y19.416
G1 X36.401 Y23.096
G1 X5.249 Y10.193
G1 X6.152 Y10.134
G1 X12.701 Y6.352
G1 X44.240 Y19.416
G1 X36.401 Y22.663
G1 X6.152 Y10.134
G1 X7.054 Y10.075
G1 X12.730 Y6.797
G1 X43.195 Y19.416
G1 X36.401 Y22.230
G1 X7.054 Y10.075
G1 X7.956 Y10.016
G1 X12.759 Y7.242
G1 X42.149 Y19.416
G1 X36.401 Y21.797
G1 X7.956 Y10.016
G1 X8.859 Y9.956
G1 X12.789 Y7.688
G1 X41.104 Y19.416
G1 X36.401 Y21.365
G1 X8.859 Y9.956
G1 X9.761 Y9.897
G1 X12.818 Y8.133
G1 X40.059 Y19.416
G1 X36.401 Y20.932
G1 X9.761 Y9.897
G1 X10.664 Y9.838
G1 X12.847 Y8.578
G1 X39.014 Y19.416
G1 X36.401 Y20.499
G1 X10.664 Y9.838
G1 X11.566 Y9.779
G1 X12.876 Y9.023
G1 X37.968 Y19.416
G1 X36.401 Y20.066
G1 X11.566 Y9.779
G1 X12.469 Y9.720
G1 X12.905 Y9.468
G1 X36.923 Y19.416
G1 X36.401 Y19.633
G1 X12.469 Y9.720
M9
G1 Z10.000
G1 X2.091 Y-10.400
G1 Z0.300
M7
G4 P150
G1 X2.542 Y-10.370 Z0.300
G1 X2.542 Y-10.370
G1 X36.401 Y-24.395
G1 X48.421 Y-19.416
G1 X12.584 Y-4.572
G1 X2.542 Y-10.370
G1 X3.444 Y-10.311
G1 X36.401 Y-23.962
G1 X47.376 Y-19.416
G1 X12.614 Y-5.017
G1 X3.444 Y-10.311
G1 X4.347 Y-10.252
G1 X36.401 Y-23.529
G1 X46.330 Y-19.416
G1 X12.643 Y-5.462
G1 X4.347 Y-10.252
G1 X5.249 Y-10.193
G1 X36.401 Y-23.096
G1 X45.285 Y-19.416
G1 X12.672 Y-5.907
G1 X5.249 Y-10.193
G1 X6.152 Y-10.134
G1 X36.401 Y-22.663
G1 X44.240 Y-19.416
G1 X12.701 Y-6.352
G1 X6.152 Y-10.134
G1 X7.054 Y-10.075
G1 X36.401 Y-22.230
G1 X43.195 Y-19.416
G1 X12.730 Y-6.797
G1 X7.054 Y-10.075
G1 X7.956 Y-10.016
G1 X36.401 Y-21.797
G1 X42.149 Y-19.416
G1 X12.759 Y-7.242
G1 X7.956 Y-10.016
G1 X8.859 Y-9.956
G1 X36.401 Y-21.365
G1 X41.104 Y-19.416
G1 X12.789 Y-7.688
G1 X8.859 Y-9.956
G1 X9.761 Y-9.897
G1 X36.401 Y-20.932
G1 X40.059 Y-19.416
G1 X12.818 Y-8.133
G1 X9.761 Y-9.897
G1 X10.664 Y-9.838
G1 X36.401 Y-20.499
G1 X39.014 Y-19.416
G1 X12.847 Y-8.578
G1 X10.664 Y-9.838
G1 X11.566 Y-9.779
G1 X36.401 Y-20.066
G1 X37.968 Y-19.416
G1 X12.876 Y-9.023
G1 X11.566 Y-9.779
G1 X12.469 Y-9.720
G1 X36.401 Y-19.633
G1 X36.923 Y-19.416
G1 X12.905 Y-9.468
G1 X12.469 Y-9.720

;Finish
M9
G1 Z10.000
G28 X-100 Y-100;Home