;layer_height = 0.4
;line_width = 0.4
;layer_count = 1
;mesh = side
G21 ;start of the code
G1 Z15 F300
G28 X0 Y0 ;Home
G92 X0 Y0 ;Consider this as current
G0 X50 Y50 F3000 ;Go-to Offset
G92 X0 Y0 ;Reset

G0 F3600 X-18.400 Y-4.500 Z0.300 ;Go to start position
M7
G4 P150


G1 X-18.200 Y-4.300 Z0.300
G1 X18.200 Y-4.300
G1 X18.483 Y-3.900
G1 X-17.917 Y-3.900
G1 X-17.634 Y-3.500
G1 X18.766 Y-3.500
G1 X19.049 Y-3.100
G1 X-17.351 Y-3.100
G1 X-17.069 Y-2.700
G1 X19.331 Y-2.700
G1 X19.614 Y-2.300
G1 X-16.786 Y-2.300
G1 X-16.503 Y-1.900
G1 X19.897 Y-1.900
G1 X20.180 Y-1.500
G1 X-16.220 Y-1.500
G1 X-15.937 Y-1.100
G1 X20.463 Y-1.100
G1 X20.746 Y-0.700
G1 X-15.654 Y-0.700
G1 X-15.372 Y-0.300
G1 X21.028 Y-0.300
G1 X21.311 Y0.100
G1 X-15.089 Y0.100
G1 X-14.806 Y0.500
G1 X21.594 Y0.500
G1 X21.877 Y0.900
G1 X-14.523 Y0.900
G1 X-14.240 Y1.300
G1 X22.160 Y1.300
G1 X22.443 Y1.700
G1 X-13.957 Y1.700
G1 X-13.675 Y2.100
G1 X22.725 Y2.100
G1 X23.008 Y2.500
G1 X-13.392 Y2.500
G1 X-13.109 Y2.900
G1 X23.291 Y2.900
G1 X23.574 Y3.300
G1 X-12.826 Y3.300
G1 X-12.543 Y3.700
G1 X23.857 Y3.700
G1 X24.140 Y4.100
G1 X-12.260 Y4.100
G1 X-11.977 Y4.500

;Finish
M9
G1 Z10.000
G28 X-100 Y-100;Home