;layer_height = 0.4
;line_width = 0.4
;layer_count = 1
;mesh = side
G21 ;start of the code
G1 Z15 F300
G28 X0 Y0 ;Home
G92 X0 Y0 ;Consider this as current
G0 X50 Y50 F3000 ;Go-to Offset
G92 X0 Y0 ;Reset

G0 F3600 X-9.000 Y-4.500 Z0.300 ;Go to start position
M7
G4 P150


G1 X-8.800 Y-4.300 Z0.300
G1 X8.800 Y-4.300
G1 X9.083 Y-3.900
G1 X-8.517 Y-3.900
G1 X-8.234 Y-3.500
G1 X9.366 Y-3.500
G1 X9.649 Y-3.100
G1 X-7.951 Y-3.100
G1 X-7.669 Y-2.700
G1 X9.931 Y-2.700
G1 X10.214 Y-2.300
G1 X-7.386 Y-2.300
G1 X-7.103 Y-1.900
G1 X10.497 Y-1.900
G1 X10.780 Y-1.500
G1 X-6.820 Y-1.500
G1 X-6.537 Y-1.100
G1 X11.063 Y-1.100
G1 X11.346 Y-0.700
G1 X-6.254 Y-0.700
G1 X-5.972 Y-0.300
G1 X11.628 Y-0.300
G1 X11.911 Y0.100
G1 X-5.689 Y0.100
G1 X-5.406 Y0.500
G1 X12.194 Y0.500
G1 X12.477 Y0.900
G1 X-5.123 Y0.900
G1 X-4.840 Y1.300
G1 X12.760 Y1.300
G1 X13.043 Y1.700
G1 X-4.557 Y1.700
G1 X-4.275 Y2.100
G1 X13.325 Y2.100
G1 X13.608 Y2.500
G1 X-3.992 Y2.500
G1 X-3.709 Y2.900
G1 X13.891 Y2.900
G1 X14.174 Y3.300
G1 X-3.426 Y3.300
G1 X-3.143 Y3.700
G1 X14.457 Y3.700
G1 X14.740 Y4.100
G1 X-2.860 Y4.100
G1 X-2.577 Y4.500

;Finish
M9
G1 Z10.000
G28 X-100 Y-100;Home