;layer_height = 0.4
;line_width = 0.4
;layer_count = 10
;mesh = single_90
G21 ;start of the code
G1 Z15 F300
G28 X0 Y0 ;Home
G92 X0 Y0 ;Consider this as current
G0 X50 Y50 F3000 ;Go-to Offset
G92 X0 Y0 ;Reset

G0 F3600 X-15.000 Y10.000 Z0.300 ;Go to start position
M7
G4 P150


G1 X-14.800 Y9.800 Z0.300
G1 X-14.800 Y9.800
G1 X-14.800 Y-9.800
G1 X-0.600 Y-9.800
G1 X-0.600 Y9.800
G1 X-14.800 Y9.800
G1 X-14.400 Y9.400
G1 X-14.400 Y-9.400
G1 X-1.000 Y-9.400
G1 X-1.000 Y9.400
G1 X-14.400 Y9.400
G1 X-14.000 Y9.000
G1 X-14.000 Y-9.000
G1 X-1.400 Y-9.000
G1 X-1.400 Y9.000
G1 X-14.000 Y9.000
G1 X-13.600 Y8.600
G1 X-13.600 Y-8.600
G1 X-1.800 Y-8.600
G1 X-1.800 Y8.600
G1 X-13.600 Y8.600
G1 X-13.200 Y8.200
G1 X-13.200 Y-8.200
G1 X-2.200 Y-8.200
G1 X-2.200 Y8.200
G1 X-13.200 Y8.200
G1 X-12.800 Y7.800
G1 X-12.800 Y-7.800
G1 X-2.600 Y-7.800
G1 X-2.600 Y7.800
G1 X-12.800 Y7.800
G1 X-12.400 Y7.400
G1 X-12.400 Y-7.400
G1 X-3.000 Y-7.400
G1 X-3.000 Y7.400
G1 X-12.400 Y7.400
G1 X-12.000 Y7.000
G1 X-12.000 Y-7.000
G1 X-3.400 Y-7.000
G1 X-3.400 Y7.000
G1 X-12.000 Y7.000
G1 X-11.600 Y6.600
G1 X-11.600 Y-6.600
G1 X-3.800 Y-6.600
G1 X-3.800 Y6.600
G1 X-11.600 Y6.600
G1 X-11.200 Y6.200
G1 X-11.200 Y-6.200
G1 X-4.200 Y-6.200
G1 X-4.200 Y6.200
G1 X-11.200 Y6.200
G1 X-10.800 Y5.800
G1 X-10.800 Y-5.800
G1 X-4.600 Y-5.800
G1 X-4.600 Y5.800
G1 X-10.800 Y5.800
G1 X-10.400 Y5.400
G1 X-10.400 Y-5.400
G1 X-5.000 Y-5.400
G1 X-5.000 Y5.400
G1 X-10.400 Y5.400
G1 X-10.000 Y5.000
G1 X-10.000 Y-5.000
G1 X-5.400 Y-5.000
G1 X-5.400 Y5.000
G1 X-10.000 Y5.000
G1 X-9.600 Y4.600
G1 X-9.600 Y-4.600
G1 X-5.800 Y-4.600
G1 X-5.800 Y4.600
G1 X-9.600 Y4.600
G1 X-9.200 Y4.200
G1 X-9.200 Y-4.200
G1 X-6.200 Y-4.200
G1 X-6.200 Y4.200
G1 X-9.200 Y4.200
G1 X-8.800 Y3.800
G1 X-8.800 Y-3.800
G1 X-6.600 Y-3.800
G1 X-6.600 Y3.800
G1 X-8.800 Y3.800
G1 X-8.400 Y3.400
G1 X-8.400 Y-3.400
G1 X-7.000 Y-3.400
G1 X-7.000 Y3.400
G1 X-8.400 Y3.400
G1 X-8.000 Y3.000
G1 X-8.000 Y-3.000
G1 X-7.400 Y-3.000
G1 X-7.400 Y3.000
G1 X-8.000 Y3.000
G1 X-8.000 Y3.000 Z0.700
G1 X-8.000 Y3.000
G1 X-7.400 Y3.000
G1 X-7.400 Y-3.000
G1 X-8.000 Y-3.000
G1 X-8.000 Y3.000
G1 X-8.400 Y3.400
G1 X-7.000 Y3.400
G1 X-7.000 Y-3.400
G1 X-8.400 Y-3.400
G1 X-8.400 Y3.400
G1 X-8.800 Y3.800
G1 X-6.600 Y3.800
G1 X-6.600 Y-3.800
G1 X-8.800 Y-3.800
G1 X-8.800 Y3.800
G1 X-9.200 Y4.200
G1 X-6.200 Y4.200
G1 X-6.200 Y-4.200
G1 X-9.200 Y-4.200
G1 X-9.200 Y4.200
G1 X-9.600 Y4.600
G1 X-5.800 Y4.600
G1 X-5.800 Y-4.600
G1 X-9.600 Y-4.600
G1 X-9.600 Y4.600
G1 X-10.000 Y5.000
G1 X-5.400 Y5.000
G1 X-5.400 Y-5.000
G1 X-10.000 Y-5.000
G1 X-10.000 Y5.000
G1 X-10.400 Y5.400
G1 X-5.000 Y5.400
G1 X-5.000 Y-5.400
G1 X-10.400 Y-5.400
G1 X-10.400 Y5.400
G1 X-10.800 Y5.800
G1 X-4.600 Y5.800
G1 X-4.600 Y-5.800
G1 X-10.800 Y-5.800
G1 X-10.800 Y5.800
G1 X-11.200 Y6.200
G1 X-4.200 Y6.200
G1 X-4.200 Y-6.200
G1 X-11.200 Y-6.200
G1 X-11.200 Y6.200
G1 X-11.600 Y6.600
G1 X-3.800 Y6.600
G1 X-3.800 Y-6.600
G1 X-11.600 Y-6.600
G1 X-11.600 Y6.600
G1 X-12.000 Y7.000
G1 X-3.400 Y7.000
G1 X-3.400 Y-7.000
G1 X-12.000 Y-7.000
G1 X-12.000 Y7.000
G1 X-12.400 Y7.400
G1 X-3.000 Y7.400
G1 X-3.000 Y-7.400
G1 X-12.400 Y-7.400
G1 X-12.400 Y7.400
G1 X-12.800 Y7.800
G1 X-2.600 Y7.800
G1 X-2.600 Y-7.800
G1 X-12.800 Y-7.800
G1 X-12.800 Y7.800
G1 X-13.200 Y8.200
G1 X-2.200 Y8.200
G1 X-2.200 Y-8.200
G1 X-13.200 Y-8.200
G1 X-13.200 Y8.200
G1 X-13.600 Y8.600
G1 X-1.800 Y8.600
G1 X-1.800 Y-8.600
G1 X-13.600 Y-8.600
G1 X-13.600 Y8.600
G1 X-14.000 Y9.000
G1 X-1.400 Y9.000
G1 X-1.400 Y-9.000
G1 X-14.000 Y-9.000
G1 X-14.000 Y9.000
G1 X-14.400 Y9.400
G1 X-1.000 Y9.400
G1 X-1.000 Y-9.400
G1 X-14.400 Y-9.400
G1 X-14.400 Y9.400
G1 X-14.800 Y9.800
G1 X-0.600 Y9.800
G1 X-0.600 Y-9.800
G1 X-14.800 Y-9.800
G1 X-14.800 Y9.800
G1 X-14.800 Y9.800 Z0.700
M9
G1 Z10.000
G1 X15.000 Y-10.000
G1 Z0.300
M7
G4 P150
G1 X14.800 Y-9.800 Z0.300
G1 X14.800 Y-9.800
G1 X14.800 Y9.800
G1 X0.600 Y9.800
G1 X0.600 Y-9.800
G1 X14.800 Y-9.800
G1 X14.400 Y-9.400
G1 X14.400 Y9.400
G1 X1.000 Y9.400
G1 X1.000 Y-9.400
G1 X14.400 Y-9.400
G1 X14.000 Y-9.000
G1 X14.000 Y9.000
G1 X1.400 Y9.000
G1 X1.400 Y-9.000
G1 X14.000 Y-9.000
G1 X13.600 Y-8.600
G1 X13.600 Y8.600
G1 X1.800 Y8.600
G1 X1.800 Y-8.600
G1 X13.600 Y-8.600
G1 X13.200 Y-8.200
G1 X13.200 Y8.200
G1 X2.200 Y8.200
G1 X2.200 Y-8.200
G1 X13.200 Y-8.200
G1 X12.800 Y-7.800
G1 X12.800 Y7.800
G1 X2.600 Y7.800
G1 X2.600 Y-7.800
G1 X12.800 Y-7.800
G1 X12.400 Y-7.400
G1 X12.400 Y7.400
G1 X3.000 Y7.400
G1 X3.000 Y-7.400
G1 X12.400 Y-7.400
G1 X12.000 Y-7.000
G1 X12.000 Y7.000
G1 X3.400 Y7.000
G1 X3.400 Y-7.000
G1 X12.000 Y-7.000
G1 X11.600 Y-6.600
G1 X11.600 Y6.600
G1 X3.800 Y6.600
G1 X3.800 Y-6.600
G1 X11.600 Y-6.600
G1 X11.200 Y-6.200
G1 X11.200 Y6.200
G1 X4.200 Y6.200
G1 X4.200 Y-6.200
G1 X11.200 Y-6.200
G1 X10.800 Y-5.800
G1 X10.800 Y5.800
G1 X4.600 Y5.800
G1 X4.600 Y-5.800
G1 X10.800 Y-5.800
G1 X10.400 Y-5.400
G1 X10.400 Y5.400
G1 X5.000 Y5.400
G1 X5.000 Y-5.400
G1 X10.400 Y-5.400
G1 X10.000 Y-5.000
G1 X10.000 Y5.000
G1 X5.400 Y5.000
G1 X5.400 Y-5.000
G1 X10.000 Y-5.000
G1 X9.600 Y-4.600
G1 X9.600 Y4.600
G1 X5.800 Y4.600
G1 X5.800 Y-4.600
G1 X9.600 Y-4.600
G1 X9.200 Y-4.200
G1 X9.200 Y4.200
G1 X6.200 Y4.200
G1 X6.200 Y-4.200
G1 X9.200 Y-4.200
G1 X8.800 Y-3.800
G1 X8.800 Y3.800
G1 X6.600 Y3.800
G1 X6.600 Y-3.800
G1 X8.800 Y-3.800
G1 X8.400 Y-3.400
G1 X8.400 Y3.400
G1 X7.000 Y3.400
G1 X7.000 Y-3.400
G1 X8.400 Y-3.400
G1 X8.000 Y-3.000
G1 X8.000 Y3.000
G1 X7.400 Y3.000
G1 X7.400 Y-3.000
G1 X8.000 Y-3.000
G1 X8.000 Y-3.000 Z0.700
G1 X8.000 Y-3.000
G1 X7.400 Y-3.000
G1 X7.400 Y3.000
G1 X8.000 Y3.000
G1 X8.000 Y-3.000
G1 X8.400 Y-3.400
G1 X7.000 Y-3.400
G1 X7.000 Y3.400
G1 X8.400 Y3.400
G1 X8.400 Y-3.400
G1 X8.800 Y-3.800
G1 X6.600 Y-3.800
G1 X6.600 Y3.800
G1 X8.800 Y3.800
G1 X8.800 Y-3.800
G1 X9.200 Y-4.200
G1 X6.200 Y-4.200
G1 X6.200 Y4.200
G1 X9.200 Y4.200
G1 X9.200 Y-4.200
G1 X9.600 Y-4.600
G1 X5.800 Y-4.600
G1 X5.800 Y4.600
G1 X9.600 Y4.600
G1 X9.600 Y-4.600
G1 X10.000 Y-5.000
G1 X5.400 Y-5.000
G1 X5.400 Y5.000
G1 X10.000 Y5.000
G1 X10.000 Y-5.000
G1 X10.400 Y-5.400
G1 X5.000 Y-5.400
G1 X5.000 Y5.400
G1 X10.400 Y5.400
G1 X10.400 Y-5.400
G1 X10.800 Y-5.800
G1 X4.600 Y-5.800
G1 X4.600 Y5.800
G1 X10.800 Y5.800
G1 X10.800 Y-5.800
G1 X11.200 Y-6.200
G1 X4.200 Y-6.200
G1 X4.200 Y6.200
G1 X11.200 Y6.200
G1 X11.200 Y-6.200
G1 X11.600 Y-6.600
G1 X3.800 Y-6.600
G1 X3.800 Y6.600
G1 X11.600 Y6.600
G1 X11.600 Y-6.600
G1 X12.000 Y-7.000
G1 X3.400 Y-7.000
G1 X3.400 Y7.000
G1 X12.000 Y7.000
G1 X12.000 Y-7.000
G1 X12.400 Y-7.400
G1 X3.000 Y-7.400
G1 X3.000 Y7.400
G1 X12.400 Y7.400
G1 X12.400 Y-7.400
G1 X12.800 Y-7.800
G1 X2.600 Y-7.800
G1 X2.600 Y7.800
G1 X12.800 Y7.800
G1 X12.800 Y-7.800
G1 X13.200 Y-8.200
G1 X2.200 Y-8.200
G1 X2.200 Y8.200
G1 X13.200 Y8.200
G1 X13.200 Y-8.200
G1 X13.600 Y-8.600
G1 X1.800 Y-8.600
G1 X1.800 Y8.600
G1 X13.600 Y8.600
G1 X13.600 Y-8.600
G1 X14.000 Y-9.000
G1 X1.400 Y-9.000
G1 X1.400 Y9.000
G1 X14.000 Y9.000
G1 X14.000 Y-9.000
G1 X14.400 Y-9.400
G1 X1.000 Y-9.400
G1 X1.000 Y9.400
G1 X14.400 Y9.400
G1 X14.400 Y-9.400
G1 X14.800 Y-9.800
G1 X0.600 Y-9.800
G1 X0.600 Y9.800
G1 X14.800 Y9.800
G1 X14.800 Y-9.800
G1 X14.800 Y-9.800 Z0.700
M9
G1 Z10.000
G1 X-15.000 Y0.000
G1 Z1.100
M7
G4 P150
G1 X-5.201 Y0.200 Z1.100
G1 X-5.201 Y0.200
G1 X-0.400 Y0.200
G1 X0.400 Y0.200
G1 X5.200 Y0.200
G1 X5.200 Y-0.200
G1 X0.400 Y-0.200
G1 X-0.400 Y-0.200
G1 X-5.201 Y-0.200
G1 X-5.201 Y0.000
G1 X-5.201 Y0.200
G1 X-5.601 Y0.600
G1 X-0.400 Y0.600
G1 X0.400 Y0.600
G1 X5.600 Y0.600
G1 X5.600 Y-0.600
G1 X0.400 Y-0.600
G1 X-0.400 Y-0.600
G1 X-5.601 Y-0.600
G1 X-5.601 Y0.000
G1 X-5.601 Y0.600
G1 X-6.001 Y1.000
G1 X-0.400 Y1.000
G1 X0.400 Y1.000
G1 X6.000 Y1.000
G1 X6.000 Y-1.000
G1 X0.400 Y-1.000
G1 X-0.400 Y-1.000
G1 X-6.001 Y-1.000
G1 X-6.001 Y0.000
G1 X-6.001 Y1.000
G1 X-6.401 Y1.400
G1 X-0.400 Y1.400
G1 X0.400 Y1.400
G1 X6.400 Y1.400
G1 X6.400 Y-1.400
G1 X0.400 Y-1.400
G1 X-0.400 Y-1.400
G1 X-6.401 Y-1.400
G1 X-6.401 Y0.000
G1 X-6.401 Y1.400
G1 X-6.801 Y1.800
G1 X-0.400 Y1.800
G1 X0.400 Y1.800
G1 X6.800 Y1.800
G1 X6.800 Y-1.800
G1 X0.400 Y-1.800
G1 X-0.400 Y-1.800
G1 X-6.801 Y-1.800
G1 X-6.801 Y0.000
G1 X-6.801 Y1.800
G1 X-7.201 Y2.200
G1 X-0.400 Y2.200
G1 X0.400 Y2.200
G1 X7.200 Y2.200
G1 X7.200 Y-2.200
G1 X0.400 Y-2.200
G1 X-0.400 Y-2.200
G1 X-7.201 Y-2.200
G1 X-7.201 Y0.000
G1 X-7.201 Y2.200
G1 X-7.601 Y2.600
G1 X-0.400 Y2.600
G1 X0.400 Y2.600
G1 X7.600 Y2.600
G1 X7.600 Y-2.600
G1 X0.400 Y-2.600
G1 X-0.400 Y-2.600
G1 X-7.601 Y-2.600
G1 X-7.601 Y0.000
G1 X-7.601 Y2.600
G1 X-8.001 Y3.000
G1 X-0.400 Y3.000
G1 X0.400 Y3.000
G1 X8.000 Y3.000
G1 X8.000 Y-3.000
G1 X0.400 Y-3.000
G1 X-0.400 Y-3.000
G1 X-8.001 Y-3.000
G1 X-8.001 Y0.000
G1 X-8.001 Y3.000
G1 X-8.401 Y3.400
G1 X-0.400 Y3.400
G1 X0.400 Y3.400
G1 X8.400 Y3.400
G1 X8.400 Y-3.400
G1 X0.400 Y-3.400
G1 X-0.400 Y-3.400
G1 X-8.401 Y-3.400
G1 X-8.401 Y0.000
G1 X-8.401 Y3.400
G1 X-8.801 Y3.800
G1 X-0.400 Y3.800
G1 X0.400 Y3.800
G1 X8.800 Y3.800
G1 X8.800 Y-3.800
G1 X0.400 Y-3.800
G1 X-0.400 Y-3.800
G1 X-8.801 Y-3.800
G1 X-8.801 Y0.000
G1 X-8.801 Y3.800
G1 X-9.201 Y4.200
G1 X-0.400 Y4.200
G1 X0.400 Y4.200
G1 X9.200 Y4.200
G1 X9.200 Y-4.200
G1 X0.400 Y-4.200
G1 X-0.400 Y-4.200
G1 X-9.201 Y-4.200
G1 X-9.201 Y0.000
G1 X-9.201 Y4.200
G1 X-9.601 Y4.600
G1 X-0.400 Y4.600
G1 X0.400 Y4.600
G1 X9.600 Y4.600
G1 X9.600 Y-4.600
G1 X0.400 Y-4.600
G1 X-0.400 Y-4.600
G1 X-9.601 Y-4.600
G1 X-9.601 Y0.000
G1 X-9.601 Y4.600
G1 X-10.000 Y5.000
G1 X-0.400 Y5.000
G1 X0.400 Y5.000
G1 X10.000 Y5.000
G1 X10.000 Y-5.000
G1 X0.400 Y-5.000
G1 X-0.400 Y-5.000
G1 X-10.000 Y-5.000
G1 X-10.001 Y0.000
G1 X-10.000 Y5.000
G1 X-10.400 Y5.400
G1 X-0.400 Y5.400
G1 X0.400 Y5.400
G1 X10.400 Y5.400
G1 X10.400 Y-5.400
G1 X0.400 Y-5.400
G1 X-0.400 Y-5.400
G1 X-10.400 Y-5.400
G1 X-10.401 Y0.000
G1 X-10.400 Y5.400
G1 X-10.800 Y5.800
G1 X-0.400 Y5.800
G1 X0.400 Y5.800
G1 X10.800 Y5.800
G1 X10.800 Y-5.800
G1 X0.400 Y-5.800
G1 X-0.400 Y-5.800
G1 X-10.800 Y-5.800
G1 X-10.801 Y0.000
G1 X-10.800 Y5.800
G1 X-11.200 Y6.200
G1 X-0.400 Y6.200
G1 X0.400 Y6.200
G1 X11.200 Y6.200
G1 X11.200 Y-6.200
G1 X0.400 Y-6.200
G1 X-0.400 Y-6.200
G1 X-11.200 Y-6.200
G1 X-11.201 Y0.000
G1 X-11.200 Y6.200
G1 X-11.600 Y6.600
G1 X-0.400 Y6.600
G1 X0.400 Y6.600
G1 X11.600 Y6.600
G1 X11.600 Y-6.600
G1 X0.400 Y-6.600
G1 X-0.400 Y-6.600
G1 X-11.600 Y-6.600
G1 X-11.601 Y0.000
G1 X-11.600 Y6.600
G1 X-12.000 Y7.000
G1 X-0.400 Y7.000
G1 X0.400 Y7.000
G1 X12.000 Y7.000
G1 X12.000 Y-7.000
G1 X0.400 Y-7.000
G1 X-0.400 Y-7.000
G1 X-12.000 Y-7.000
G1 X-12.001 Y0.000
G1 X-12.000 Y7.000
G1 X-12.400 Y7.400
G1 X-0.400 Y7.400
G1 X0.400 Y7.400
G1 X12.400 Y7.400
G1 X12.400 Y-7.400
G1 X0.400 Y-7.400
G1 X-0.400 Y-7.400
G1 X-12.400 Y-7.400
G1 X-12.401 Y0.000
G1 X-12.400 Y7.400
G1 X-12.800 Y7.800
G1 X-0.400 Y7.800
G1 X0.400 Y7.800
G1 X12.800 Y7.800
G1 X12.800 Y-7.800
G1 X0.400 Y-7.800
G1 X-0.400 Y-7.800
G1 X-12.800 Y-7.800
G1 X-12.801 Y0.000
G1 X-12.800 Y7.800
G1 X-13.200 Y8.200
G1 X-0.400 Y8.200
G1 X0.400 Y8.200
G1 X13.200 Y8.200
G1 X13.200 Y-8.200
G1 X0.400 Y-8.200
G1 X-0.400 Y-8.200
G1 X-13.200 Y-8.200
G1 X-13.201 Y0.000
G1 X-13.200 Y8.200
G1 X-13.600 Y8.600
G1 X-0.400 Y8.600
G1 X0.400 Y8.600
G1 X13.600 Y8.600
G1 X13.600 Y-8.600
G1 X0.400 Y-8.600
G1 X-0.400 Y-8.600
G1 X-13.600 Y-8.600
G1 X-13.601 Y0.000
G1 X-13.600 Y8.600
G1 X-14.000 Y9.000
G1 X-0.400 Y9.000
G1 X0.400 Y9.000
G1 X14.000 Y9.000
G1 X14.000 Y-9.000
G1 X0.400 Y-9.000
G1 X-0.400 Y-9.000
G1 X-14.000 Y-9.000
G1 X-14.001 Y0.000
G1 X-14.000 Y9.000
G1 X-14.400 Y9.400
G1 X-0.400 Y9.400
G1 X0.400 Y9.400
G1 X14.400 Y9.400
G1 X14.400 Y-9.400
G1 X0.400 Y-9.400
G1 X-0.400 Y-9.400
G1 X-14.400 Y-9.400
G1 X-14.401 Y0.000
G1 X-14.400 Y9.400
G1 X-14.800 Y9.800
G1 X-0.400 Y9.800
G1 X0.400 Y9.800
G1 X14.800 Y9.800
G1 X14.800 Y-9.800
G1 X0.400 Y-9.800
G1 X-0.400 Y-9.800
G1 X-14.800 Y-9.800
G1 X-14.801 Y0.000
G1 X-14.800 Y9.800
G1 X-14.800 Y9.800 Z1.100
M9
G1 Z10.000
G1 X-15.001 Y0.000
G1 Z1.500
M7
G4 P150
G1 X-14.801 Y0.000 Z1.500
G1 X-14.801 Y0.000
G1 X-14.800 Y-9.800
G1 X-1.260 Y-9.800
G1 X-1.260 Y9.800
G1 X-14.800 Y9.800
G1 X-14.801 Y0.000
G1 X-14.401 Y0.000
G1 X-14.400 Y-9.400
G1 X-1.660 Y-9.400
G1 X-1.660 Y9.400
G1 X-14.400 Y9.400
G1 X-14.401 Y0.000
G1 X-14.001 Y0.000
G1 X-14.000 Y-9.000
G1 X-2.060 Y-9.000
G1 X-2.060 Y9.000
G1 X-14.000 Y9.000
G1 X-14.001 Y0.000
G1 X-13.601 Y0.000
G1 X-13.600 Y-8.600
G1 X-2.460 Y-8.600
G1 X-2.460 Y8.600
G1 X-13.600 Y8.600
G1 X-13.601 Y0.000
G1 X-13.201 Y0.000
G1 X-13.200 Y-8.200
G1 X-2.860 Y-8.200
G1 X-2.860 Y8.200
G1 X-13.200 Y8.200
G1 X-13.201 Y0.000
G1 X-12.801 Y0.000
G1 X-12.800 Y-7.800
G1 X-3.260 Y-7.800
G1 X-3.260 Y7.800
G1 X-12.800 Y7.800
G1 X-12.801 Y0.000
G1 X-12.401 Y0.000
G1 X-12.400 Y-7.400
G1 X-3.660 Y-7.400
G1 X-3.660 Y7.400
G1 X-12.400 Y7.400
G1 X-12.401 Y0.000
G1 X-12.001 Y0.000
G1 X-12.000 Y-7.000
G1 X-4.060 Y-7.000
G1 X-4.060 Y7.000
G1 X-12.000 Y7.000
G1 X-12.001 Y0.000
G1 X-11.601 Y0.000
G1 X-11.600 Y-6.600
G1 X-4.460 Y-6.600
G1 X-4.460 Y6.600
G1 X-11.600 Y6.600
G1 X-11.601 Y0.000
G1 X-11.201 Y0.000
G1 X-11.200 Y-6.200
G1 X-4.860 Y-6.200
G1 X-4.860 Y6.200
G1 X-11.200 Y6.200
G1 X-11.201 Y0.000
G1 X-10.801 Y0.000
G1 X-10.800 Y-5.800
G1 X-5.260 Y-5.800
G1 X-5.260 Y5.800
G1 X-10.800 Y5.800
G1 X-10.801 Y0.000
G1 X-10.401 Y0.000
G1 X-10.400 Y-5.400
G1 X-5.660 Y-5.400
G1 X-5.660 Y5.400
G1 X-10.400 Y5.400
G1 X-10.401 Y0.000
G1 X-10.001 Y0.000
G1 X-10.000 Y-5.000
G1 X-6.060 Y-5.000
G1 X-6.060 Y5.000
G1 X-10.000 Y5.000
G1 X-10.001 Y0.000
G1 X-9.601 Y0.000
G1 X-9.601 Y-4.600
G1 X-6.460 Y-4.600
G1 X-6.460 Y4.600
G1 X-9.601 Y4.600
G1 X-9.601 Y0.000
G1 X-9.201 Y0.000
G1 X-9.201 Y-4.200
G1 X-6.860 Y-4.200
G1 X-6.860 Y4.200
G1 X-9.201 Y4.200
G1 X-9.201 Y0.000
G1 X-8.801 Y0.000
G1 X-8.801 Y-3.800
G1 X-7.260 Y-3.800
G1 X-7.260 Y3.800
G1 X-8.801 Y3.800
G1 X-8.801 Y0.000
G1 X-8.401 Y0.000
G1 X-8.401 Y-3.400
G1 X-7.660 Y-3.400
G1 X-7.660 Y3.400
G1 X-8.401 Y3.400
G1 X-8.401 Y0.000
G1 X-9.201 Y0.000 Z1.900
G1 X-9.201 Y0.000
G1 X-9.201 Y4.200
G1 X-8.517 Y4.200
G1 X-8.517 Y-4.200
G1 X-9.201 Y-4.200
G1 X-9.201 Y0.000
G1 X-9.601 Y0.000
G1 X-9.601 Y4.600
G1 X-8.117 Y4.600
G1 X-8.117 Y-4.600
G1 X-9.601 Y-4.600
G1 X-9.601 Y0.000
G1 X-10.001 Y0.000
G1 X-10.000 Y5.000
G1 X-7.717 Y5.000
G1 X-7.717 Y-5.000
G1 X-10.000 Y-5.000
G1 X-10.001 Y0.000
G1 X-10.401 Y0.000
G1 X-10.400 Y5.400
G1 X-7.317 Y5.400
G1 X-7.317 Y-5.400
G1 X-10.400 Y-5.400
G1 X-10.401 Y0.000
G1 X-10.801 Y0.000
G1 X-10.800 Y5.800
G1 X-6.917 Y5.800
G1 X-6.917 Y-5.800
G1 X-10.800 Y-5.800
G1 X-10.801 Y0.000
G1 X-11.201 Y0.000
G1 X-11.200 Y6.200
G1 X-6.517 Y6.200
G1 X-6.517 Y-6.200
G1 X-11.200 Y-6.200
G1 X-11.201 Y0.000
G1 X-11.601 Y0.000
G1 X-11.600 Y6.600
G1 X-6.117 Y6.600
G1 X-6.117 Y-6.600
G1 X-11.600 Y-6.600
G1 X-11.601 Y0.000
G1 X-12.001 Y0.000
G1 X-12.000 Y7.000
G1 X-5.717 Y7.000
G1 X-5.717 Y-7.000
G1 X-12.000 Y-7.000
G1 X-12.001 Y0.000
G1 X-12.401 Y0.000
G1 X-12.400 Y7.400
G1 X-5.317 Y7.400
G1 X-5.317 Y-7.400
G1 X-12.400 Y-7.400
G1 X-12.401 Y0.000
G1 X-12.801 Y0.000
G1 X-12.800 Y7.800
G1 X-4.917 Y7.800
G1 X-4.917 Y-7.800
G1 X-12.800 Y-7.800
G1 X-12.801 Y0.000
G1 X-13.201 Y0.000
G1 X-13.200 Y8.200
G1 X-4.517 Y8.200
G1 X-4.517 Y-8.200
G1 X-13.200 Y-8.200
G1 X-13.201 Y0.000
G1 X-13.601 Y0.000
G1 X-13.600 Y8.600
G1 X-4.117 Y8.600
G1 X-4.117 Y-8.600
G1 X-13.600 Y-8.600
G1 X-13.601 Y0.000
G1 X-14.001 Y0.000
G1 X-14.000 Y9.000
G1 X-3.717 Y9.000
G1 X-3.717 Y-9.000
G1 X-14.000 Y-9.000
G1 X-14.001 Y0.000
G1 X-14.401 Y0.000
G1 X-14.400 Y9.400
G1 X-3.317 Y9.400
G1 X-3.317 Y-9.400
G1 X-14.400 Y-9.400
G1 X-14.401 Y0.000
G1 X-14.801 Y0.000
G1 X-14.800 Y9.800
G1 X-2.917 Y9.800
G1 X-2.917 Y-9.800
G1 X-14.800 Y-9.800
G1 X-14.801 Y0.000
G1 X-14.801 Y0.000 Z1.900
G1 X-14.801 Y0.000 Z2.300
G1 X-14.801 Y0.000
G1 X-14.800 Y-9.800
G1 X-3.510 Y-9.800
G1 X-3.510 Y9.800
G1 X-14.800 Y9.800
G1 X-14.801 Y0.000
G1 X-14.401 Y0.000
G1 X-14.400 Y-9.400
G1 X-3.910 Y-9.400
G1 X-3.910 Y9.400
G1 X-14.400 Y9.400
G1 X-14.401 Y0.000
G1 X-14.001 Y0.000
G1 X-14.000 Y-9.000
G1 X-4.310 Y-9.000
G1 X-4.310 Y9.000
G1 X-14.000 Y9.000
G1 X-14.001 Y0.000
G1 X-13.601 Y0.000
G1 X-13.600 Y-8.600
G1 X-4.710 Y-8.600
G1 X-4.710 Y8.600
G1 X-13.600 Y8.600
G1 X-13.601 Y0.000
G1 X-13.201 Y0.000
G1 X-13.200 Y-8.200
G1 X-5.110 Y-8.200
G1 X-5.110 Y8.200
G1 X-13.200 Y8.200
G1 X-13.201 Y0.000
G1 X-12.801 Y0.000
G1 X-12.800 Y-7.800
G1 X-5.510 Y-7.800
G1 X-5.510 Y7.800
G1 X-12.800 Y7.800
G1 X-12.801 Y0.000
G1 X-12.401 Y0.000
G1 X-12.400 Y-7.400
G1 X-5.910 Y-7.400
G1 X-5.910 Y7.400
G1 X-12.400 Y7.400
G1 X-12.401 Y0.000
G1 X-12.001 Y0.000
G1 X-12.000 Y-7.000
G1 X-6.310 Y-7.000
G1 X-6.310 Y7.000
G1 X-12.000 Y7.000
G1 X-12.001 Y0.000
G1 X-11.601 Y0.000
G1 X-11.600 Y-6.600
G1 X-6.710 Y-6.600
G1 X-6.710 Y6.600
G1 X-11.600 Y6.600
G1 X-11.601 Y0.000
G1 X-11.201 Y0.000
G1 X-11.200 Y-6.200
G1 X-7.110 Y-6.200
G1 X-7.110 Y6.200
G1 X-11.200 Y6.200
G1 X-11.201 Y0.000
G1 X-10.801 Y0.000
G1 X-10.800 Y-5.800
G1 X-7.510 Y-5.800
G1 X-7.510 Y5.800
G1 X-10.800 Y5.800
G1 X-10.801 Y0.000
G1 X-10.401 Y0.000
G1 X-10.400 Y-5.400
G1 X-7.910 Y-5.400
G1 X-7.910 Y5.400
G1 X-10.400 Y5.400
G1 X-10.401 Y0.000
G1 X-10.001 Y0.000
G1 X-10.000 Y-5.000
G1 X-8.310 Y-5.000
G1 X-8.310 Y5.000
G1 X-10.000 Y5.000
G1 X-10.001 Y0.000
G1 X-9.601 Y0.000
G1 X-9.601 Y-4.600
G1 X-8.710 Y-4.600
G1 X-8.710 Y4.600
G1 X-9.601 Y4.600
G1 X-9.601 Y0.000
G1 X-9.201 Y0.000
G1 X-9.201 Y-4.200
G1 X-9.110 Y-4.200
G1 X-9.110 Y4.200
G1 X-9.201 Y4.200
G1 X-9.201 Y0.000
G1 X-9.601 Y0.000 Z2.700
G1 X-9.601 Y0.000
G1 X-9.601 Y4.600
G1 X-9.143 Y4.600
G1 X-9.143 Y-4.600
G1 X-9.601 Y-4.600
G1 X-9.601 Y0.000
G1 X-10.001 Y0.000
G1 X-10.000 Y5.000
G1 X-8.743 Y5.000
G1 X-8.743 Y-5.000
G1 X-10.000 Y-5.000
G1 X-10.001 Y0.000
G1 X-10.401 Y0.000
G1 X-10.400 Y5.400
G1 X-8.343 Y5.400
G1 X-8.343 Y-5.400
G1 X-10.400 Y-5.400
G1 X-10.401 Y0.000
G1 X-10.801 Y0.000
G1 X-10.800 Y5.800
G1 X-7.943 Y5.800
G1 X-7.943 Y-5.800
G1 X-10.800 Y-5.800
G1 X-10.801 Y0.000
G1 X-11.201 Y0.000
G1 X-11.200 Y6.200
G1 X-7.543 Y6.200
G1 X-7.543 Y-6.200
G1 X-11.200 Y-6.200
G1 X-11.201 Y0.000
G1 X-11.601 Y0.000
G1 X-11.600 Y6.600
G1 X-7.143 Y6.600
G1 X-7.143 Y-6.600
G1 X-11.600 Y-6.600
G1 X-11.601 Y0.000
G1 X-12.001 Y0.000
G1 X-12.000 Y7.000
G1 X-6.743 Y7.000
G1 X-6.743 Y-7.000
G1 X-12.000 Y-7.000
G1 X-12.001 Y0.000
G1 X-12.401 Y0.000
G1 X-12.400 Y7.400
G1 X-6.343 Y7.400
G1 X-6.343 Y-7.400
G1 X-12.400 Y-7.400
G1 X-12.401 Y0.000
G1 X-12.801 Y0.000
G1 X-12.800 Y7.800
G1 X-5.943 Y7.800
G1 X-5.943 Y-7.800
G1 X-12.800 Y-7.800
G1 X-12.801 Y0.000
G1 X-13.201 Y0.000
G1 X-13.200 Y8.200
G1 X-5.543 Y8.200
G1 X-5.543 Y-8.200
G1 X-13.200 Y-8.200
G1 X-13.201 Y0.000
G1 X-13.601 Y0.000
G1 X-13.600 Y8.600
G1 X-5.143 Y8.600
G1 X-5.143 Y-8.600
G1 X-13.600 Y-8.600
G1 X-13.601 Y0.000
G1 X-14.001 Y0.000
G1 X-14.000 Y9.000
G1 X-4.743 Y9.000
G1 X-4.743 Y-9.000
G1 X-14.000 Y-9.000
G1 X-14.001 Y0.000
G1 X-14.401 Y0.000
G1 X-14.400 Y9.400
G1 X-4.343 Y9.400
G1 X-4.343 Y-9.400
G1 X-14.400 Y-9.400
G1 X-14.401 Y0.000
G1 X-14.801 Y0.000
G1 X-14.800 Y9.800
G1 X-3.943 Y9.800
G1 X-3.943 Y-9.800
G1 X-14.800 Y-9.800
G1 X-14.801 Y0.000
G1 X-14.801 Y0.000 Z2.700
G1 X-14.801 Y0.000 Z3.100
G1 X-14.801 Y0.000
G1 X-14.800 Y-9.800
G1 X-4.274 Y-9.800
G1 X-4.274 Y9.800
G1 X-14.800 Y9.800
G1 X-14.801 Y0.000
G1 X-14.401 Y0.000
G1 X-14.400 Y-9.400
G1 X-4.674 Y-9.400
G1 X-4.674 Y9.400
G1 X-14.400 Y9.400
G1 X-14.401 Y0.000
G1 X-14.001 Y0.000
G1 X-14.000 Y-9.000
G1 X-5.074 Y-9.000
G1 X-5.074 Y9.000
G1 X-14.000 Y9.000
G1 X-14.001 Y0.000
G1 X-13.601 Y0.000
G1 X-13.600 Y-8.600
G1 X-5.474 Y-8.600
G1 X-5.474 Y8.600
G1 X-13.600 Y8.600
G1 X-13.601 Y0.000
G1 X-13.201 Y0.000
G1 X-13.200 Y-8.200
G1 X-5.874 Y-8.200
G1 X-5.874 Y8.200
G1 X-13.200 Y8.200
G1 X-13.201 Y0.000
G1 X-12.801 Y0.000
G1 X-12.800 Y-7.800
G1 X-6.274 Y-7.800
G1 X-6.274 Y7.800
G1 X-12.800 Y7.800
G1 X-12.801 Y0.000
G1 X-12.401 Y0.000
G1 X-12.400 Y-7.400
G1 X-6.674 Y-7.400
G1 X-6.674 Y7.400
G1 X-12.400 Y7.400
G1 X-12.401 Y0.000
G1 X-12.001 Y0.000
G1 X-12.000 Y-7.000
G1 X-7.074 Y-7.000
G1 X-7.074 Y7.000
G1 X-12.000 Y7.000
G1 X-12.001 Y0.000
G1 X-11.601 Y0.000
G1 X-11.600 Y-6.600
G1 X-7.474 Y-6.600
G1 X-7.474 Y6.600
G1 X-11.600 Y6.600
G1 X-11.601 Y0.000
G1 X-11.201 Y0.000
G1 X-11.200 Y-6.200
G1 X-7.874 Y-6.200
G1 X-7.874 Y6.200
G1 X-11.200 Y6.200
G1 X-11.201 Y0.000
G1 X-10.801 Y0.000
G1 X-10.800 Y-5.800
G1 X-8.274 Y-5.800
G1 X-8.274 Y5.800
G1 X-10.800 Y5.800
G1 X-10.801 Y0.000
G1 X-10.401 Y0.000
G1 X-10.400 Y-5.400
G1 X-8.674 Y-5.400
G1 X-8.674 Y5.400
G1 X-10.400 Y5.400
G1 X-10.401 Y0.000
G1 X-10.001 Y0.000
G1 X-10.000 Y-5.000
G1 X-9.074 Y-5.000
G1 X-9.074 Y5.000
G1 X-10.000 Y5.000
G1 X-10.001 Y0.000
G1 X-9.601 Y0.000
G1 X-9.601 Y-4.600
G1 X-9.474 Y-4.600
G1 X-9.474 Y4.600
G1 X-9.601 Y4.600
G1 X-9.601 Y0.000
G1 X-10.001 Y0.000 Z3.500
G1 X-10.001 Y0.000
G1 X-10.000 Y5.000
G1 X-9.329 Y5.000
G1 X-9.329 Y-5.000
G1 X-10.000 Y-5.000
G1 X-10.001 Y0.000
G1 X-10.401 Y0.000
G1 X-10.400 Y5.400
G1 X-8.929 Y5.400
G1 X-8.929 Y-5.400
G1 X-10.400 Y-5.400
G1 X-10.401 Y0.000
G1 X-10.801 Y0.000
G1 X-10.800 Y5.800
G1 X-8.529 Y5.800
G1 X-8.529 Y-5.800
G1 X-10.800 Y-5.800
G1 X-10.801 Y0.000
G1 X-11.201 Y0.000
G1 X-11.200 Y6.200
G1 X-8.129 Y6.200
G1 X-8.129 Y-6.200
G1 X-11.200 Y-6.200
G1 X-11.201 Y0.000
G1 X-11.601 Y0.000
G1 X-11.600 Y6.600
G1 X-7.729 Y6.600
G1 X-7.729 Y-6.600
G1 X-11.600 Y-6.600
G1 X-11.601 Y0.000
G1 X-12.001 Y0.000
G1 X-12.000 Y7.000
G1 X-7.329 Y7.000
G1 X-7.329 Y-7.000
G1 X-12.000 Y-7.000
G1 X-12.001 Y0.000
G1 X-12.401 Y0.000
G1 X-12.400 Y7.400
G1 X-6.929 Y7.400
G1 X-6.929 Y-7.400
G1 X-12.400 Y-7.400
G1 X-12.401 Y0.000
G1 X-12.801 Y0.000
G1 X-12.800 Y7.800
G1 X-6.529 Y7.800
G1 X-6.529 Y-7.800
G1 X-12.800 Y-7.800
G1 X-12.801 Y0.000
G1 X-13.201 Y0.000
G1 X-13.200 Y8.200
G1 X-6.129 Y8.200
G1 X-6.129 Y-8.200
G1 X-13.200 Y-8.200
G1 X-13.201 Y0.000
G1 X-13.601 Y0.000
G1 X-13.600 Y8.600
G1 X-5.729 Y8.600
G1 X-5.729 Y-8.600
G1 X-13.600 Y-8.600
G1 X-13.601 Y0.000
G1 X-14.001 Y0.000
G1 X-14.000 Y9.000
G1 X-5.329 Y9.000
G1 X-5.329 Y-9.000
G1 X-14.000 Y-9.000
G1 X-14.001 Y0.000
G1 X-14.401 Y0.000
G1 X-14.400 Y9.400
G1 X-4.929 Y9.400
G1 X-4.929 Y-9.400
G1 X-14.400 Y-9.400
G1 X-14.401 Y0.000
G1 X-14.801 Y0.000
G1 X-14.800 Y9.800
G1 X-4.529 Y9.800
G1 X-4.529 Y-9.800
G1 X-14.800 Y-9.800
G1 X-14.801 Y0.000
G1 X-14.801 Y0.000 Z3.500
G1 X-14.801 Y0.000 Z3.900
G1 X-14.801 Y0.000
G1 X-14.800 Y-9.800
G1 X-4.721 Y-9.800
G1 X-4.721 Y9.800
G1 X-14.800 Y9.800
G1 X-14.801 Y0.000
G1 X-14.401 Y0.000
G1 X-14.400 Y-9.400
G1 X-5.121 Y-9.400
G1 X-5.121 Y9.400
G1 X-14.400 Y9.400
G1 X-14.401 Y0.000
G1 X-14.001 Y0.000
G1 X-14.000 Y-9.000
G1 X-5.521 Y-9.000
G1 X-5.521 Y9.000
G1 X-14.000 Y9.000
G1 X-14.001 Y0.000
G1 X-13.601 Y0.000
G1 X-13.600 Y-8.600
G1 X-5.921 Y-8.600
G1 X-5.921 Y8.600
G1 X-13.600 Y8.600
G1 X-13.601 Y0.000
G1 X-13.201 Y0.000
G1 X-13.200 Y-8.200
G1 X-6.321 Y-8.200
G1 X-6.321 Y8.200
G1 X-13.200 Y8.200
G1 X-13.201 Y0.000
G1 X-12.801 Y0.000
G1 X-12.800 Y-7.800
G1 X-6.721 Y-7.800
G1 X-6.721 Y7.800
G1 X-12.800 Y7.800
G1 X-12.801 Y0.000
G1 X-12.401 Y0.000
G1 X-12.400 Y-7.400
G1 X-7.121 Y-7.400
G1 X-7.121 Y7.400
G1 X-12.400 Y7.400
G1 X-12.401 Y0.000
G1 X-12.001 Y0.000
G1 X-12.000 Y-7.000
G1 X-7.521 Y-7.000
G1 X-7.521 Y7.000
G1 X-12.000 Y7.000
G1 X-12.001 Y0.000
G1 X-11.601 Y0.000
G1 X-11.600 Y-6.600
G1 X-7.921 Y-6.600
G1 X-7.921 Y6.600
G1 X-11.600 Y6.600
G1 X-11.601 Y0.000
G1 X-11.201 Y0.000
G1 X-11.200 Y-6.200
G1 X-8.321 Y-6.200
G1 X-8.321 Y6.200
G1 X-11.200 Y6.200
G1 X-11.201 Y0.000
G1 X-10.801 Y0.000
G1 X-10.800 Y-5.800
G1 X-8.721 Y-5.800
G1 X-8.721 Y5.800
G1 X-10.800 Y5.800
G1 X-10.801 Y0.000
G1 X-10.401 Y0.000
G1 X-10.400 Y-5.400
G1 X-9.121 Y-5.400
G1 X-9.121 Y5.400
G1 X-10.400 Y5.400
G1 X-10.401 Y0.000
G1 X-10.001 Y0.000
G1 X-10.000 Y-5.000
G1 X-9.521 Y-5.000
G1 X-9.521 Y5.000
G1 X-10.000 Y5.000
G1 X-10.001 Y0.000
G1 X-10.001 Y0.000 Z4.300
G1 X-10.001 Y0.000
G1 X-10.000 Y5.000
G1 X-9.660 Y5.000
G1 X-9.660 Y-5.000
G1 X-10.000 Y-5.000
G1 X-10.001 Y0.000
G1 X-10.401 Y0.000
G1 X-10.400 Y5.400
G1 X-9.260 Y5.400
G1 X-9.260 Y-5.400
G1 X-10.400 Y-5.400
G1 X-10.401 Y0.000
G1 X-10.801 Y0.000
G1 X-10.800 Y5.800
G1 X-8.860 Y5.800
G1 X-8.860 Y-5.800
G1 X-10.800 Y-5.800
G1 X-10.801 Y0.000
G1 X-11.201 Y0.000
G1 X-11.200 Y6.200
G1 X-8.460 Y6.200
G1 X-8.460 Y-6.200
G1 X-11.200 Y-6.200
G1 X-11.201 Y0.000
G1 X-11.601 Y0.000
G1 X-11.600 Y6.600
G1 X-8.060 Y6.600
G1 X-8.060 Y-6.600
G1 X-11.600 Y-6.600
G1 X-11.601 Y0.000
G1 X-12.001 Y0.000
G1 X-12.000 Y7.000
G1 X-7.660 Y7.000
G1 X-7.660 Y-7.000
G1 X-12.000 Y-7.000
G1 X-12.001 Y0.000
G1 X-12.401 Y0.000
G1 X-12.400 Y7.400
G1 X-7.260 Y7.400
G1 X-7.260 Y-7.400
G1 X-12.400 Y-7.400
G1 X-12.401 Y0.000
G1 X-12.801 Y0.000
G1 X-12.800 Y7.800
G1 X-6.860 Y7.800
G1 X-6.860 Y-7.800
G1 X-12.800 Y-7.800
G1 X-12.801 Y0.000
G1 X-13.201 Y0.000
G1 X-13.200 Y8.200
G1 X-6.460 Y8.200
G1 X-6.460 Y-8.200
G1 X-13.200 Y-8.200
G1 X-13.201 Y0.000
G1 X-13.601 Y0.000
G1 X-13.600 Y8.600
G1 X-6.060 Y8.600
G1 X-6.060 Y-8.600
G1 X-13.600 Y-8.600
G1 X-13.601 Y0.000
G1 X-14.001 Y0.000
G1 X-14.000 Y9.000
G1 X-5.660 Y9.000
G1 X-5.660 Y-9.000
G1 X-14.000 Y-9.000
G1 X-14.001 Y0.000
G1 X-14.401 Y0.000
G1 X-14.400 Y9.400
G1 X-5.260 Y9.400
G1 X-5.260 Y-9.400
G1 X-14.400 Y-9.400
G1 X-14.401 Y0.000
G1 X-14.801 Y0.000
G1 X-14.800 Y9.800
G1 X-4.860 Y9.800
G1 X-4.860 Y-9.800
G1 X-14.800 Y-9.800
G1 X-14.801 Y0.000
G1 X-14.801 Y0.000 Z4.300
G1 X-14.801 Y0.000 Z4.700
G1 X-14.801 Y0.000
G1 X-14.800 Y-9.800
G1 X-4.950 Y-9.800
G1 X-4.950 Y9.800
G1 X-14.800 Y9.800
G1 X-14.801 Y0.000
G1 X-14.401 Y0.000
G1 X-14.400 Y-9.400
G1 X-5.350 Y-9.400
G1 X-5.350 Y9.400
G1 X-14.400 Y9.400
G1 X-14.401 Y0.000
G1 X-14.001 Y0.000
G1 X-14.000 Y-9.000
G1 X-5.750 Y-9.000
G1 X-5.750 Y9.000
G1 X-14.000 Y9.000
G1 X-14.001 Y0.000
G1 X-13.601 Y0.000
G1 X-13.600 Y-8.600
G1 X-6.150 Y-8.600
G1 X-6.150 Y8.600
G1 X-13.600 Y8.600
G1 X-13.601 Y0.000
G1 X-13.201 Y0.000
G1 X-13.200 Y-8.200
G1 X-6.550 Y-8.200
G1 X-6.550 Y8.200
G1 X-13.200 Y8.200
G1 X-13.201 Y0.000
G1 X-12.801 Y0.000
G1 X-12.800 Y-7.800
G1 X-6.950 Y-7.800
G1 X-6.950 Y7.800
G1 X-12.800 Y7.800
G1 X-12.801 Y0.000
G1 X-12.401 Y0.000
G1 X-12.400 Y-7.400
G1 X-7.350 Y-7.400
G1 X-7.350 Y7.400
G1 X-12.400 Y7.400
G1 X-12.401 Y0.000
G1 X-12.001 Y0.000
G1 X-12.000 Y-7.000
G1 X-7.750 Y-7.000
G1 X-7.750 Y7.000
G1 X-12.000 Y7.000
G1 X-12.001 Y0.000
G1 X-11.601 Y0.000
G1 X-11.600 Y-6.600
G1 X-8.150 Y-6.600
G1 X-8.150 Y6.600
G1 X-11.600 Y6.600
G1 X-11.601 Y0.000
G1 X-11.201 Y0.000
G1 X-11.200 Y-6.200
G1 X-8.550 Y-6.200
G1 X-8.550 Y6.200
G1 X-11.200 Y6.200
G1 X-11.201 Y0.000
G1 X-10.801 Y0.000
G1 X-10.800 Y-5.800
G1 X-8.950 Y-5.800
G1 X-8.950 Y5.800
G1 X-10.800 Y5.800
G1 X-10.801 Y0.000
G1 X-10.401 Y0.000
G1 X-10.400 Y-5.400
G1 X-9.350 Y-5.400
G1 X-9.350 Y5.400
G1 X-10.400 Y5.400
G1 X-10.401 Y0.000
G1 X-10.001 Y0.000
G1 X-10.000 Y-5.000
G1 X-9.750 Y-5.000
G1 X-9.750 Y5.000
G1 X-10.000 Y5.000
G1 X-10.001 Y0.000
G1 X-10.001 Y0.000 Z5.100
G1 X-10.001 Y0.000
G1 X-10.000 Y5.000
G1 X-9.794 Y5.000
G1 X-9.794 Y-5.000
G1 X-10.000 Y-5.000
G1 X-10.001 Y0.000
G1 X-10.401 Y0.000
G1 X-10.400 Y5.400
G1 X-9.394 Y5.400
G1 X-9.394 Y-5.400
G1 X-10.400 Y-5.400
G1 X-10.401 Y0.000
G1 X-10.801 Y0.000
G1 X-10.800 Y5.800
G1 X-8.994 Y5.800
G1 X-8.994 Y-5.800
G1 X-10.800 Y-5.800
G1 X-10.801 Y0.000
G1 X-11.201 Y0.000
G1 X-11.200 Y6.200
G1 X-8.594 Y6.200
G1 X-8.594 Y-6.200
G1 X-11.200 Y-6.200
G1 X-11.201 Y0.000
G1 X-11.601 Y0.000
G1 X-11.600 Y6.600
G1 X-8.194 Y6.600
G1 X-8.194 Y-6.600
G1 X-11.600 Y-6.600
G1 X-11.601 Y0.000
G1 X-12.001 Y0.000
G1 X-12.000 Y7.000
G1 X-7.794 Y7.000
G1 X-7.794 Y-7.000
G1 X-12.000 Y-7.000
G1 X-12.001 Y0.000
G1 X-12.401 Y0.000
G1 X-12.400 Y7.400
G1 X-7.394 Y7.400
G1 X-7.394 Y-7.400
G1 X-12.400 Y-7.400
G1 X-12.401 Y0.000
G1 X-12.801 Y0.000
G1 X-12.800 Y7.800
G1 X-6.994 Y7.800
G1 X-6.994 Y-7.800
G1 X-12.800 Y-7.800
G1 X-12.801 Y0.000
G1 X-13.201 Y0.000
G1 X-13.200 Y8.200
G1 X-6.594 Y8.200
G1 X-6.594 Y-8.200
G1 X-13.200 Y-8.200
G1 X-13.201 Y0.000
G1 X-13.601 Y0.000
G1 X-13.600 Y8.600
G1 X-6.194 Y8.600
G1 X-6.194 Y-8.600
G1 X-13.600 Y-8.600
G1 X-13.601 Y0.000
G1 X-14.001 Y0.000
G1 X-14.000 Y9.000
G1 X-5.794 Y9.000
G1 X-5.794 Y-9.000
G1 X-14.000 Y-9.000
G1 X-14.001 Y0.000
G1 X-14.401 Y0.000
G1 X-14.400 Y9.400
G1 X-5.394 Y9.400
G1 X-5.394 Y-9.400
G1 X-14.400 Y-9.400
G1 X-14.401 Y0.000
G1 X-14.801 Y0.000
G1 X-14.800 Y9.800
G1 X-4.994 Y9.800
G1 X-4.994 Y-9.800
G1 X-14.800 Y-9.800
G1 X-14.801 Y0.000
G1 X-14.801 Y0.000 Z5.100
M9
G1 Z10.000
G1 X15.001 Y0.000
G1 Z1.500
M7
G4 P150
G1 X14.801 Y0.000 Z1.500
G1 X14.801 Y0.000
G1 X14.800 Y9.800
G1 X1.260 Y9.800
G1 X1.260 Y-9.800
G1 X14.800 Y-9.800
G1 X14.801 Y0.000
G1 X14.401 Y0.000
G1 X14.400 Y9.400
G1 X1.660 Y9.400
G1 X1.660 Y-9.400
G1 X14.400 Y-9.400
G1 X14.401 Y0.000
G1 X14.001 Y0.000
G1 X14.000 Y9.000
G1 X2.060 Y9.000
G1 X2.060 Y-9.000
G1 X14.000 Y-9.000
G1 X14.001 Y0.000
G1 X13.601 Y0.000
G1 X13.600 Y8.600
G1 X2.460 Y8.600
G1 X2.460 Y-8.600
G1 X13.600 Y-8.600
G1 X13.601 Y0.000
G1 X13.201 Y0.000
G1 X13.200 Y8.200
G1 X2.860 Y8.200
G1 X2.860 Y-8.200
G1 X13.200 Y-8.200
G1 X13.201 Y0.000
G1 X12.801 Y0.000
G1 X12.800 Y7.800
G1 X3.260 Y7.800
G1 X3.260 Y-7.800
G1 X12.800 Y-7.800
G1 X12.801 Y0.000
G1 X12.401 Y0.000
G1 X12.400 Y7.400
G1 X3.660 Y7.400
G1 X3.660 Y-7.400
G1 X12.400 Y-7.400
G1 X12.401 Y0.000
G1 X12.001 Y0.000
G1 X12.000 Y7.000
G1 X4.060 Y7.000
G1 X4.060 Y-7.000
G1 X12.000 Y-7.000
G1 X12.001 Y0.000
G1 X11.601 Y0.000
G1 X11.600 Y6.600
G1 X4.460 Y6.600
G1 X4.460 Y-6.600
G1 X11.600 Y-6.600
G1 X11.601 Y0.000
G1 X11.201 Y0.000
G1 X11.200 Y6.200
G1 X4.860 Y6.200
G1 X4.860 Y-6.200
G1 X11.200 Y-6.200
G1 X11.201 Y0.000
G1 X10.801 Y0.000
G1 X10.800 Y5.800
G1 X5.260 Y5.800
G1 X5.260 Y-5.800
G1 X10.800 Y-5.800
G1 X10.801 Y0.000
G1 X10.401 Y0.000
G1 X10.400 Y5.400
G1 X5.660 Y5.400
G1 X5.660 Y-5.400
G1 X10.400 Y-5.400
G1 X10.401 Y0.000
G1 X10.001 Y0.000
G1 X10.000 Y5.000
G1 X6.060 Y5.000
G1 X6.060 Y-5.000
G1 X10.000 Y-5.000
G1 X10.001 Y0.000
G1 X9.601 Y0.000
G1 X9.601 Y4.600
G1 X6.460 Y4.600
G1 X6.460 Y-4.600
G1 X9.601 Y-4.600
G1 X9.601 Y0.000
G1 X9.201 Y0.000
G1 X9.201 Y4.200
G1 X6.860 Y4.200
G1 X6.860 Y-4.200
G1 X9.201 Y-4.200
G1 X9.201 Y0.000
G1 X8.801 Y0.000
G1 X8.801 Y3.800
G1 X7.260 Y3.800
G1 X7.260 Y-3.800
G1 X8.801 Y-3.800
G1 X8.801 Y0.000
G1 X8.401 Y0.000
G1 X8.401 Y3.400
G1 X7.660 Y3.400
G1 X7.660 Y-3.400
G1 X8.401 Y-3.400
G1 X8.401 Y0.000
G1 X9.201 Y0.000 Z1.900
G1 X9.201 Y0.000
G1 X9.201 Y-4.200
G1 X8.517 Y-4.200
G1 X8.517 Y4.200
G1 X9.201 Y4.200
G1 X9.201 Y0.000
G1 X9.601 Y0.000
G1 X9.601 Y-4.600
G1 X8.117 Y-4.600
G1 X8.117 Y4.600
G1 X9.601 Y4.600
G1 X9.601 Y0.000
G1 X10.001 Y0.000
G1 X10.000 Y-5.000
G1 X7.717 Y-5.000
G1 X7.717 Y5.000
G1 X10.000 Y5.000
G1 X10.001 Y0.000
G1 X10.401 Y0.000
G1 X10.400 Y-5.400
G1 X7.317 Y-5.400
G1 X7.317 Y5.400
G1 X10.400 Y5.400
G1 X10.401 Y0.000
G1 X10.801 Y0.000
G1 X10.800 Y-5.800
G1 X6.917 Y-5.800
G1 X6.917 Y5.800
G1 X10.800 Y5.800
G1 X10.801 Y0.000
G1 X11.201 Y0.000
G1 X11.200 Y-6.200
G1 X6.517 Y-6.200
G1 X6.517 Y6.200
G1 X11.200 Y6.200
G1 X11.201 Y0.000
G1 X11.601 Y0.000
G1 X11.600 Y-6.600
G1 X6.117 Y-6.600
G1 X6.117 Y6.600
G1 X11.600 Y6.600
G1 X11.601 Y0.000
G1 X12.001 Y0.000
G1 X12.000 Y-7.000
G1 X5.717 Y-7.000
G1 X5.717 Y7.000
G1 X12.000 Y7.000
G1 X12.001 Y0.000
G1 X12.401 Y0.000
G1 X12.400 Y-7.400
G1 X5.317 Y-7.400
G1 X5.317 Y7.400
G1 X12.400 Y7.400
G1 X12.401 Y0.000
G1 X12.801 Y0.000
G1 X12.800 Y-7.800
G1 X4.917 Y-7.800
G1 X4.917 Y7.800
G1 X12.800 Y7.800
G1 X12.801 Y0.000
G1 X13.201 Y0.000
G1 X13.200 Y-8.200
G1 X4.517 Y-8.200
G1 X4.517 Y8.200
G1 X13.200 Y8.200
G1 X13.201 Y0.000
G1 X13.601 Y0.000
G1 X13.600 Y-8.600
G1 X4.117 Y-8.600
G1 X4.117 Y8.600
G1 X13.600 Y8.600
G1 X13.601 Y0.000
G1 X14.001 Y0.000
G1 X14.000 Y-9.000
G1 X3.717 Y-9.000
G1 X3.717 Y9.000
G1 X14.000 Y9.000
G1 X14.001 Y0.000
G1 X14.401 Y0.000
G1 X14.400 Y-9.400
G1 X3.317 Y-9.400
G1 X3.317 Y9.400
G1 X14.400 Y9.400
G1 X14.401 Y0.000
G1 X14.801 Y0.000
G1 X14.800 Y-9.800
G1 X2.917 Y-9.800
G1 X2.917 Y9.800
G1 X14.800 Y9.800
G1 X14.801 Y0.000
G1 X14.801 Y0.000 Z1.900
G1 X14.801 Y0.000 Z2.300
G1 X14.801 Y0.000
G1 X14.800 Y9.800
G1 X3.510 Y9.800
G1 X3.510 Y-9.800
G1 X14.800 Y-9.800
G1 X14.801 Y0.000
G1 X14.401 Y0.000
G1 X14.400 Y9.400
G1 X3.910 Y9.400
G1 X3.910 Y-9.400
G1 X14.400 Y-9.400
G1 X14.401 Y0.000
G1 X14.001 Y0.000
G1 X14.000 Y9.000
G1 X4.310 Y9.000
G1 X4.310 Y-9.000
G1 X14.000 Y-9.000
G1 X14.001 Y0.000
G1 X13.601 Y0.000
G1 X13.600 Y8.600
G1 X4.710 Y8.600
G1 X4.710 Y-8.600
G1 X13.600 Y-8.600
G1 X13.601 Y0.000
G1 X13.201 Y0.000
G1 X13.200 Y8.200
G1 X5.110 Y8.200
G1 X5.110 Y-8.200
G1 X13.200 Y-8.200
G1 X13.201 Y0.000
G1 X12.801 Y0.000
G1 X12.800 Y7.800
G1 X5.510 Y7.800
G1 X5.510 Y-7.800
G1 X12.800 Y-7.800
G1 X12.801 Y0.000
G1 X12.401 Y0.000
G1 X12.400 Y7.400
G1 X5.910 Y7.400
G1 X5.910 Y-7.400
G1 X12.400 Y-7.400
G1 X12.401 Y0.000
G1 X12.001 Y0.000
G1 X12.000 Y7.000
G1 X6.310 Y7.000
G1 X6.310 Y-7.000
G1 X12.000 Y-7.000
G1 X12.001 Y0.000
G1 X11.601 Y0.000
G1 X11.600 Y6.600
G1 X6.710 Y6.600
G1 X6.710 Y-6.600
G1 X11.600 Y-6.600
G1 X11.601 Y0.000
G1 X11.201 Y0.000
G1 X11.200 Y6.200
G1 X7.110 Y6.200
G1 X7.110 Y-6.200
G1 X11.200 Y-6.200
G1 X11.201 Y0.000
G1 X10.801 Y0.000
G1 X10.800 Y5.800
G1 X7.510 Y5.800
G1 X7.510 Y-5.800
G1 X10.800 Y-5.800
G1 X10.801 Y0.000
G1 X10.401 Y0.000
G1 X10.400 Y5.400
G1 X7.910 Y5.400
G1 X7.910 Y-5.400
G1 X10.400 Y-5.400
G1 X10.401 Y0.000
G1 X10.001 Y0.000
G1 X10.000 Y5.000
G1 X8.310 Y5.000
G1 X8.310 Y-5.000
G1 X10.000 Y-5.000
G1 X10.001 Y0.000
G1 X9.601 Y0.000
G1 X9.601 Y4.600
G1 X8.710 Y4.600
G1 X8.710 Y-4.600
G1 X9.601 Y-4.600
G1 X9.601 Y0.000
G1 X9.201 Y0.000
G1 X9.201 Y4.200
G1 X9.110 Y4.200
G1 X9.110 Y-4.200
G1 X9.201 Y-4.200
G1 X9.201 Y0.000
G1 X9.601 Y0.000 Z2.700
G1 X9.601 Y0.000
G1 X9.601 Y-4.600
G1 X9.143 Y-4.600
G1 X9.143 Y4.600
G1 X9.601 Y4.600
G1 X9.601 Y0.000
G1 X10.001 Y0.000
G1 X10.000 Y-5.000
G1 X8.743 Y-5.000
G1 X8.743 Y5.000
G1 X10.000 Y5.000
G1 X10.001 Y0.000
G1 X10.401 Y0.000
G1 X10.400 Y-5.400
G1 X8.343 Y-5.400
G1 X8.343 Y5.400
G1 X10.400 Y5.400
G1 X10.401 Y0.000
G1 X10.801 Y0.000
G1 X10.800 Y-5.800
G1 X7.943 Y-5.800
G1 X7.943 Y5.800
G1 X10.800 Y5.800
G1 X10.801 Y0.000
G1 X11.201 Y0.000
G1 X11.200 Y-6.200
G1 X7.543 Y-6.200
G1 X7.543 Y6.200
G1 X11.200 Y6.200
G1 X11.201 Y0.000
G1 X11.601 Y0.000
G1 X11.600 Y-6.600
G1 X7.143 Y-6.600
G1 X7.143 Y6.600
G1 X11.600 Y6.600
G1 X11.601 Y0.000
G1 X12.001 Y0.000
G1 X12.000 Y-7.000
G1 X6.743 Y-7.000
G1 X6.743 Y7.000
G1 X12.000 Y7.000
G1 X12.001 Y0.000
G1 X12.401 Y0.000
G1 X12.400 Y-7.400
G1 X6.343 Y-7.400
G1 X6.343 Y7.400
G1 X12.400 Y7.400
G1 X12.401 Y0.000
G1 X12.801 Y0.000
G1 X12.800 Y-7.800
G1 X5.943 Y-7.800
G1 X5.943 Y7.800
G1 X12.800 Y7.800
G1 X12.801 Y0.000
G1 X13.201 Y0.000
G1 X13.200 Y-8.200
G1 X5.543 Y-8.200
G1 X5.543 Y8.200
G1 X13.200 Y8.200
G1 X13.201 Y0.000
G1 X13.601 Y0.000
G1 X13.600 Y-8.600
G1 X5.143 Y-8.600
G1 X5.143 Y8.600
G1 X13.600 Y8.600
G1 X13.601 Y0.000
G1 X14.001 Y0.000
G1 X14.000 Y-9.000
G1 X4.743 Y-9.000
G1 X4.743 Y9.000
G1 X14.000 Y9.000
G1 X14.001 Y0.000
G1 X14.401 Y0.000
G1 X14.400 Y-9.400
G1 X4.343 Y-9.400
G1 X4.343 Y9.400
G1 X14.400 Y9.400
G1 X14.401 Y0.000
G1 X14.801 Y0.000
G1 X14.800 Y-9.800
G1 X3.943 Y-9.800
G1 X3.943 Y9.800
G1 X14.800 Y9.800
G1 X14.801 Y0.000
G1 X14.801 Y0.000 Z2.700
G1 X14.801 Y0.000 Z3.100
G1 X14.801 Y0.000
G1 X14.800 Y9.800
G1 X4.274 Y9.800
G1 X4.274 Y-9.800
G1 X14.800 Y-9.800
G1 X14.801 Y0.000
G1 X14.401 Y0.000
G1 X14.400 Y9.400
G1 X4.674 Y9.400
G1 X4.674 Y-9.400
G1 X14.400 Y-9.400
G1 X14.401 Y0.000
G1 X14.001 Y0.000
G1 X14.000 Y9.000
G1 X5.074 Y9.000
G1 X5.074 Y-9.000
G1 X14.000 Y-9.000
G1 X14.001 Y0.000
G1 X13.601 Y0.000
G1 X13.600 Y8.600
G1 X5.474 Y8.600
G1 X5.474 Y-8.600
G1 X13.600 Y-8.600
G1 X13.601 Y0.000
G1 X13.201 Y0.000
G1 X13.200 Y8.200
G1 X5.874 Y8.200
G1 X5.874 Y-8.200
G1 X13.200 Y-8.200
G1 X13.201 Y0.000
G1 X12.801 Y0.000
G1 X12.800 Y7.800
G1 X6.274 Y7.800
G1 X6.274 Y-7.800
G1 X12.800 Y-7.800
G1 X12.801 Y0.000
G1 X12.401 Y0.000
G1 X12.400 Y7.400
G1 X6.674 Y7.400
G1 X6.674 Y-7.400
G1 X12.400 Y-7.400
G1 X12.401 Y0.000
G1 X12.001 Y0.000
G1 X12.000 Y7.000
G1 X7.074 Y7.000
G1 X7.074 Y-7.000
G1 X12.000 Y-7.000
G1 X12.001 Y0.000
G1 X11.601 Y0.000
G1 X11.600 Y6.600
G1 X7.474 Y6.600
G1 X7.474 Y-6.600
G1 X11.600 Y-6.600
G1 X11.601 Y0.000
G1 X11.201 Y0.000
G1 X11.200 Y6.200
G1 X7.874 Y6.200
G1 X7.874 Y-6.200
G1 X11.200 Y-6.200
G1 X11.201 Y0.000
G1 X10.801 Y0.000
G1 X10.800 Y5.800
G1 X8.274 Y5.800
G1 X8.274 Y-5.800
G1 X10.800 Y-5.800
G1 X10.801 Y0.000
G1 X10.401 Y0.000
G1 X10.400 Y5.400
G1 X8.674 Y5.400
G1 X8.674 Y-5.400
G1 X10.400 Y-5.400
G1 X10.401 Y0.000
G1 X10.001 Y0.000
G1 X10.000 Y5.000
G1 X9.074 Y5.000
G1 X9.074 Y-5.000
G1 X10.000 Y-5.000
G1 X10.001 Y0.000
G1 X9.601 Y0.000
G1 X9.601 Y4.600
G1 X9.474 Y4.600
G1 X9.474 Y-4.600
G1 X9.601 Y-4.600
G1 X9.601 Y0.000
G1 X10.001 Y0.000 Z3.500
G1 X10.001 Y0.000
G1 X10.000 Y-5.000
G1 X9.329 Y-5.000
G1 X9.329 Y5.000
G1 X10.000 Y5.000
G1 X10.001 Y0.000
G1 X10.401 Y0.000
G1 X10.400 Y-5.400
G1 X8.929 Y-5.400
G1 X8.929 Y5.400
G1 X10.400 Y5.400
G1 X10.401 Y0.000
G1 X10.801 Y0.000
G1 X10.800 Y-5.800
G1 X8.529 Y-5.800
G1 X8.529 Y5.800
G1 X10.800 Y5.800
G1 X10.801 Y0.000
G1 X11.201 Y0.000
G1 X11.200 Y-6.200
G1 X8.129 Y-6.200
G1 X8.129 Y6.200
G1 X11.200 Y6.200
G1 X11.201 Y0.000
G1 X11.601 Y0.000
G1 X11.600 Y-6.600
G1 X7.729 Y-6.600
G1 X7.729 Y6.600
G1 X11.600 Y6.600
G1 X11.601 Y0.000
G1 X12.001 Y0.000
G1 X12.000 Y-7.000
G1 X7.329 Y-7.000
G1 X7.329 Y7.000
G1 X12.000 Y7.000
G1 X12.001 Y0.000
G1 X12.401 Y0.000
G1 X12.400 Y-7.400
G1 X6.929 Y-7.400
G1 X6.929 Y7.400
G1 X12.400 Y7.400
G1 X12.401 Y0.000
G1 X12.801 Y0.000
G1 X12.800 Y-7.800
G1 X6.529 Y-7.800
G1 X6.529 Y7.800
G1 X12.800 Y7.800
G1 X12.801 Y0.000
G1 X13.201 Y0.000
G1 X13.200 Y-8.200
G1 X6.129 Y-8.200
G1 X6.129 Y8.200
G1 X13.200 Y8.200
G1 X13.201 Y0.000
G1 X13.601 Y0.000
G1 X13.600 Y-8.600
G1 X5.729 Y-8.600
G1 X5.729 Y8.600
G1 X13.600 Y8.600
G1 X13.601 Y0.000
G1 X14.001 Y0.000
G1 X14.000 Y-9.000
G1 X5.329 Y-9.000
G1 X5.329 Y9.000
G1 X14.000 Y9.000
G1 X14.001 Y0.000
G1 X14.401 Y0.000
G1 X14.400 Y-9.400
G1 X4.929 Y-9.400
G1 X4.929 Y9.400
G1 X14.400 Y9.400
G1 X14.401 Y0.000
G1 X14.801 Y0.000
G1 X14.800 Y-9.800
G1 X4.529 Y-9.800
G1 X4.529 Y9.800
G1 X14.800 Y9.800
G1 X14.801 Y0.000
G1 X14.801 Y0.000 Z3.500
G1 X14.801 Y0.000 Z3.900
G1 X14.801 Y0.000
G1 X14.800 Y9.800
G1 X4.721 Y9.800
G1 X4.721 Y-9.800
G1 X14.800 Y-9.800
G1 X14.801 Y0.000
G1 X14.401 Y0.000
G1 X14.400 Y9.400
G1 X5.121 Y9.400
G1 X5.121 Y-9.400
G1 X14.400 Y-9.400
G1 X14.401 Y0.000
G1 X14.001 Y0.000
G1 X14.000 Y9.000
G1 X5.521 Y9.000
G1 X5.521 Y-9.000
G1 X14.000 Y-9.000
G1 X14.001 Y0.000
G1 X13.601 Y0.000
G1 X13.600 Y8.600
G1 X5.921 Y8.600
G1 X5.921 Y-8.600
G1 X13.600 Y-8.600
G1 X13.601 Y0.000
G1 X13.201 Y0.000
G1 X13.200 Y8.200
G1 X6.321 Y8.200
G1 X6.321 Y-8.200
G1 X13.200 Y-8.200
G1 X13.201 Y0.000
G1 X12.801 Y0.000
G1 X12.800 Y7.800
G1 X6.721 Y7.800
G1 X6.721 Y-7.800
G1 X12.800 Y-7.800
G1 X12.801 Y0.000
G1 X12.401 Y0.000
G1 X12.400 Y7.400
G1 X7.121 Y7.400
G1 X7.121 Y-7.400
G1 X12.400 Y-7.400
G1 X12.401 Y0.000
G1 X12.001 Y0.000
G1 X12.000 Y7.000
G1 X7.521 Y7.000
G1 X7.521 Y-7.000
G1 X12.000 Y-7.000
G1 X12.001 Y0.000
G1 X11.601 Y0.000
G1 X11.600 Y6.600
G1 X7.921 Y6.600
G1 X7.921 Y-6.600
G1 X11.600 Y-6.600
G1 X11.601 Y0.000
G1 X11.201 Y0.000
G1 X11.200 Y6.200
G1 X8.321 Y6.200
G1 X8.321 Y-6.200
G1 X11.200 Y-6.200
G1 X11.201 Y0.000
G1 X10.801 Y0.000
G1 X10.800 Y5.800
G1 X8.721 Y5.800
G1 X8.721 Y-5.800
G1 X10.800 Y-5.800
G1 X10.801 Y0.000
G1 X10.401 Y0.000
G1 X10.400 Y5.400
G1 X9.121 Y5.400
G1 X9.121 Y-5.400
G1 X10.400 Y-5.400
G1 X10.401 Y0.000
G1 X10.001 Y0.000
G1 X10.000 Y5.000
G1 X9.521 Y5.000
G1 X9.521 Y-5.000
G1 X10.000 Y-5.000
G1 X10.001 Y0.000
G1 X10.001 Y0.000 Z4.300
G1 X10.001 Y0.000
G1 X10.000 Y-5.000
G1 X9.660 Y-5.000
G1 X9.660 Y5.000
G1 X10.000 Y5.000
G1 X10.001 Y0.000
G1 X10.401 Y0.000
G1 X10.400 Y-5.400
G1 X9.260 Y-5.400
G1 X9.260 Y5.400
G1 X10.400 Y5.400
G1 X10.401 Y0.000
G1 X10.801 Y0.000
G1 X10.800 Y-5.800
G1 X8.860 Y-5.800
G1 X8.860 Y5.800
G1 X10.800 Y5.800
G1 X10.801 Y0.000
G1 X11.201 Y0.000
G1 X11.200 Y-6.200
G1 X8.460 Y-6.200
G1 X8.460 Y6.200
G1 X11.200 Y6.200
G1 X11.201 Y0.000
G1 X11.601 Y0.000
G1 X11.600 Y-6.600
G1 X8.060 Y-6.600
G1 X8.060 Y6.600
G1 X11.600 Y6.600
G1 X11.601 Y0.000
G1 X12.001 Y0.000
G1 X12.000 Y-7.000
G1 X7.660 Y-7.000
G1 X7.660 Y7.000
G1 X12.000 Y7.000
G1 X12.001 Y0.000
G1 X12.401 Y0.000
G1 X12.400 Y-7.400
G1 X7.260 Y-7.400
G1 X7.260 Y7.400
G1 X12.400 Y7.400
G1 X12.401 Y0.000
G1 X12.801 Y0.000
G1 X12.800 Y-7.800
G1 X6.860 Y-7.800
G1 X6.860 Y7.800
G1 X12.800 Y7.800
G1 X12.801 Y0.000
G1 X13.201 Y0.000
G1 X13.200 Y-8.200
G1 X6.460 Y-8.200
G1 X6.460 Y8.200
G1 X13.200 Y8.200
G1 X13.201 Y0.000
G1 X13.601 Y0.000
G1 X13.600 Y-8.600
G1 X6.060 Y-8.600
G1 X6.060 Y8.600
G1 X13.600 Y8.600
G1 X13.601 Y0.000
G1 X14.001 Y0.000
G1 X14.000 Y-9.000
G1 X5.660 Y-9.000
G1 X5.660 Y9.000
G1 X14.000 Y9.000
G1 X14.001 Y0.000
G1 X14.401 Y0.000
G1 X14.400 Y-9.400
G1 X5.260 Y-9.400
G1 X5.260 Y9.400
G1 X14.400 Y9.400
G1 X14.401 Y0.000
G1 X14.801 Y0.000
G1 X14.800 Y-9.800
G1 X4.860 Y-9.800
G1 X4.860 Y9.800
G1 X14.800 Y9.800
G1 X14.801 Y0.000
G1 X14.801 Y0.000 Z4.300
G1 X14.801 Y0.000 Z4.700
G1 X14.801 Y0.000
G1 X14.800 Y9.800
G1 X4.950 Y9.800
G1 X4.950 Y-9.800
G1 X14.800 Y-9.800
G1 X14.801 Y0.000
G1 X14.401 Y0.000
G1 X14.400 Y9.400
G1 X5.350 Y9.400
G1 X5.350 Y-9.400
G1 X14.400 Y-9.400
G1 X14.401 Y0.000
G1 X14.001 Y0.000
G1 X14.000 Y9.000
G1 X5.750 Y9.000
G1 X5.750 Y-9.000
G1 X14.000 Y-9.000
G1 X14.001 Y0.000
G1 X13.601 Y0.000
G1 X13.600 Y8.600
G1 X6.150 Y8.600
G1 X6.150 Y-8.600
G1 X13.600 Y-8.600
G1 X13.601 Y0.000
G1 X13.201 Y0.000
G1 X13.200 Y8.200
G1 X6.550 Y8.200
G1 X6.550 Y-8.200
G1 X13.200 Y-8.200
G1 X13.201 Y0.000
G1 X12.801 Y0.000
G1 X12.800 Y7.800
G1 X6.950 Y7.800
G1 X6.950 Y-7.800
G1 X12.800 Y-7.800
G1 X12.801 Y0.000
G1 X12.401 Y0.000
G1 X12.400 Y7.400
G1 X7.350 Y7.400
G1 X7.350 Y-7.400
G1 X12.400 Y-7.400
G1 X12.401 Y0.000
G1 X12.001 Y0.000
G1 X12.000 Y7.000
G1 X7.750 Y7.000
G1 X7.750 Y-7.000
G1 X12.000 Y-7.000
G1 X12.001 Y0.000
G1 X11.601 Y0.000
G1 X11.600 Y6.600
G1 X8.150 Y6.600
G1 X8.150 Y-6.600
G1 X11.600 Y-6.600
G1 X11.601 Y0.000
G1 X11.201 Y0.000
G1 X11.200 Y6.200
G1 X8.550 Y6.200
G1 X8.550 Y-6.200
G1 X11.200 Y-6.200
G1 X11.201 Y0.000
G1 X10.801 Y0.000
G1 X10.800 Y5.800
G1 X8.950 Y5.800
G1 X8.950 Y-5.800
G1 X10.800 Y-5.800
G1 X10.801 Y0.000
G1 X10.401 Y0.000
G1 X10.400 Y5.400
G1 X9.350 Y5.400
G1 X9.350 Y-5.400
G1 X10.400 Y-5.400
G1 X10.401 Y0.000
G1 X10.001 Y0.000
G1 X10.000 Y5.000
G1 X9.750 Y5.000
G1 X9.750 Y-5.000
G1 X10.000 Y-5.000
G1 X10.001 Y0.000
G1 X10.001 Y0.000 Z5.100
G1 X10.001 Y0.000
G1 X10.000 Y-5.000
G1 X9.794 Y-5.000
G1 X9.794 Y5.000
G1 X10.000 Y5.000
G1 X10.001 Y0.000
G1 X10.401 Y0.000
G1 X10.400 Y-5.400
G1 X9.394 Y-5.400
G1 X9.394 Y5.400
G1 X10.400 Y5.400
G1 X10.401 Y0.000
G1 X10.801 Y0.000
G1 X10.800 Y-5.800
G1 X8.994 Y-5.800
G1 X8.994 Y5.800
G1 X10.800 Y5.800
G1 X10.801 Y0.000
G1 X11.201 Y0.000
G1 X11.200 Y-6.200
G1 X8.594 Y-6.200
G1 X8.594 Y6.200
G1 X11.200 Y6.200
G1 X11.201 Y0.000
G1 X11.601 Y0.000
G1 X11.600 Y-6.600
G1 X8.194 Y-6.600
G1 X8.194 Y6.600
G1 X11.600 Y6.600
G1 X11.601 Y0.000
G1 X12.001 Y0.000
G1 X12.000 Y-7.000
G1 X7.794 Y-7.000
G1 X7.794 Y7.000
G1 X12.000 Y7.000
G1 X12.001 Y0.000
G1 X12.401 Y0.000
G1 X12.400 Y-7.400
G1 X7.394 Y-7.400
G1 X7.394 Y7.400
G1 X12.400 Y7.400
G1 X12.401 Y0.000
G1 X12.801 Y0.000
G1 X12.800 Y-7.800
G1 X6.994 Y-7.800
G1 X6.994 Y7.800
G1 X12.800 Y7.800
G1 X12.801 Y0.000
G1 X13.201 Y0.000
G1 X13.200 Y-8.200
G1 X6.594 Y-8.200
G1 X6.594 Y8.200
G1 X13.200 Y8.200
G1 X13.201 Y0.000
G1 X13.601 Y0.000
G1 X13.600 Y-8.600
G1 X6.194 Y-8.600
G1 X6.194 Y8.600
G1 X13.600 Y8.600
G1 X13.601 Y0.000
G1 X14.001 Y0.000
G1 X14.000 Y-9.000
G1 X5.794 Y-9.000
G1 X5.794 Y9.000
G1 X14.000 Y9.000
G1 X14.001 Y0.000
G1 X14.401 Y0.000
G1 X14.400 Y-9.400
G1 X5.394 Y-9.400
G1 X5.394 Y9.400
G1 X14.400 Y9.400
G1 X14.401 Y0.000
G1 X14.801 Y0.000
G1 X14.800 Y-9.800
G1 X4.994 Y-9.800
G1 X4.994 Y9.800
G1 X14.800 Y9.800
G1 X14.801 Y0.000
G1 X14.801 Y0.000 Z5.100