;layer_height = 0.4
;line_width = 0.4
;layer_count = 10
;mesh = single_45
G21 ;start of the code
G1 Z15 F300
G28 X0 Y0 ;Home
G92 X0 Y0 ;Consider this as current
G0 X50 Y50 F3000 ;Go-to Offset
G92 X0 Y0 ;Reset

G0 F3600 X-12.800 Y0.000 Z0.300 ;Go to start position
M7
G4 P150


G1 X-12.800 Y0.000 Z0.300
G1 X-12.800 Y-9.800
G1 X-0.600 Y-9.800
G1 X-0.600 Y9.800
G1 X-12.800 Y9.800
G1 X-12.800 Y0.000
G1 X-12.400 Y0.000
G1 X-12.400 Y-9.400
G1 X-1.000 Y-9.400
G1 X-1.000 Y9.400
G1 X-12.400 Y9.400
G1 X-12.400 Y0.000
G1 X-12.000 Y0.000
G1 X-12.000 Y-9.000
G1 X-1.400 Y-9.000
G1 X-1.400 Y9.000
G1 X-12.000 Y9.000
G1 X-12.000 Y0.000
G1 X-11.600 Y0.000
G1 X-11.600 Y-8.600
G1 X-1.800 Y-8.600
G1 X-1.800 Y8.600
G1 X-11.600 Y8.600
G1 X-11.600 Y0.000
G1 X-11.200 Y0.000
G1 X-11.200 Y-8.200
G1 X-2.200 Y-8.200
G1 X-2.200 Y8.200
G1 X-11.200 Y8.200
G1 X-11.200 Y0.000
G1 X-10.800 Y0.000
G1 X-10.800 Y-7.800
G1 X-2.600 Y-7.800
G1 X-2.600 Y7.800
G1 X-10.800 Y7.800
G1 X-10.800 Y0.000
G1 X-10.400 Y0.000
G1 X-10.400 Y-7.400
G1 X-3.000 Y-7.400
G1 X-3.000 Y7.400
G1 X-10.400 Y7.400
G1 X-10.400 Y0.000
G1 X-10.000 Y0.000
G1 X-10.000 Y-7.000
G1 X-3.400 Y-7.000
G1 X-3.400 Y7.000
G1 X-10.000 Y7.000
G1 X-10.000 Y0.000
G1 X-9.600 Y0.000
G1 X-9.600 Y-6.600
G1 X-3.800 Y-6.600
G1 X-3.800 Y6.600
G1 X-9.600 Y6.600
G1 X-9.600 Y0.000
G1 X-9.200 Y0.000
G1 X-9.200 Y-6.200
G1 X-4.200 Y-6.200
G1 X-4.200 Y6.200
G1 X-9.200 Y6.200
G1 X-9.200 Y0.000
G1 X-8.800 Y0.000
G1 X-8.800 Y-5.800
G1 X-4.600 Y-5.800
G1 X-4.600 Y5.800
G1 X-8.800 Y5.800
G1 X-8.800 Y0.000
G1 X-8.400 Y0.000
G1 X-8.400 Y-5.400
G1 X-5.000 Y-5.400
G1 X-5.000 Y5.400
G1 X-8.400 Y5.400
G1 X-8.400 Y0.000
G1 X-8.000 Y0.000
G1 X-8.000 Y-5.000
G1 X-5.400 Y-5.000
G1 X-5.400 Y5.000
G1 X-8.000 Y5.000
G1 X-8.000 Y0.000
G1 X-7.600 Y0.000
G1 X-7.600 Y-4.600
G1 X-5.800 Y-4.600
G1 X-5.800 Y4.600
G1 X-7.600 Y4.600
G1 X-7.600 Y0.000
G1 X-7.200 Y0.000
G1 X-7.200 Y-4.200
G1 X-6.200 Y-4.200
G1 X-6.200 Y4.200
G1 X-7.200 Y4.200
G1 X-7.200 Y0.000
G1 X-6.800 Y0.000
G1 X-6.800 Y0.000 Z0.700
G1 X-6.800 Y0.000
G1 X-7.200 Y0.000
G1 X-7.200 Y4.200
G1 X-6.200 Y4.200
G1 X-6.200 Y-4.200
G1 X-7.200 Y-4.200
G1 X-7.200 Y0.000
G1 X-7.600 Y0.000
G1 X-7.600 Y4.600
G1 X-5.800 Y4.600
G1 X-5.800 Y-4.600
G1 X-7.600 Y-4.600
G1 X-7.600 Y0.000
G1 X-8.000 Y0.000
G1 X-8.000 Y5.000
G1 X-5.400 Y5.000
G1 X-5.400 Y-5.000
G1 X-8.000 Y-5.000
G1 X-8.000 Y0.000
G1 X-8.400 Y0.000
G1 X-8.400 Y5.400
G1 X-5.000 Y5.400
G1 X-5.000 Y-5.400
G1 X-8.400 Y-5.400
G1 X-8.400 Y0.000
G1 X-8.800 Y0.000
G1 X-8.800 Y5.800
G1 X-4.600 Y5.800
G1 X-4.600 Y-5.800
G1 X-8.800 Y-5.800
G1 X-8.800 Y0.000
G1 X-9.200 Y0.000
G1 X-9.200 Y6.200
G1 X-4.200 Y6.200
G1 X-4.200 Y-6.200
G1 X-9.200 Y-6.200
G1 X-9.200 Y0.000
G1 X-9.600 Y0.000
G1 X-9.600 Y6.600
G1 X-3.800 Y6.600
G1 X-3.800 Y-6.600
G1 X-9.600 Y-6.600
G1 X-9.600 Y0.000
G1 X-10.000 Y0.000
G1 X-10.000 Y7.000
G1 X-3.400 Y7.000
G1 X-3.400 Y-7.000
G1 X-10.000 Y-7.000
G1 X-10.000 Y0.000
G1 X-10.400 Y0.000
G1 X-10.400 Y7.400
G1 X-3.000 Y7.400
G1 X-3.000 Y-7.400
G1 X-10.400 Y-7.400
G1 X-10.400 Y0.000
G1 X-10.800 Y0.000
G1 X-10.800 Y7.800
G1 X-2.600 Y7.800
G1 X-2.600 Y-7.800
G1 X-10.800 Y-7.800
G1 X-10.800 Y0.000
G1 X-11.200 Y0.000
G1 X-11.200 Y8.200
G1 X-2.200 Y8.200
G1 X-2.200 Y-8.200
G1 X-11.200 Y-8.200
G1 X-11.200 Y0.000
G1 X-11.600 Y0.000
G1 X-11.600 Y8.600
G1 X-1.800 Y8.600
G1 X-1.800 Y-8.600
G1 X-11.600 Y-8.600
G1 X-11.600 Y0.000
G1 X-12.000 Y0.000
G1 X-12.000 Y9.000
G1 X-1.400 Y9.000
G1 X-1.400 Y-9.000
G1 X-12.000 Y-9.000
G1 X-12.000 Y0.000
G1 X-12.400 Y0.000
G1 X-12.400 Y9.400
G1 X-1.000 Y9.400
G1 X-1.000 Y-9.400
G1 X-12.400 Y-9.400
G1 X-12.400 Y0.000
G1 X-12.800 Y0.000
G1 X-12.800 Y9.800
G1 X-0.600 Y9.800
G1 X-0.600 Y-9.800
G1 X-12.800 Y-9.800
G1 X-12.800 Y0.000 Z0.700
M9
G1 Z10.000
G1 X12.800 Y0.000
G1 Z0.300
M7
G4 P150
G1 X12.800 Y0.000 Z0.300
G1 X12.800 Y9.800
G1 X0.600 Y9.800
G1 X0.600 Y-9.800
G1 X12.800 Y-9.800
G1 X12.800 Y0.000
G1 X12.400 Y0.000
G1 X12.400 Y9.400
G1 X1.000 Y9.400
G1 X1.000 Y-9.400
G1 X12.400 Y-9.400
G1 X12.400 Y0.000
G1 X12.000 Y0.000
G1 X12.000 Y9.000
G1 X1.400 Y9.000
G1 X1.400 Y-9.000
G1 X12.000 Y-9.000
G1 X12.000 Y0.000
G1 X11.600 Y0.000
G1 X11.600 Y8.600
G1 X1.800 Y8.600
G1 X1.800 Y-8.600
G1 X11.600 Y-8.600
G1 X11.600 Y0.000
G1 X11.200 Y0.000
G1 X11.200 Y8.200
G1 X2.200 Y8.200
G1 X2.200 Y-8.200
G1 X11.200 Y-8.200
G1 X11.200 Y0.000
G1 X10.800 Y0.000
G1 X10.800 Y7.800
G1 X2.600 Y7.800
G1 X2.600 Y-7.800
G1 X10.800 Y-7.800
G1 X10.800 Y0.000
G1 X10.400 Y0.000
G1 X10.400 Y7.400
G1 X3.000 Y7.400
G1 X3.000 Y-7.400
G1 X10.400 Y-7.400
G1 X10.400 Y0.000
G1 X10.000 Y0.000
G1 X10.000 Y7.000
G1 X3.400 Y7.000
G1 X3.400 Y-7.000
G1 X10.000 Y-7.000
G1 X10.000 Y0.000
G1 X9.600 Y0.000
G1 X9.600 Y6.600
G1 X3.800 Y6.600
G1 X3.800 Y-6.600
G1 X9.600 Y-6.600
G1 X9.600 Y0.000
G1 X9.200 Y0.000
G1 X9.200 Y6.200
G1 X4.200 Y6.200
G1 X4.200 Y-6.200
G1 X9.200 Y-6.200
G1 X9.200 Y0.000
G1 X8.800 Y0.000
G1 X8.800 Y5.800
G1 X4.600 Y5.800
G1 X4.600 Y-5.800
G1 X8.800 Y-5.800
G1 X8.800 Y0.000
G1 X8.400 Y0.000
G1 X8.400 Y5.400
G1 X5.000 Y5.400
G1 X5.000 Y-5.400
G1 X8.400 Y-5.400
G1 X8.400 Y0.000
G1 X8.000 Y0.000
G1 X8.000 Y5.000
G1 X5.400 Y5.000
G1 X5.400 Y-5.000
G1 X8.000 Y-5.000
G1 X8.000 Y0.000
G1 X7.600 Y0.000
G1 X7.600 Y4.600
G1 X5.800 Y4.600
G1 X5.800 Y-4.600
G1 X7.600 Y-4.600
G1 X7.600 Y0.000
G1 X7.200 Y0.000
G1 X7.200 Y4.200
G1 X6.200 Y4.200
G1 X6.200 Y-4.200
G1 X7.200 Y-4.200
G1 X7.200 Y0.000
G1 X6.800 Y0.000
G1 X6.800 Y0.000 Z0.700
G1 X6.800 Y0.000
G1 X7.200 Y0.000
G1 X7.200 Y-4.200
G1 X6.200 Y-4.200
G1 X6.200 Y4.200
G1 X7.200 Y4.200
G1 X7.200 Y0.000
G1 X7.600 Y0.000
G1 X7.600 Y-4.600
G1 X5.800 Y-4.600
G1 X5.800 Y4.600
G1 X7.600 Y4.600
G1 X7.600 Y0.000
G1 X8.000 Y0.000
G1 X8.000 Y-5.000
G1 X5.400 Y-5.000
G1 X5.400 Y5.000
G1 X8.000 Y5.000
G1 X8.000 Y0.000
G1 X8.400 Y0.000
G1 X8.400 Y-5.400
G1 X5.000 Y-5.400
G1 X5.000 Y5.400
G1 X8.400 Y5.400
G1 X8.400 Y0.000
G1 X8.800 Y0.000
G1 X8.800 Y-5.800
G1 X4.600 Y-5.800
G1 X4.600 Y5.800
G1 X8.800 Y5.800
G1 X8.800 Y0.000
G1 X9.200 Y0.000
G1 X9.200 Y-6.200
G1 X4.200 Y-6.200
G1 X4.200 Y6.200
G1 X9.200 Y6.200
G1 X9.200 Y0.000
G1 X9.600 Y0.000
G1 X9.600 Y-6.600
G1 X3.800 Y-6.600
G1 X3.800 Y6.600
G1 X9.600 Y6.600
G1 X9.600 Y0.000
G1 X10.000 Y0.000
G1 X10.000 Y-7.000
G1 X3.400 Y-7.000
G1 X3.400 Y7.000
G1 X10.000 Y7.000
G1 X10.000 Y0.000
G1 X10.400 Y0.000
G1 X10.400 Y-7.400
G1 X3.000 Y-7.400
G1 X3.000 Y7.400
G1 X10.400 Y7.400
G1 X10.400 Y0.000
G1 X10.800 Y0.000
G1 X10.800 Y-7.800
G1 X2.600 Y-7.800
G1 X2.600 Y7.800
G1 X10.800 Y7.800
G1 X10.800 Y0.000
G1 X11.200 Y0.000
G1 X11.200 Y-8.200
G1 X2.200 Y-8.200
G1 X2.200 Y8.200
G1 X11.200 Y8.200
G1 X11.200 Y0.000
G1 X11.600 Y0.000
G1 X11.600 Y-8.600
G1 X1.800 Y-8.600
G1 X1.800 Y8.600
G1 X11.600 Y8.600
G1 X11.600 Y0.000
G1 X12.000 Y0.000
G1 X12.000 Y-9.000
G1 X1.400 Y-9.000
G1 X1.400 Y9.000
G1 X12.000 Y9.000
G1 X12.000 Y0.000
G1 X12.400 Y0.000
G1 X12.400 Y-9.400
G1 X1.000 Y-9.400
G1 X1.000 Y9.400
G1 X12.400 Y9.400
G1 X12.400 Y0.000
G1 X12.800 Y0.000
G1 X12.800 Y-9.800
G1 X0.600 Y-9.800
G1 X0.600 Y9.800
G1 X12.800 Y9.800
G1 X12.800 Y0.000 Z0.700
M9
G1 Z10.000
G1 X-12.800 Y-9.800
G1 Z1.100
M7
G4 P150
G1 X12.800 Y-9.800
G1 X12.800 Y-9.400
G4 P5
G1 X-12.800 Y-9.400
G4 P5
G1 X-12.800 Y-9.000
G4 P5
G1 X12.800 Y-9.000
G4 P5
G1 X12.800 Y-8.600
G4 P5
G1 X-12.800 Y-8.600
G4 P5
G1 X-12.800 Y-8.200
G4 P5
G1 X12.800 Y-8.200
G4 P5
G1 X12.800 Y-7.800
G4 P5
G1 X-12.800 Y-7.800
G4 P5
G1 X-12.800 Y-7.400
G4 P5
G1 X12.800 Y-7.400
G4 P5
G1 X12.800 Y-7.000
G4 P5
G1 X-12.800 Y-7.000
G4 P5
G1 X-12.800 Y-6.600
G4 P5
G1 X12.800 Y-6.600
G4 P5
G1 X12.800 Y-6.200
G4 P5
G1 X-12.800 Y-6.200
G4 P5
G1 X-12.800 Y-5.800
G4 P5
G1 X12.800 Y-5.800
G4 P5
G1 X12.800 Y-5.400
G4 P5
G1 X-12.800 Y-5.400
G4 P5
G1 X-12.800 Y-5.000
G4 P5
G1 X12.800 Y-5.000
G4 P5
G1 X12.800 Y-4.600
G4 P5
G1 X-12.800 Y-4.600
G4 P5
G1 X-12.800 Y-4.200
G4 P5
G1 X12.800 Y-4.200
G4 P5
G1 X12.800 Y-3.800
G4 P5
G1 X-12.800 Y-3.800
G4 P5
G1 X-12.800 Y-3.400
G4 P5
G1 X12.800 Y-3.400
G4 P5
G1 X12.800 Y-3.000
G4 P5
G1 X-12.800 Y-3.000
G4 P5
G1 X-12.800 Y-2.600
G4 P5
G1 X12.800 Y-2.600
G4 P5
G1 X12.800 Y-2.200
G4 P5
G1 X-12.800 Y-2.200
G4 P5
G1 X-12.800 Y-1.800
G4 P5
G1 X12.800 Y-1.800
G4 P5
G1 X12.800 Y-1.400
G4 P5
G1 X-12.800 Y-1.400
G4 P5
G1 X-12.800 Y-1.000
G4 P5
G1 X12.800 Y-1.000
G4 P5
G1 X12.800 Y-0.600
G4 P5
G1 X-12.800 Y-0.600
G4 P5
G1 X-12.800 Y-0.200
G4 P5
G1 X12.800 Y-0.200
G4 P5
G1 X12.800 Y0.200
G4 P5
G1 X-12.800 Y0.200
G4 P5
G1 X-12.800 Y0.600
G4 P5
G1 X12.800 Y0.600
G4 P5
G1 X12.800 Y1.000
G4 P5
G1 X-12.800 Y1.000
G4 P5
G1 X-12.800 Y1.400
G4 P5
G1 X12.800 Y1.400
G4 P5
G1 X12.800 Y1.800
G4 P5
G1 X-12.800 Y1.800
G4 P5
G1 X-12.800 Y2.200
G4 P5
G1 X12.800 Y2.200
G4 P5
G1 X12.800 Y2.600
G4 P5
G1 X-12.800 Y2.600
G4 P5
G1 X-12.800 Y3.000
G4 P5
G1 X12.800 Y3.000
G4 P5
G1 X12.800 Y3.400
G4 P5
G1 X-12.800 Y3.400
G4 P5
G1 X-12.800 Y3.800
G4 P5
G1 X12.800 Y3.800
G4 P5
G1 X12.800 Y4.200
G4 P5
G1 X-12.800 Y4.200
G4 P5
G1 X-12.800 Y4.600
G4 P5
G1 X12.800 Y4.600
G4 P5
G1 X12.800 Y5.000
G4 P5
G1 X-12.800 Y5.000
G4 P5
G1 X-12.800 Y5.400
G4 P5
G1 X12.800 Y5.400
G4 P5
G1 X12.800 Y5.800
G4 P5
G1 X-12.800 Y5.800
G4 P5
G1 X-12.800 Y6.200
G4 P5
G1 X12.800 Y6.200
G4 P5
G1 X12.800 Y6.600
G4 P5
G1 X-12.800 Y6.600
G4 P5
G1 X-12.800 Y7.000
G4 P5
G1 X12.800 Y7.000
G4 P5
G1 X12.800 Y7.400
G4 P5
G1 X-12.800 Y7.400
G4 P5
G1 X-12.800 Y7.800
G4 P5
G1 X12.800 Y7.800
G4 P5
G1 X12.800 Y8.200
G4 P5
G1 X-12.800 Y8.200
G4 P5
G1 X-12.800 Y8.600
G4 P5
G1 X12.800 Y8.600
G4 P5
G1 X12.800 Y9.000
G4 P5
G1 X-12.800 Y9.000
G4 P5
G1 X-12.800 Y9.400
G4 P5
G1 X12.800 Y9.400
G4 P5
G1 X12.800 Y9.800
G4 P5
G1 X-12.800 Y9.800
G4 P5
M9
G1 Z10.000
G1 X-12.800 Y0.000
G1 Z1.500
M7
G4 P150
G1 X-12.800 Y0.000 Z1.500
G1 X-12.800 Y-9.800
G1 X-1.200 Y-9.800
G1 X-1.200 Y9.800
G1 X-12.800 Y9.800
G1 X-12.800 Y0.000
G1 X-12.400 Y0.000
G1 X-12.400 Y-9.400
G1 X-1.600 Y-9.400
G1 X-1.600 Y9.400
G1 X-12.400 Y9.400
G1 X-12.400 Y0.000
G1 X-12.000 Y0.000
G1 X-12.000 Y-9.000
G1 X-2.000 Y-9.000
G1 X-2.000 Y9.000
G1 X-12.000 Y9.000
G1 X-12.000 Y0.000
G1 X-11.600 Y0.000
G1 X-11.600 Y-8.600
G1 X-2.400 Y-8.600
G1 X-2.400 Y8.600
G1 X-11.600 Y8.600
G1 X-11.600 Y0.000
G1 X-11.200 Y0.000
G1 X-11.200 Y-8.200
G1 X-2.800 Y-8.200
G1 X-2.800 Y8.200
G1 X-11.200 Y8.200
G1 X-11.200 Y0.000
G1 X-10.800 Y0.000
G1 X-10.800 Y-7.800
G1 X-3.200 Y-7.800
G1 X-3.200 Y7.800
G1 X-10.800 Y7.800
G1 X-10.800 Y0.000
G1 X-10.400 Y0.000
G1 X-10.400 Y-7.400
G1 X-3.600 Y-7.400
G1 X-3.600 Y7.400
G1 X-10.400 Y7.400
G1 X-10.400 Y0.000
G1 X-10.000 Y0.000
G1 X-10.000 Y-7.000
G1 X-4.000 Y-7.000
G1 X-4.000 Y7.000
G1 X-10.000 Y7.000
G1 X-10.000 Y0.000
G1 X-9.600 Y0.000
G1 X-9.600 Y-6.600
G1 X-4.400 Y-6.600
G1 X-4.400 Y6.600
G1 X-9.600 Y6.600
G1 X-9.600 Y0.000
G1 X-9.200 Y0.000
G1 X-9.200 Y-6.200
G1 X-4.800 Y-6.200
G1 X-4.800 Y6.200
G1 X-9.200 Y6.200
G1 X-9.200 Y0.000
G1 X-8.800 Y0.000
G1 X-8.800 Y-5.800
G1 X-5.200 Y-5.800
G1 X-5.200 Y5.800
G1 X-8.800 Y5.800
G1 X-8.800 Y0.000
G1 X-8.400 Y0.000
G1 X-8.400 Y-5.400
G1 X-5.600 Y-5.400
G1 X-5.600 Y5.400
G1 X-8.400 Y5.400
G1 X-8.400 Y0.000
G1 X-8.000 Y0.000
G1 X-8.000 Y-5.000
G1 X-6.000 Y-5.000
G1 X-6.000 Y5.000
G1 X-8.000 Y5.000
G1 X-8.000 Y0.000
G1 X-7.600 Y0.000
G1 X-7.600 Y-4.600
G1 X-6.400 Y-4.600
G1 X-6.400 Y4.600
G1 X-7.600 Y4.600
G1 X-7.600 Y0.000
G1 X-7.200 Y0.000
G1 X-7.200 Y0.000 Z1.900
G1 X-7.200 Y0.000
G1 X-7.600 Y0.000
G1 X-7.600 Y4.600
G1 X-6.911 Y4.600
G1 X-6.911 Y-4.600
G1 X-7.600 Y-4.600
G1 X-7.600 Y0.000
G1 X-8.000 Y0.000
G1 X-8.000 Y5.000
G1 X-6.511 Y5.000
G1 X-6.511 Y-5.000
G1 X-8.000 Y-5.000
G1 X-8.000 Y0.000
G1 X-8.400 Y0.000
G1 X-8.400 Y5.400
G1 X-6.111 Y5.400
G1 X-6.111 Y-5.400
G1 X-8.400 Y-5.400
G1 X-8.400 Y0.000
G1 X-8.800 Y0.000
G1 X-8.800 Y5.800
G1 X-5.711 Y5.800
G1 X-5.711 Y-5.800
G1 X-8.800 Y-5.800
G1 X-8.800 Y0.000
G1 X-9.200 Y0.000
G1 X-9.200 Y6.200
G1 X-5.311 Y6.200
G1 X-5.311 Y-6.200
G1 X-9.200 Y-6.200
G1 X-9.200 Y0.000
G1 X-9.600 Y0.000
G1 X-9.600 Y6.600
G1 X-4.911 Y6.600
G1 X-4.911 Y-6.600
G1 X-9.600 Y-6.600
G1 X-9.600 Y0.000
G1 X-10.000 Y0.000
G1 X-10.000 Y7.000
G1 X-4.511 Y7.000
G1 X-4.511 Y-7.000
G1 X-10.000 Y-7.000
G1 X-10.000 Y0.000
G1 X-10.400 Y0.000
G1 X-10.400 Y7.400
G1 X-4.111 Y7.400
G1 X-4.111 Y-7.400
G1 X-10.400 Y-7.400
G1 X-10.400 Y0.000
G1 X-10.800 Y0.000
G1 X-10.800 Y7.800
G1 X-3.711 Y7.800
G1 X-3.711 Y-7.800
G1 X-10.800 Y-7.800
G1 X-10.800 Y0.000
G1 X-11.200 Y0.000
G1 X-11.200 Y8.200
G1 X-3.311 Y8.200
G1 X-3.311 Y-8.200
G1 X-11.200 Y-8.200
G1 X-11.200 Y0.000
G1 X-11.600 Y0.000
G1 X-11.600 Y8.600
G1 X-2.911 Y8.600
G1 X-2.911 Y-8.600
G1 X-11.600 Y-8.600
G1 X-11.600 Y0.000
G1 X-12.000 Y0.000
G1 X-12.000 Y9.000
G1 X-2.511 Y9.000
G1 X-2.511 Y-9.000
G1 X-12.000 Y-9.000
G1 X-12.000 Y0.000
G1 X-12.400 Y0.000
G1 X-12.400 Y9.400
G1 X-2.111 Y9.400
G1 X-2.111 Y-9.400
G1 X-12.400 Y-9.400
G1 X-12.400 Y0.000
G1 X-12.800 Y0.000
G1 X-12.800 Y9.800
G1 X-1.711 Y9.800
G1 X-1.711 Y-9.800
G1 X-12.800 Y-9.800
G1 X-12.800 Y0.000 Z1.900
G1 X-12.800 Y0.000 Z2.300
G1 X-12.800 Y-9.800
G1 X-1.995 Y-9.800
G1 X-1.995 Y9.800
G1 X-12.800 Y9.800
G1 X-12.800 Y0.000
G1 X-12.400 Y0.000
G1 X-12.400 Y-9.400
G1 X-2.395 Y-9.400
G1 X-2.395 Y9.400
G1 X-12.400 Y9.400
G1 X-12.400 Y0.000
G1 X-12.000 Y0.000
G1 X-12.000 Y-9.000
G1 X-2.795 Y-9.000
G1 X-2.795 Y9.000
G1 X-12.000 Y9.000
G1 X-12.000 Y0.000
G1 X-11.600 Y0.000
G1 X-11.600 Y-8.600
G1 X-3.195 Y-8.600
G1 X-3.195 Y8.600
G1 X-11.600 Y8.600
G1 X-11.600 Y0.000
G1 X-11.200 Y0.000
G1 X-11.200 Y-8.200
G1 X-3.595 Y-8.200
G1 X-3.595 Y8.200
G1 X-11.200 Y8.200
G1 X-11.200 Y0.000
G1 X-10.800 Y0.000
G1 X-10.800 Y-7.800
G1 X-3.995 Y-7.800
G1 X-3.995 Y7.800
G1 X-10.800 Y7.800
G1 X-10.800 Y0.000
G1 X-10.400 Y0.000
G1 X-10.400 Y-7.400
G1 X-4.395 Y-7.400
G1 X-4.395 Y7.400
G1 X-10.400 Y7.400
G1 X-10.400 Y0.000
G1 X-10.000 Y0.000
G1 X-10.000 Y-7.000
G1 X-4.795 Y-7.000
G1 X-4.795 Y7.000
G1 X-10.000 Y7.000
G1 X-10.000 Y0.000
G1 X-9.600 Y0.000
G1 X-9.600 Y-6.600
G1 X-5.195 Y-6.600
G1 X-5.195 Y6.600
G1 X-9.600 Y6.600
G1 X-9.600 Y0.000
G1 X-9.200 Y0.000
G1 X-9.200 Y-6.200
G1 X-5.595 Y-6.200
G1 X-5.595 Y6.200
G1 X-9.200 Y6.200
G1 X-9.200 Y0.000
G1 X-8.800 Y0.000
G1 X-8.800 Y-5.800
G1 X-5.995 Y-5.800
G1 X-5.995 Y5.800
G1 X-8.800 Y5.800
G1 X-8.800 Y0.000
G1 X-8.400 Y0.000
G1 X-8.400 Y-5.400
G1 X-6.395 Y-5.400
G1 X-6.395 Y5.400
G1 X-8.400 Y5.400
G1 X-8.400 Y0.000
G1 X-8.000 Y0.000
G1 X-8.000 Y-5.000
G1 X-6.795 Y-5.000
G1 X-6.795 Y5.000
G1 X-8.000 Y5.000
G1 X-8.000 Y0.000
G1 X-7.600 Y0.000
G1 X-7.600 Y-4.600
G1 X-7.195 Y-4.600
G1 X-7.195 Y4.600
G1 X-7.600 Y4.600
G1 X-7.600 Y0.000
G1 X-7.200 Y0.000
G1 X-7.600 Y0.000 Z2.700
G1 X-7.600 Y0.000
G1 X-8.000 Y0.000
G1 X-8.000 Y5.000
G1 X-7.002 Y5.000
G1 X-7.002 Y-5.000
G1 X-8.000 Y-5.000
G1 X-8.000 Y0.000
G1 X-8.400 Y0.000
G1 X-8.400 Y5.400
G1 X-6.602 Y5.400
G1 X-6.602 Y-5.400
G1 X-8.400 Y-5.400
G1 X-8.400 Y0.000
G1 X-8.800 Y0.000
G1 X-8.800 Y5.800
G1 X-6.202 Y5.800
G1 X-6.202 Y-5.800
G1 X-8.800 Y-5.800
G1 X-8.800 Y0.000
G1 X-9.200 Y0.000
G1 X-9.200 Y6.200
G1 X-5.802 Y6.200
G1 X-5.802 Y-6.200
G1 X-9.200 Y-6.200
G1 X-9.200 Y0.000
G1 X-9.600 Y0.000
G1 X-9.600 Y6.600
G1 X-5.402 Y6.600
G1 X-5.402 Y-6.600
G1 X-9.600 Y-6.600
G1 X-9.600 Y0.000
G1 X-10.000 Y0.000
G1 X-10.000 Y7.000
G1 X-5.002 Y7.000
G1 X-5.002 Y-7.000
G1 X-10.000 Y-7.000
G1 X-10.000 Y0.000
G1 X-10.400 Y0.000
G1 X-10.400 Y7.400
G1 X-4.602 Y7.400
G1 X-4.602 Y-7.400
G1 X-10.400 Y-7.400
G1 X-10.400 Y0.000
G1 X-10.800 Y0.000
G1 X-10.800 Y7.800
G1 X-4.202 Y7.800
G1 X-4.202 Y-7.800
G1 X-10.800 Y-7.800
G1 X-10.800 Y0.000
G1 X-11.200 Y0.000
G1 X-11.200 Y8.200
G1 X-3.802 Y8.200
G1 X-3.802 Y-8.200
G1 X-11.200 Y-8.200
G1 X-11.200 Y0.000
G1 X-11.600 Y0.000
G1 X-11.600 Y8.600
G1 X-3.402 Y8.600
G1 X-3.402 Y-8.600
G1 X-11.600 Y-8.600
G1 X-11.600 Y0.000
G1 X-12.000 Y0.000
G1 X-12.000 Y9.000
G1 X-3.002 Y9.000
G1 X-3.002 Y-9.000
G1 X-12.000 Y-9.000
G1 X-12.000 Y0.000
G1 X-12.400 Y0.000
G1 X-12.400 Y9.400
G1 X-2.602 Y9.400
G1 X-2.602 Y-9.400
G1 X-12.400 Y-9.400
G1 X-12.400 Y0.000
G1 X-12.800 Y0.000
G1 X-12.800 Y9.800
G1 X-2.202 Y9.800
G1 X-2.202 Y-9.800
G1 X-12.800 Y-9.800
G1 X-12.800 Y0.000 Z2.700
G1 X-12.800 Y0.000 Z3.100
G1 X-12.800 Y-9.800
G1 X-2.361 Y-9.800
G1 X-2.361 Y9.800
G1 X-12.800 Y9.800
G1 X-12.800 Y0.000
G1 X-12.400 Y0.000
G1 X-12.400 Y-9.400
G1 X-2.761 Y-9.400
G1 X-2.761 Y9.400
G1 X-12.400 Y9.400
G1 X-12.400 Y0.000
G1 X-12.000 Y0.000
G1 X-12.000 Y-9.000
G1 X-3.161 Y-9.000
G1 X-3.161 Y9.000
G1 X-12.000 Y9.000
G1 X-12.000 Y0.000
G1 X-11.600 Y0.000
G1 X-11.600 Y-8.600
G1 X-3.561 Y-8.600
G1 X-3.561 Y8.600
G1 X-11.600 Y8.600
G1 X-11.600 Y0.000
G1 X-11.200 Y0.000
G1 X-11.200 Y-8.200
G1 X-3.961 Y-8.200
G1 X-3.961 Y8.200
G1 X-11.200 Y8.200
G1 X-11.200 Y0.000
G1 X-10.800 Y0.000
G1 X-10.800 Y-7.800
G1 X-4.361 Y-7.800
G1 X-4.361 Y7.800
G1 X-10.800 Y7.800
G1 X-10.800 Y0.000
G1 X-10.400 Y0.000
G1 X-10.400 Y-7.400
G1 X-4.761 Y-7.400
G1 X-4.761 Y7.400
G1 X-10.400 Y7.400
G1 X-10.400 Y0.000
G1 X-10.000 Y0.000
G1 X-10.000 Y-7.000
G1 X-5.161 Y-7.000
G1 X-5.161 Y7.000
G1 X-10.000 Y7.000
G1 X-10.000 Y0.000
G1 X-9.600 Y0.000
G1 X-9.600 Y-6.600
G1 X-5.561 Y-6.600
G1 X-5.561 Y6.600
G1 X-9.600 Y6.600
G1 X-9.600 Y0.000
G1 X-9.200 Y0.000
G1 X-9.200 Y-6.200
G1 X-5.961 Y-6.200
G1 X-5.961 Y6.200
G1 X-9.200 Y6.200
G1 X-9.200 Y0.000
G1 X-8.800 Y0.000
G1 X-8.800 Y-5.800
G1 X-6.361 Y-5.800
G1 X-6.361 Y5.800
G1 X-8.800 Y5.800
G1 X-8.800 Y0.000
G1 X-8.400 Y0.000
G1 X-8.400 Y-5.400
G1 X-6.761 Y-5.400
G1 X-6.761 Y5.400
G1 X-8.400 Y5.400
G1 X-8.400 Y0.000
G1 X-8.000 Y0.000
G1 X-8.000 Y-5.000
G1 X-7.161 Y-5.000
G1 X-7.161 Y5.000
G1 X-8.000 Y5.000
G1 X-8.000 Y0.000
G1 X-7.600 Y0.000
G1 X-7.600 Y0.000 Z3.500
G1 X-7.600 Y0.000
G1 X-8.000 Y0.000
G1 X-8.000 Y5.000
G1 X-7.283 Y5.000
G1 X-7.283 Y-5.000
G1 X-8.000 Y-5.000
G1 X-8.000 Y0.000
G1 X-8.400 Y0.000
G1 X-8.400 Y5.400
G1 X-6.883 Y5.400
G1 X-6.883 Y-5.400
G1 X-8.400 Y-5.400
G1 X-8.400 Y0.000
G1 X-8.800 Y0.000
G1 X-8.800 Y5.800
G1 X-6.483 Y5.800
G1 X-6.483 Y-5.800
G1 X-8.800 Y-5.800
G1 X-8.800 Y0.000
G1 X-9.200 Y0.000
G1 X-9.200 Y6.200
G1 X-6.083 Y6.200
G1 X-6.083 Y-6.200
G1 X-9.200 Y-6.200
G1 X-9.200 Y0.000
G1 X-9.600 Y0.000
G1 X-9.600 Y6.600
G1 X-5.683 Y6.600
G1 X-5.683 Y-6.600
G1 X-9.600 Y-6.600
G1 X-9.600 Y0.000
G1 X-10.000 Y0.000
G1 X-10.000 Y7.000
G1 X-5.283 Y7.000
G1 X-5.283 Y-7.000
G1 X-10.000 Y-7.000
G1 X-10.000 Y0.000
G1 X-10.400 Y0.000
G1 X-10.400 Y7.400
G1 X-4.883 Y7.400
G1 X-4.883 Y-7.400
G1 X-10.400 Y-7.400
G1 X-10.400 Y0.000
G1 X-10.800 Y0.000
G1 X-10.800 Y7.800
G1 X-4.483 Y7.800
G1 X-4.483 Y-7.800
G1 X-10.800 Y-7.800
G1 X-10.800 Y0.000
G1 X-11.200 Y0.000
G1 X-11.200 Y8.200
G1 X-4.083 Y8.200
G1 X-4.083 Y-8.200
G1 X-11.200 Y-8.200
G1 X-11.200 Y0.000
G1 X-11.600 Y0.000
G1 X-11.600 Y8.600
G1 X-3.683 Y8.600
G1 X-3.683 Y-8.600
G1 X-11.600 Y-8.600
G1 X-11.600 Y0.000
G1 X-12.000 Y0.000
G1 X-12.000 Y9.000
G1 X-3.283 Y9.000
G1 X-3.283 Y-9.000
G1 X-12.000 Y-9.000
G1 X-12.000 Y0.000
G1 X-12.400 Y0.000
G1 X-12.400 Y9.400
G1 X-2.883 Y9.400
G1 X-2.883 Y-9.400
G1 X-12.400 Y-9.400
G1 X-12.400 Y0.000
G1 X-12.800 Y0.000
G1 X-12.800 Y9.800
G1 X-2.483 Y9.800
G1 X-2.483 Y-9.800
G1 X-12.800 Y-9.800
G1 X-12.800 Y0.000 Z3.500
G1 X-12.800 Y0.000 Z3.900
G1 X-12.800 Y-9.800
G1 X-2.575 Y-9.800
G1 X-2.575 Y9.800
G1 X-12.800 Y9.800
G1 X-12.800 Y0.000
G1 X-12.400 Y0.000
G1 X-12.400 Y-9.400
G1 X-2.975 Y-9.400
G1 X-2.975 Y9.400
G1 X-12.400 Y9.400
G1 X-12.400 Y0.000
G1 X-12.000 Y0.000
G1 X-12.000 Y-9.000
G1 X-3.375 Y-9.000
G1 X-3.375 Y9.000
G1 X-12.000 Y9.000
G1 X-12.000 Y0.000
G1 X-11.600 Y0.000
G1 X-11.600 Y-8.600
G1 X-3.775 Y-8.600
G1 X-3.775 Y8.600
G1 X-11.600 Y8.600
G1 X-11.600 Y0.000
G1 X-11.200 Y0.000
G1 X-11.200 Y-8.200
G1 X-4.175 Y-8.200
G1 X-4.175 Y8.200
G1 X-11.200 Y8.200
G1 X-11.200 Y0.000
G1 X-10.800 Y0.000
G1 X-10.800 Y-7.800
G1 X-4.575 Y-7.800
G1 X-4.575 Y7.800
G1 X-10.800 Y7.800
G1 X-10.800 Y0.000
G1 X-10.400 Y0.000
G1 X-10.400 Y-7.400
G1 X-4.975 Y-7.400
G1 X-4.975 Y7.400
G1 X-10.400 Y7.400
G1 X-10.400 Y0.000
G1 X-10.000 Y0.000
G1 X-10.000 Y-7.000
G1 X-5.375 Y-7.000
G1 X-5.375 Y7.000
G1 X-10.000 Y7.000
G1 X-10.000 Y0.000
G1 X-9.600 Y0.000
G1 X-9.600 Y-6.600
G1 X-5.775 Y-6.600
G1 X-5.775 Y6.600
G1 X-9.600 Y6.600
G1 X-9.600 Y0.000
G1 X-9.200 Y0.000
G1 X-9.200 Y-6.200
G1 X-6.175 Y-6.200
G1 X-6.175 Y6.200
G1 X-9.200 Y6.200
G1 X-9.200 Y0.000
G1 X-8.800 Y0.000
G1 X-8.800 Y-5.800
G1 X-6.575 Y-5.800
G1 X-6.575 Y5.800
G1 X-8.800 Y5.800
G1 X-8.800 Y0.000
G1 X-8.400 Y0.000
G1 X-8.400 Y-5.400
G1 X-6.975 Y-5.400
G1 X-6.975 Y5.400
G1 X-8.400 Y5.400
G1 X-8.400 Y0.000
G1 X-8.000 Y0.000
G1 X-8.000 Y-5.000
G1 X-7.375 Y-5.000
G1 X-7.375 Y5.000
G1 X-8.000 Y5.000
G1 X-8.000 Y0.000
G1 X-7.600 Y0.000
G1 X-7.600 Y0.000 Z4.300
G1 X-7.600 Y0.000
G1 X-8.000 Y0.000
G1 X-8.000 Y5.000
G1 X-7.441 Y5.000
G1 X-7.441 Y-5.000
G1 X-8.000 Y-5.000
G1 X-8.000 Y0.000
G1 X-8.400 Y0.000
G1 X-8.400 Y5.400
G1 X-7.041 Y5.400
G1 X-7.041 Y-5.400
G1 X-8.400 Y-5.400
G1 X-8.400 Y0.000
G1 X-8.800 Y0.000
G1 X-8.800 Y5.800
G1 X-6.641 Y5.800
G1 X-6.641 Y-5.800
G1 X-8.800 Y-5.800
G1 X-8.800 Y0.000
G1 X-9.200 Y0.000
G1 X-9.200 Y6.200
G1 X-6.241 Y6.200
G1 X-6.241 Y-6.200
G1 X-9.200 Y-6.200
G1 X-9.200 Y0.000
G1 X-9.600 Y0.000
G1 X-9.600 Y6.600
G1 X-5.841 Y6.600
G1 X-5.841 Y-6.600
G1 X-9.600 Y-6.600
G1 X-9.600 Y0.000
G1 X-10.000 Y0.000
G1 X-10.000 Y7.000
G1 X-5.441 Y7.000
G1 X-5.441 Y-7.000
G1 X-10.000 Y-7.000
G1 X-10.000 Y0.000
G1 X-10.400 Y0.000
G1 X-10.400 Y7.400
G1 X-5.041 Y7.400
G1 X-5.041 Y-7.400
G1 X-10.400 Y-7.400
G1 X-10.400 Y0.000
G1 X-10.800 Y0.000
G1 X-10.800 Y7.800
G1 X-4.641 Y7.800
G1 X-4.641 Y-7.800
G1 X-10.800 Y-7.800
G1 X-10.800 Y0.000
G1 X-11.200 Y0.000
G1 X-11.200 Y8.200
G1 X-4.241 Y8.200
G1 X-4.241 Y-8.200
G1 X-11.200 Y-8.200
G1 X-11.200 Y0.000
G1 X-11.600 Y0.000
G1 X-11.600 Y8.600
G1 X-3.841 Y8.600
G1 X-3.841 Y-8.600
G1 X-11.600 Y-8.600
G1 X-11.600 Y0.000
G1 X-12.000 Y0.000
G1 X-12.000 Y9.000
G1 X-3.441 Y9.000
G1 X-3.441 Y-9.000
G1 X-12.000 Y-9.000
G1 X-12.000 Y0.000
G1 X-12.400 Y0.000
G1 X-12.400 Y9.400
G1 X-3.041 Y9.400
G1 X-3.041 Y-9.400
G1 X-12.400 Y-9.400
G1 X-12.400 Y0.000
G1 X-12.800 Y0.000
G1 X-12.800 Y9.800
G1 X-2.641 Y9.800
G1 X-2.641 Y-9.800
G1 X-12.800 Y-9.800
G1 X-12.800 Y0.000 Z4.300
G1 X-12.800 Y0.000 Z4.700
G1 X-12.800 Y-9.800
G1 X-2.685 Y-9.800
G1 X-2.685 Y9.800
G1 X-12.800 Y9.800
G1 X-12.800 Y0.000
G1 X-12.400 Y0.000
G1 X-12.400 Y-9.400
G1 X-3.085 Y-9.400
G1 X-3.085 Y9.400
G1 X-12.400 Y9.400
G1 X-12.400 Y0.000
G1 X-12.000 Y0.000
G1 X-12.000 Y-9.000
G1 X-3.485 Y-9.000
G1 X-3.485 Y9.000
G1 X-12.000 Y9.000
G1 X-12.000 Y0.000
G1 X-11.600 Y0.000
G1 X-11.600 Y-8.600
G1 X-3.885 Y-8.600
G1 X-3.885 Y8.600
G1 X-11.600 Y8.600
G1 X-11.600 Y0.000
G1 X-11.200 Y0.000
G1 X-11.200 Y-8.200
G1 X-4.285 Y-8.200
G1 X-4.285 Y8.200
G1 X-11.200 Y8.200
G1 X-11.200 Y0.000
G1 X-10.800 Y0.000
G1 X-10.800 Y-7.800
G1 X-4.685 Y-7.800
G1 X-4.685 Y7.800
G1 X-10.800 Y7.800
G1 X-10.800 Y0.000
G1 X-10.400 Y0.000
G1 X-10.400 Y-7.400
G1 X-5.085 Y-7.400
G1 X-5.085 Y7.400
G1 X-10.400 Y7.400
G1 X-10.400 Y0.000
G1 X-10.000 Y0.000
G1 X-10.000 Y-7.000
G1 X-5.485 Y-7.000
G1 X-5.485 Y7.000
G1 X-10.000 Y7.000
G1 X-10.000 Y0.000
G1 X-9.600 Y0.000
G1 X-9.600 Y-6.600
G1 X-5.885 Y-6.600
G1 X-5.885 Y6.600
G1 X-9.600 Y6.600
G1 X-9.600 Y0.000
G1 X-9.200 Y0.000
G1 X-9.200 Y-6.200
G1 X-6.285 Y-6.200
G1 X-6.285 Y6.200
G1 X-9.200 Y6.200
G1 X-9.200 Y0.000
G1 X-8.800 Y0.000
G1 X-8.800 Y-5.800
G1 X-6.685 Y-5.800
G1 X-6.685 Y5.800
G1 X-8.800 Y5.800
G1 X-8.800 Y0.000
G1 X-8.400 Y0.000
G1 X-8.400 Y-5.400
G1 X-7.085 Y-5.400
G1 X-7.085 Y5.400
G1 X-8.400 Y5.400
G1 X-8.400 Y0.000
G1 X-8.000 Y0.000
G1 X-8.000 Y-5.000
G1 X-7.485 Y-5.000
G1 X-7.485 Y5.000
G1 X-8.000 Y5.000
G1 X-8.000 Y0.000
G1 X-7.600 Y0.000
G1 X-7.600 Y0.000 Z5.100
G1 X-7.600 Y0.000
G1 X-8.000 Y0.000
G1 X-8.000 Y5.000
G1 X-7.506 Y5.000
G1 X-7.506 Y-5.000
G1 X-8.000 Y-5.000
G1 X-8.000 Y0.000
G1 X-8.400 Y0.000
G1 X-8.400 Y5.400
G1 X-7.106 Y5.400
G1 X-7.106 Y-5.400
G1 X-8.400 Y-5.400
G1 X-8.400 Y0.000
G1 X-8.800 Y0.000
G1 X-8.800 Y5.800
G1 X-6.706 Y5.800
G1 X-6.706 Y-5.800
G1 X-8.800 Y-5.800
G1 X-8.800 Y0.000
G1 X-9.200 Y0.000
G1 X-9.200 Y6.200
G1 X-6.306 Y6.200
G1 X-6.306 Y-6.200
G1 X-9.200 Y-6.200
G1 X-9.200 Y0.000
G1 X-9.600 Y0.000
G1 X-9.600 Y6.600
G1 X-5.906 Y6.600
G1 X-5.906 Y-6.600
G1 X-9.600 Y-6.600
G1 X-9.600 Y0.000
G1 X-10.000 Y0.000
G1 X-10.000 Y7.000
G1 X-5.506 Y7.000
G1 X-5.506 Y-7.000
G1 X-10.000 Y-7.000
G1 X-10.000 Y0.000
G1 X-10.400 Y0.000
G1 X-10.400 Y7.400
G1 X-5.106 Y7.400
G1 X-5.106 Y-7.400
G1 X-10.400 Y-7.400
G1 X-10.400 Y0.000
G1 X-10.800 Y0.000
G1 X-10.800 Y7.800
G1 X-4.706 Y7.800
G1 X-4.706 Y-7.800
G1 X-10.800 Y-7.800
G1 X-10.800 Y0.000
G1 X-11.200 Y0.000
G1 X-11.200 Y8.200
G1 X-4.306 Y8.200
G1 X-4.306 Y-8.200
G1 X-11.200 Y-8.200
G1 X-11.200 Y0.000
G1 X-11.600 Y0.000
G1 X-11.600 Y8.600
G1 X-3.906 Y8.600
G1 X-3.906 Y-8.600
G1 X-11.600 Y-8.600
G1 X-11.600 Y0.000
G1 X-12.000 Y0.000
G1 X-12.000 Y9.000
G1 X-3.506 Y9.000
G1 X-3.506 Y-9.000
G1 X-12.000 Y-9.000
G1 X-12.000 Y0.000
G1 X-12.400 Y0.000
G1 X-12.400 Y9.400
G1 X-3.106 Y9.400
G1 X-3.106 Y-9.400
G1 X-12.400 Y-9.400
G1 X-12.400 Y0.000
G1 X-12.800 Y0.000
G1 X-12.800 Y9.800
G1 X-2.706 Y9.800
G1 X-2.706 Y-9.800
G1 X-12.800 Y-9.800
G1 X-12.800 Y0.000 Z5.100
M9
G1 Z10.000
G1 X12.800 Y0.000
G1 Z1.500
M7
G4 P150
G1 X12.800 Y0.000 Z1.500
G1 X12.800 Y9.800
G1 X1.200 Y9.800
G1 X1.200 Y-9.800
G1 X12.800 Y-9.800
G1 X12.800 Y0.000
G1 X12.400 Y0.000
G1 X12.400 Y9.400
G1 X1.600 Y9.400
G1 X1.600 Y-9.400
G1 X12.400 Y-9.400
G1 X12.400 Y0.000
G1 X12.000 Y0.000
G1 X12.000 Y9.000
G1 X2.000 Y9.000
G1 X2.000 Y-9.000
G1 X12.000 Y-9.000
G1 X12.000 Y0.000
G1 X11.600 Y0.000
G1 X11.600 Y8.600
G1 X2.400 Y8.600
G1 X2.400 Y-8.600
G1 X11.600 Y-8.600
G1 X11.600 Y0.000
G1 X11.200 Y0.000
G1 X11.200 Y8.200
G1 X2.800 Y8.200
G1 X2.800 Y-8.200
G1 X11.200 Y-8.200
G1 X11.200 Y0.000
G1 X10.800 Y0.000
G1 X10.800 Y7.800
G1 X3.200 Y7.800
G1 X3.200 Y-7.800
G1 X10.800 Y-7.800
G1 X10.800 Y0.000
G1 X10.400 Y0.000
G1 X10.400 Y7.400
G1 X3.600 Y7.400
G1 X3.600 Y-7.400
G1 X10.400 Y-7.400
G1 X10.400 Y0.000
G1 X10.000 Y0.000
G1 X10.000 Y7.000
G1 X4.000 Y7.000
G1 X4.000 Y-7.000
G1 X10.000 Y-7.000
G1 X10.000 Y0.000
G1 X9.600 Y0.000
G1 X9.600 Y6.600
G1 X4.400 Y6.600
G1 X4.400 Y-6.600
G1 X9.600 Y-6.600
G1 X9.600 Y0.000
G1 X9.200 Y0.000
G1 X9.200 Y6.200
G1 X4.800 Y6.200
G1 X4.800 Y-6.200
G1 X9.200 Y-6.200
G1 X9.200 Y0.000
G1 X8.800 Y0.000
G1 X8.800 Y5.800
G1 X5.200 Y5.800
G1 X5.200 Y-5.800
G1 X8.800 Y-5.800
G1 X8.800 Y0.000
G1 X8.400 Y0.000
G1 X8.400 Y5.400
G1 X5.600 Y5.400
G1 X5.600 Y-5.400
G1 X8.400 Y-5.400
G1 X8.400 Y0.000
G1 X8.000 Y0.000
G1 X8.000 Y5.000
G1 X6.000 Y5.000
G1 X6.000 Y-5.000
G1 X8.000 Y-5.000
G1 X8.000 Y0.000
G1 X7.600 Y0.000
G1 X7.600 Y4.600
G1 X6.400 Y4.600
G1 X6.400 Y-4.600
G1 X7.600 Y-4.600
G1 X7.600 Y0.000
G1 X7.200 Y0.000
G1 X7.200 Y0.000 Z1.900
G1 X7.200 Y0.000
G1 X7.600 Y0.000
G1 X7.600 Y-4.600
G1 X6.911 Y-4.600
G1 X6.911 Y4.600
G1 X7.600 Y4.600
G1 X7.600 Y0.000
G1 X8.000 Y0.000
G1 X8.000 Y-5.000
G1 X6.511 Y-5.000
G1 X6.511 Y5.000
G1 X8.000 Y5.000
G1 X8.000 Y0.000
G1 X8.400 Y0.000
G1 X8.400 Y-5.400
G1 X6.111 Y-5.400
G1 X6.111 Y5.400
G1 X8.400 Y5.400
G1 X8.400 Y0.000
G1 X8.800 Y0.000
G1 X8.800 Y-5.800
G1 X5.711 Y-5.800
G1 X5.711 Y5.800
G1 X8.800 Y5.800
G1 X8.800 Y0.000
G1 X9.200 Y0.000
G1 X9.200 Y-6.200
G1 X5.311 Y-6.200
G1 X5.311 Y6.200
G1 X9.200 Y6.200
G1 X9.200 Y0.000
G1 X9.600 Y0.000
G1 X9.600 Y-6.600
G1 X4.911 Y-6.600
G1 X4.911 Y6.600
G1 X9.600 Y6.600
G1 X9.600 Y0.000
G1 X10.000 Y0.000
G1 X10.000 Y-7.000
G1 X4.511 Y-7.000
G1 X4.511 Y7.000
G1 X10.000 Y7.000
G1 X10.000 Y0.000
G1 X10.400 Y0.000
G1 X10.400 Y-7.400
G1 X4.111 Y-7.400
G1 X4.111 Y7.400
G1 X10.400 Y7.400
G1 X10.400 Y0.000
G1 X10.800 Y0.000
G1 X10.800 Y-7.800
G1 X3.711 Y-7.800
G1 X3.711 Y7.800
G1 X10.800 Y7.800
G1 X10.800 Y0.000
G1 X11.200 Y0.000
G1 X11.200 Y-8.200
G1 X3.311 Y-8.200
G1 X3.311 Y8.200
G1 X11.200 Y8.200
G1 X11.200 Y0.000
G1 X11.600 Y0.000
G1 X11.600 Y-8.600
G1 X2.911 Y-8.600
G1 X2.911 Y8.600
G1 X11.600 Y8.600
G1 X11.600 Y0.000
G1 X12.000 Y0.000
G1 X12.000 Y-9.000
G1 X2.511 Y-9.000
G1 X2.511 Y9.000
G1 X12.000 Y9.000
G1 X12.000 Y0.000
G1 X12.400 Y0.000
G1 X12.400 Y-9.400
G1 X2.111 Y-9.400
G1 X2.111 Y9.400
G1 X12.400 Y9.400
G1 X12.400 Y0.000
G1 X12.800 Y0.000
G1 X12.800 Y-9.800
G1 X1.711 Y-9.800
G1 X1.711 Y9.800
G1 X12.800 Y9.800
G1 X12.800 Y0.000 Z1.900
G1 X12.800 Y0.000 Z2.300
G1 X12.800 Y9.800
G1 X1.995 Y9.800
G1 X1.995 Y-9.800
G1 X12.800 Y-9.800
G1 X12.800 Y0.000
G1 X12.400 Y0.000
G1 X12.400 Y9.400
G1 X2.395 Y9.400
G1 X2.395 Y-9.400
G1 X12.400 Y-9.400
G1 X12.400 Y0.000
G1 X12.000 Y0.000
G1 X12.000 Y9.000
G1 X2.795 Y9.000
G1 X2.795 Y-9.000
G1 X12.000 Y-9.000
G1 X12.000 Y0.000
G1 X11.600 Y0.000
G1 X11.600 Y8.600
G1 X3.195 Y8.600
G1 X3.195 Y-8.600
G1 X11.600 Y-8.600
G1 X11.600 Y0.000
G1 X11.200 Y0.000
G1 X11.200 Y8.200
G1 X3.595 Y8.200
G1 X3.595 Y-8.200
G1 X11.200 Y-8.200
G1 X11.200 Y0.000
G1 X10.800 Y0.000
G1 X10.800 Y7.800
G1 X3.995 Y7.800
G1 X3.995 Y-7.800
G1 X10.800 Y-7.800
G1 X10.800 Y0.000
G1 X10.400 Y0.000
G1 X10.400 Y7.400
G1 X4.395 Y7.400
G1 X4.395 Y-7.400
G1 X10.400 Y-7.400
G1 X10.400 Y0.000
G1 X10.000 Y0.000
G1 X10.000 Y7.000
G1 X4.795 Y7.000
G1 X4.795 Y-7.000
G1 X10.000 Y-7.000
G1 X10.000 Y0.000
G1 X9.600 Y0.000
G1 X9.600 Y6.600
G1 X5.195 Y6.600
G1 X5.195 Y-6.600
G1 X9.600 Y-6.600
G1 X9.600 Y0.000
G1 X9.200 Y0.000
G1 X9.200 Y6.200
G1 X5.595 Y6.200
G1 X5.595 Y-6.200
G1 X9.200 Y-6.200
G1 X9.200 Y0.000
G1 X8.800 Y0.000
G1 X8.800 Y5.800
G1 X5.995 Y5.800
G1 X5.995 Y-5.800
G1 X8.800 Y-5.800
G1 X8.800 Y0.000
G1 X8.400 Y0.000
G1 X8.400 Y5.400
G1 X6.395 Y5.400
G1 X6.395 Y-5.400
G1 X8.400 Y-5.400
G1 X8.400 Y0.000
G1 X8.000 Y0.000
G1 X8.000 Y5.000
G1 X6.795 Y5.000
G1 X6.795 Y-5.000
G1 X8.000 Y-5.000
G1 X8.000 Y0.000
G1 X7.600 Y0.000
G1 X7.600 Y4.600
G1 X7.195 Y4.600
G1 X7.195 Y-4.600
G1 X7.600 Y-4.600
G1 X7.600 Y0.000
G1 X7.200 Y0.000
G1 X7.600 Y0.000 Z2.700
G1 X7.600 Y0.000
G1 X8.000 Y0.000
G1 X8.000 Y-5.000
G1 X7.002 Y-5.000
G1 X7.002 Y5.000
G1 X8.000 Y5.000
G1 X8.000 Y0.000
G1 X8.400 Y0.000
G1 X8.400 Y-5.400
G1 X6.602 Y-5.400
G1 X6.602 Y5.400
G1 X8.400 Y5.400
G1 X8.400 Y0.000
G1 X8.800 Y0.000
G1 X8.800 Y-5.800
G1 X6.202 Y-5.800
G1 X6.202 Y5.800
G1 X8.800 Y5.800
G1 X8.800 Y0.000
G1 X9.200 Y0.000
G1 X9.200 Y-6.200
G1 X5.802 Y-6.200
G1 X5.802 Y6.200
G1 X9.200 Y6.200
G1 X9.200 Y0.000
G1 X9.600 Y0.000
G1 X9.600 Y-6.600
G1 X5.402 Y-6.600
G1 X5.402 Y6.600
G1 X9.600 Y6.600
G1 X9.600 Y0.000
G1 X10.000 Y0.000
G1 X10.000 Y-7.000
G1 X5.002 Y-7.000
G1 X5.002 Y7.000
G1 X10.000 Y7.000
G1 X10.000 Y0.000
G1 X10.400 Y0.000
G1 X10.400 Y-7.400
G1 X4.602 Y-7.400
G1 X4.602 Y7.400
G1 X10.400 Y7.400
G1 X10.400 Y0.000
G1 X10.800 Y0.000
G1 X10.800 Y-7.800
G1 X4.202 Y-7.800
G1 X4.202 Y7.800
G1 X10.800 Y7.800
G1 X10.800 Y0.000
G1 X11.200 Y0.000
G1 X11.200 Y-8.200
G1 X3.802 Y-8.200
G1 X3.802 Y8.200
G1 X11.200 Y8.200
G1 X11.200 Y0.000
G1 X11.600 Y0.000
G1 X11.600 Y-8.600
G1 X3.402 Y-8.600
G1 X3.402 Y8.600
G1 X11.600 Y8.600
G1 X11.600 Y0.000
G1 X12.000 Y0.000
G1 X12.000 Y-9.000
G1 X3.002 Y-9.000
G1 X3.002 Y9.000
G1 X12.000 Y9.000
G1 X12.000 Y0.000
G1 X12.400 Y0.000
G1 X12.400 Y-9.400
G1 X2.602 Y-9.400
G1 X2.602 Y9.400
G1 X12.400 Y9.400
G1 X12.400 Y0.000
G1 X12.800 Y0.000
G1 X12.800 Y-9.800
G1 X2.202 Y-9.800
G1 X2.202 Y9.800
G1 X12.800 Y9.800
G1 X12.800 Y0.000 Z2.700
G1 X12.800 Y0.000 Z3.100
G1 X12.800 Y9.800
G1 X2.361 Y9.800
G1 X2.361 Y-9.800
G1 X12.800 Y-9.800
G1 X12.800 Y0.000
G1 X12.400 Y0.000
G1 X12.400 Y9.400
G1 X2.761 Y9.400
G1 X2.761 Y-9.400
G1 X12.400 Y-9.400
G1 X12.400 Y0.000
G1 X12.000 Y0.000
G1 X12.000 Y9.000
G1 X3.161 Y9.000
G1 X3.161 Y-9.000
G1 X12.000 Y-9.000
G1 X12.000 Y0.000
G1 X11.600 Y0.000
G1 X11.600 Y8.600
G1 X3.561 Y8.600
G1 X3.561 Y-8.600
G1 X11.600 Y-8.600
G1 X11.600 Y0.000
G1 X11.200 Y0.000
G1 X11.200 Y8.200
G1 X3.961 Y8.200
G1 X3.961 Y-8.200
G1 X11.200 Y-8.200
G1 X11.200 Y0.000
G1 X10.800 Y0.000
G1 X10.800 Y7.800
G1 X4.361 Y7.800
G1 X4.361 Y-7.800
G1 X10.800 Y-7.800
G1 X10.800 Y0.000
G1 X10.400 Y0.000
G1 X10.400 Y7.400
G1 X4.761 Y7.400
G1 X4.761 Y-7.400
G1 X10.400 Y-7.400
G1 X10.400 Y0.000
G1 X10.000 Y0.000
G1 X10.000 Y7.000
G1 X5.161 Y7.000
G1 X5.161 Y-7.000
G1 X10.000 Y-7.000
G1 X10.000 Y0.000
G1 X9.600 Y0.000
G1 X9.600 Y6.600
G1 X5.561 Y6.600
G1 X5.561 Y-6.600
G1 X9.600 Y-6.600
G1 X9.600 Y0.000
G1 X9.200 Y0.000
G1 X9.200 Y6.200
G1 X5.961 Y6.200
G1 X5.961 Y-6.200
G1 X9.200 Y-6.200
G1 X9.200 Y0.000
G1 X8.800 Y0.000
G1 X8.800 Y5.800
G1 X6.361 Y5.800
G1 X6.361 Y-5.800
G1 X8.800 Y-5.800
G1 X8.800 Y0.000
G1 X8.400 Y0.000
G1 X8.400 Y5.400
G1 X6.761 Y5.400
G1 X6.761 Y-5.400
G1 X8.400 Y-5.400
G1 X8.400 Y0.000
G1 X8.000 Y0.000
G1 X8.000 Y5.000
G1 X7.161 Y5.000
G1 X7.161 Y-5.000
G1 X8.000 Y-5.000
G1 X8.000 Y0.000
G1 X7.600 Y0.000
G1 X7.600 Y0.000 Z3.500
G1 X7.600 Y0.000
G1 X8.000 Y0.000
G1 X8.000 Y-5.000
G1 X7.283 Y-5.000
G1 X7.283 Y5.000
G1 X8.000 Y5.000
G1 X8.000 Y0.000
G1 X8.400 Y0.000
G1 X8.400 Y-5.400
G1 X6.883 Y-5.400
G1 X6.883 Y5.400
G1 X8.400 Y5.400
G1 X8.400 Y0.000
G1 X8.800 Y0.000
G1 X8.800 Y-5.800
G1 X6.483 Y-5.800
G1 X6.483 Y5.800
G1 X8.800 Y5.800
G1 X8.800 Y0.000
G1 X9.200 Y0.000
G1 X9.200 Y-6.200
G1 X6.083 Y-6.200
G1 X6.083 Y6.200
G1 X9.200 Y6.200
G1 X9.200 Y0.000
G1 X9.600 Y0.000
G1 X9.600 Y-6.600
G1 X5.683 Y-6.600
G1 X5.683 Y6.600
G1 X9.600 Y6.600
G1 X9.600 Y0.000
G1 X10.000 Y0.000
G1 X10.000 Y-7.000
G1 X5.283 Y-7.000
G1 X5.283 Y7.000
G1 X10.000 Y7.000
G1 X10.000 Y0.000
G1 X10.400 Y0.000
G1 X10.400 Y-7.400
G1 X4.883 Y-7.400
G1 X4.883 Y7.400
G1 X10.400 Y7.400
G1 X10.400 Y0.000
G1 X10.800 Y0.000
G1 X10.800 Y-7.800
G1 X4.483 Y-7.800
G1 X4.483 Y7.800
G1 X10.800 Y7.800
G1 X10.800 Y0.000
G1 X11.200 Y0.000
G1 X11.200 Y-8.200
G1 X4.083 Y-8.200
G1 X4.083 Y8.200
G1 X11.200 Y8.200
G1 X11.200 Y0.000
G1 X11.600 Y0.000
G1 X11.600 Y-8.600
G1 X3.683 Y-8.600
G1 X3.683 Y8.600
G1 X11.600 Y8.600
G1 X11.600 Y0.000
G1 X12.000 Y0.000
G1 X12.000 Y-9.000
G1 X3.283 Y-9.000
G1 X3.283 Y9.000
G1 X12.000 Y9.000
G1 X12.000 Y0.000
G1 X12.400 Y0.000
G1 X12.400 Y-9.400
G1 X2.883 Y-9.400
G1 X2.883 Y9.400
G1 X12.400 Y9.400
G1 X12.400 Y0.000
G1 X12.800 Y0.000
G1 X12.800 Y-9.800
G1 X2.483 Y-9.800
G1 X2.483 Y9.800
G1 X12.800 Y9.800
G1 X12.800 Y0.000 Z3.500
G1 X12.800 Y0.000 Z3.900
G1 X12.800 Y9.800
G1 X2.575 Y9.800
G1 X2.575 Y-9.800
G1 X12.800 Y-9.800
G1 X12.800 Y0.000
G1 X12.400 Y0.000
G1 X12.400 Y9.400
G1 X2.975 Y9.400
G1 X2.975 Y-9.400
G1 X12.400 Y-9.400
G1 X12.400 Y0.000
G1 X12.000 Y0.000
G1 X12.000 Y9.000
G1 X3.375 Y9.000
G1 X3.375 Y-9.000
G1 X12.000 Y-9.000
G1 X12.000 Y0.000
G1 X11.600 Y0.000
G1 X11.600 Y8.600
G1 X3.775 Y8.600
G1 X3.775 Y-8.600
G1 X11.600 Y-8.600
G1 X11.600 Y0.000
G1 X11.200 Y0.000
G1 X11.200 Y8.200
G1 X4.175 Y8.200
G1 X4.175 Y-8.200
G1 X11.200 Y-8.200
G1 X11.200 Y0.000
G1 X10.800 Y0.000
G1 X10.800 Y7.800
G1 X4.575 Y7.800
G1 X4.575 Y-7.800
G1 X10.800 Y-7.800
G1 X10.800 Y0.000
G1 X10.400 Y0.000
G1 X10.400 Y7.400
G1 X4.975 Y7.400
G1 X4.975 Y-7.400
G1 X10.400 Y-7.400
G1 X10.400 Y0.000
G1 X10.000 Y0.000
G1 X10.000 Y7.000
G1 X5.375 Y7.000
G1 X5.375 Y-7.000
G1 X10.000 Y-7.000
G1 X10.000 Y0.000
G1 X9.600 Y0.000
G1 X9.600 Y6.600
G1 X5.775 Y6.600
G1 X5.775 Y-6.600
G1 X9.600 Y-6.600
G1 X9.600 Y0.000
G1 X9.200 Y0.000
G1 X9.200 Y6.200
G1 X6.175 Y6.200
G1 X6.175 Y-6.200
G1 X9.200 Y-6.200
G1 X9.200 Y0.000
G1 X8.800 Y0.000
G1 X8.800 Y5.800
G1 X6.575 Y5.800
G1 X6.575 Y-5.800
G1 X8.800 Y-5.800
G1 X8.800 Y0.000
G1 X8.400 Y0.000
G1 X8.400 Y5.400
G1 X6.975 Y5.400
G1 X6.975 Y-5.400
G1 X8.400 Y-5.400
G1 X8.400 Y0.000
G1 X8.000 Y0.000
G1 X8.000 Y5.000
G1 X7.375 Y5.000
G1 X7.375 Y-5.000
G1 X8.000 Y-5.000
G1 X8.000 Y0.000
G1 X7.600 Y0.000
G1 X7.600 Y0.000 Z4.300
G1 X7.600 Y0.000
G1 X8.000 Y0.000
G1 X8.000 Y-5.000
G1 X7.441 Y-5.000
G1 X7.441 Y5.000
G1 X8.000 Y5.000
G1 X8.000 Y0.000
G1 X8.400 Y0.000
G1 X8.400 Y-5.400
G1 X7.041 Y-5.400
G1 X7.041 Y5.400
G1 X8.400 Y5.400
G1 X8.400 Y0.000
G1 X8.800 Y0.000
G1 X8.800 Y-5.800
G1 X6.641 Y-5.800
G1 X6.641 Y5.800
G1 X8.800 Y5.800
G1 X8.800 Y0.000
G1 X9.200 Y0.000
G1 X9.200 Y-6.200
G1 X6.241 Y-6.200
G1 X6.241 Y6.200
G1 X9.200 Y6.200
G1 X9.200 Y0.000
G1 X9.600 Y0.000
G1 X9.600 Y-6.600
G1 X5.841 Y-6.600
G1 X5.841 Y6.600
G1 X9.600 Y6.600
G1 X9.600 Y0.000
G1 X10.000 Y0.000
G1 X10.000 Y-7.000
G1 X5.441 Y-7.000
G1 X5.441 Y7.000
G1 X10.000 Y7.000
G1 X10.000 Y0.000
G1 X10.400 Y0.000
G1 X10.400 Y-7.400
G1 X5.041 Y-7.400
G1 X5.041 Y7.400
G1 X10.400 Y7.400
G1 X10.400 Y0.000
G1 X10.800 Y0.000
G1 X10.800 Y-7.800
G1 X4.641 Y-7.800
G1 X4.641 Y7.800
G1 X10.800 Y7.800
G1 X10.800 Y0.000
G1 X11.200 Y0.000
G1 X11.200 Y-8.200
G1 X4.241 Y-8.200
G1 X4.241 Y8.200
G1 X11.200 Y8.200
G1 X11.200 Y0.000
G1 X11.600 Y0.000
G1 X11.600 Y-8.600
G1 X3.841 Y-8.600
G1 X3.841 Y8.600
G1 X11.600 Y8.600
G1 X11.600 Y0.000
G1 X12.000 Y0.000
G1 X12.000 Y-9.000
G1 X3.441 Y-9.000
G1 X3.441 Y9.000
G1 X12.000 Y9.000
G1 X12.000 Y0.000
G1 X12.400 Y0.000
G1 X12.400 Y-9.400
G1 X3.041 Y-9.400
G1 X3.041 Y9.400
G1 X12.400 Y9.400
G1 X12.400 Y0.000
G1 X12.800 Y0.000
G1 X12.800 Y-9.800
G1 X2.641 Y-9.800
G1 X2.641 Y9.800
G1 X12.800 Y9.800
G1 X12.800 Y0.000 Z4.300
G1 X12.800 Y0.000 Z4.700
G1 X12.800 Y9.800
G1 X2.685 Y9.800
G1 X2.685 Y-9.800
G1 X12.800 Y-9.800
G1 X12.800 Y0.000
G1 X12.400 Y0.000
G1 X12.400 Y9.400
G1 X3.085 Y9.400
G1 X3.085 Y-9.400
G1 X12.400 Y-9.400
G1 X12.400 Y0.000
G1 X12.000 Y0.000
G1 X12.000 Y9.000
G1 X3.485 Y9.000
G1 X3.485 Y-9.000
G1 X12.000 Y-9.000
G1 X12.000 Y0.000
G1 X11.600 Y0.000
G1 X11.600 Y8.600
G1 X3.885 Y8.600
G1 X3.885 Y-8.600
G1 X11.600 Y-8.600
G1 X11.600 Y0.000
G1 X11.200 Y0.000
G1 X11.200 Y8.200
G1 X4.285 Y8.200
G1 X4.285 Y-8.200
G1 X11.200 Y-8.200
G1 X11.200 Y0.000
G1 X10.800 Y0.000
G1 X10.800 Y7.800
G1 X4.685 Y7.800
G1 X4.685 Y-7.800
G1 X10.800 Y-7.800
G1 X10.800 Y0.000
G1 X10.400 Y0.000
G1 X10.400 Y7.400
G1 X5.085 Y7.400
G1 X5.085 Y-7.400
G1 X10.400 Y-7.400
G1 X10.400 Y0.000
G1 X10.000 Y0.000
G1 X10.000 Y7.000
G1 X5.485 Y7.000
G1 X5.485 Y-7.000
G1 X10.000 Y-7.000
G1 X10.000 Y0.000
G1 X9.600 Y0.000
G1 X9.600 Y6.600
G1 X5.885 Y6.600
G1 X5.885 Y-6.600
G1 X9.600 Y-6.600
G1 X9.600 Y0.000
G1 X9.200 Y0.000
G1 X9.200 Y6.200
G1 X6.285 Y6.200
G1 X6.285 Y-6.200
G1 X9.200 Y-6.200
G1 X9.200 Y0.000
G1 X8.800 Y0.000
G1 X8.800 Y5.800
G1 X6.685 Y5.800
G1 X6.685 Y-5.800
G1 X8.800 Y-5.800
G1 X8.800 Y0.000
G1 X8.400 Y0.000
G1 X8.400 Y5.400
G1 X7.085 Y5.400
G1 X7.085 Y-5.400
G1 X8.400 Y-5.400
G1 X8.400 Y0.000
G1 X8.000 Y0.000
G1 X8.000 Y5.000
G1 X7.485 Y5.000
G1 X7.485 Y-5.000
G1 X8.000 Y-5.000
G1 X8.000 Y0.000
G1 X7.600 Y0.000
G1 X7.600 Y0.000 Z5.100
G1 X7.600 Y0.000
G1 X8.000 Y0.000
G1 X8.000 Y-5.000
G1 X7.506 Y-5.000
G1 X7.506 Y5.000
G1 X8.000 Y5.000
G1 X8.000 Y0.000
G1 X8.400 Y0.000
G1 X8.400 Y-5.400
G1 X7.106 Y-5.400
G1 X7.106 Y5.400
G1 X8.400 Y5.400
G1 X8.400 Y0.000
G1 X8.800 Y0.000
G1 X8.800 Y-5.800
G1 X6.706 Y-5.800
G1 X6.706 Y5.800
G1 X8.800 Y5.800
G1 X8.800 Y0.000
G1 X9.200 Y0.000
G1 X9.200 Y-6.200
G1 X6.306 Y-6.200
G1 X6.306 Y6.200
G1 X9.200 Y6.200
G1 X9.200 Y0.000
G1 X9.600 Y0.000
G1 X9.600 Y-6.600
G1 X5.906 Y-6.600
G1 X5.906 Y6.600
G1 X9.600 Y6.600
G1 X9.600 Y0.000
G1 X10.000 Y0.000
G1 X10.000 Y-7.000
G1 X5.506 Y-7.000
G1 X5.506 Y7.000
G1 X10.000 Y7.000
G1 X10.000 Y0.000
G1 X10.400 Y0.000
G1 X10.400 Y-7.400
G1 X5.106 Y-7.400
G1 X5.106 Y7.400
G1 X10.400 Y7.400
G1 X10.400 Y0.000
G1 X10.800 Y0.000
G1 X10.800 Y-7.800
G1 X4.706 Y-7.800
G1 X4.706 Y7.800
G1 X10.800 Y7.800
G1 X10.800 Y0.000
G1 X11.200 Y0.000
G1 X11.200 Y-8.200
G1 X4.306 Y-8.200
G1 X4.306 Y8.200
G1 X11.200 Y8.200
G1 X11.200 Y0.000
G1 X11.600 Y0.000
G1 X11.600 Y-8.600
G1 X3.906 Y-8.600
G1 X3.906 Y8.600
G1 X11.600 Y8.600
G1 X11.600 Y0.000
G1 X12.000 Y0.000
G1 X12.000 Y-9.000
G1 X3.506 Y-9.000
G1 X3.506 Y9.000
G1 X12.000 Y9.000
G1 X12.000 Y0.000
G1 X12.400 Y0.000
G1 X12.400 Y-9.400
G1 X3.106 Y-9.400
G1 X3.106 Y9.400
G1 X12.400 Y9.400
G1 X12.400 Y0.000
G1 X12.800 Y0.000
G1 X12.800 Y-9.800
G1 X2.706 Y-9.800
G1 X2.706 Y9.800
G1 X12.800 Y9.800
G1 X12.800 Y0.000 Z5.100

;Finish
M9
G1 Z10.000
G28 X-100 Y-100;Home