;layer_height = 0.4
;line_width = 0.4
;layer_count = 10
;mesh = single_60
G21 ;start of the code
G1 Z15 F300
G28 X0 Y0 ;Home
G92 X0 Y0 ;Consider this as current
G0 X50 Y50 F3000 ;Go-to Offset
G92 X0 Y0 ;Reset

G0 F3600 X-12.800 Y0.000 Z0.300 ;Go to start position
M7
G4 P150


G1 X-12.800 Y0.000 Z0.300
G1 X-12.800 Y-9.800
G1 X-0.600 Y-9.800
G1 X-0.600 Y9.800
G1 X-12.800 Y9.800
G1 X-12.800 Y0.000
G1 X-12.400 Y0.000
G1 X-12.400 Y-9.400
G1 X-1.000 Y-9.400
G1 X-1.000 Y9.400
G1 X-12.400 Y9.400
G1 X-12.400 Y0.000
G1 X-12.000 Y0.000
G1 X-12.000 Y-9.000
G1 X-1.400 Y-9.000
G1 X-1.400 Y9.000
G1 X-12.000 Y9.000
G1 X-12.000 Y0.000
G1 X-11.600 Y0.000
G1 X-11.600 Y-8.600
G1 X-1.800 Y-8.600
G1 X-1.800 Y8.600
G1 X-11.600 Y8.600
G1 X-11.600 Y0.000
G1 X-11.200 Y0.000
G1 X-11.200 Y-8.200
G1 X-2.200 Y-8.200
G1 X-2.200 Y8.200
G1 X-11.200 Y8.200
G1 X-11.200 Y0.000
G1 X-10.800 Y0.000
G1 X-10.800 Y-7.800
G1 X-2.600 Y-7.800
G1 X-2.600 Y7.800
G1 X-10.800 Y7.800
G1 X-10.800 Y0.000
G1 X-10.400 Y0.000
G1 X-10.400 Y-7.400
G1 X-3.000 Y-7.400
G1 X-3.000 Y7.400
G1 X-10.400 Y7.400
G1 X-10.400 Y0.000
G1 X-10.000 Y0.000
G1 X-10.000 Y-7.000
G1 X-3.400 Y-7.000
G1 X-3.400 Y7.000
G1 X-10.000 Y7.000
G1 X-10.000 Y0.000
G1 X-9.600 Y0.000
G1 X-9.600 Y-6.600
G1 X-3.800 Y-6.600
G1 X-3.800 Y6.600
G1 X-9.600 Y6.600
G1 X-9.600 Y0.000
G1 X-9.200 Y0.000
G1 X-9.200 Y-6.200
G1 X-4.200 Y-6.200
G1 X-4.200 Y6.200
G1 X-9.200 Y6.200
G1 X-9.200 Y0.000
G1 X-8.800 Y0.000
G1 X-8.800 Y-5.800
G1 X-4.600 Y-5.800
G1 X-4.600 Y5.800
G1 X-8.800 Y5.800
G1 X-8.800 Y0.000
G1 X-8.400 Y0.000
G1 X-8.400 Y-5.400
G1 X-5.000 Y-5.400
G1 X-5.000 Y5.400
G1 X-8.400 Y5.400
G1 X-8.400 Y0.000
G1 X-8.000 Y0.000
G1 X-8.000 Y-5.000
G1 X-5.400 Y-5.000
G1 X-5.400 Y5.000
G1 X-8.000 Y5.000
G1 X-8.000 Y0.000
G1 X-7.600 Y0.000
G1 X-7.600 Y-4.600
G1 X-5.800 Y-4.600
G1 X-5.800 Y4.600
G1 X-7.600 Y4.600
G1 X-7.600 Y0.000
G1 X-7.200 Y0.000
G1 X-7.200 Y-4.200
G1 X-6.200 Y-4.200
G1 X-6.200 Y4.200
G1 X-7.200 Y4.200
G1 X-7.200 Y0.000
G1 X-6.800 Y0.000
G1 X-6.800 Y0.000 Z0.700
G1 X-6.800 Y0.000
G1 X-7.200 Y0.000
G1 X-7.200 Y4.200
G1 X-6.200 Y4.200
G1 X-6.200 Y-4.200
G1 X-7.200 Y-4.200
G1 X-7.200 Y0.000
G1 X-7.600 Y0.000
G1 X-7.600 Y4.600
G1 X-5.800 Y4.600
G1 X-5.800 Y-4.600
G1 X-7.600 Y-4.600
G1 X-7.600 Y0.000
G1 X-8.000 Y0.000
G1 X-8.000 Y5.000
G1 X-5.400 Y5.000
G1 X-5.400 Y-5.000
G1 X-8.000 Y-5.000
G1 X-8.000 Y0.000
G1 X-8.400 Y0.000
G1 X-8.400 Y5.400
G1 X-5.000 Y5.400
G1 X-5.000 Y-5.400
G1 X-8.400 Y-5.400
G1 X-8.400 Y0.000
G1 X-8.800 Y0.000
G1 X-8.800 Y5.800
G1 X-4.600 Y5.800
G1 X-4.600 Y-5.800
G1 X-8.800 Y-5.800
G1 X-8.800 Y0.000
G1 X-9.200 Y0.000
G1 X-9.200 Y6.200
G1 X-4.200 Y6.200
G1 X-4.200 Y-6.200
G1 X-9.200 Y-6.200
G1 X-9.200 Y0.000
G1 X-9.600 Y0.000
G1 X-9.600 Y6.600
G1 X-3.800 Y6.600
G1 X-3.800 Y-6.600
G1 X-9.600 Y-6.600
G1 X-9.600 Y0.000
G1 X-10.000 Y0.000
G1 X-10.000 Y7.000
G1 X-3.400 Y7.000
G1 X-3.400 Y-7.000
G1 X-10.000 Y-7.000
G1 X-10.000 Y0.000
G1 X-10.400 Y0.000
G1 X-10.400 Y7.400
G1 X-3.000 Y7.400
G1 X-3.000 Y-7.400
G1 X-10.400 Y-7.400
G1 X-10.400 Y0.000
G1 X-10.800 Y0.000
G1 X-10.800 Y7.800
G1 X-2.600 Y7.800
G1 X-2.600 Y-7.800
G1 X-10.800 Y-7.800
G1 X-10.800 Y0.000
G1 X-11.200 Y0.000
G1 X-11.200 Y8.200
G1 X-2.200 Y8.200
G1 X-2.200 Y-8.200
G1 X-11.200 Y-8.200
G1 X-11.200 Y0.000
G1 X-11.600 Y0.000
G1 X-11.600 Y8.600
G1 X-1.800 Y8.600
G1 X-1.800 Y-8.600
G1 X-11.600 Y-8.600
G1 X-11.600 Y0.000
G1 X-12.000 Y0.000
G1 X-12.000 Y9.000
G1 X-1.400 Y9.000
G1 X-1.400 Y-9.000
G1 X-12.000 Y-9.000
G1 X-12.000 Y0.000
G1 X-12.400 Y0.000
G1 X-12.400 Y9.400
G1 X-1.000 Y9.400
G1 X-1.000 Y-9.400
G1 X-12.400 Y-9.400
G1 X-12.400 Y0.000
G1 X-12.800 Y0.000
G1 X-12.800 Y9.800
G1 X-0.600 Y9.800
G1 X-0.600 Y-9.800
G1 X-12.800 Y-9.800
G1 X-12.800 Y0.000 Z0.700
M9
G1 Z10.000
G1 X12.800 Y0.000
G1 Z0.300
M7
G4 P150
G1 X12.800 Y0.000 Z0.300
G1 X12.800 Y9.800
G1 X0.600 Y9.800
G1 X0.600 Y-9.800
G1 X12.800 Y-9.800
G1 X12.800 Y0.000
G1 X12.400 Y0.000
G1 X12.400 Y9.400
G1 X1.000 Y9.400
G1 X1.000 Y-9.400
G1 X12.400 Y-9.400
G1 X12.400 Y0.000
G1 X12.000 Y0.000
G1 X12.000 Y9.000
G1 X1.400 Y9.000
G1 X1.400 Y-9.000
G1 X12.000 Y-9.000
G1 X12.000 Y0.000
G1 X11.600 Y0.000
G1 X11.600 Y8.600
G1 X1.800 Y8.600
G1 X1.800 Y-8.600
G1 X11.600 Y-8.600
G1 X11.600 Y0.000
G1 X11.200 Y0.000
G1 X11.200 Y8.200
G1 X2.200 Y8.200
G1 X2.200 Y-8.200
G1 X11.200 Y-8.200
G1 X11.200 Y0.000
G1 X10.800 Y0.000
G1 X10.800 Y7.800
G1 X2.600 Y7.800
G1 X2.600 Y-7.800
G1 X10.800 Y-7.800
G1 X10.800 Y0.000
G1 X10.400 Y0.000
G1 X10.400 Y7.400
G1 X3.000 Y7.400
G1 X3.000 Y-7.400
G1 X10.400 Y-7.400
G1 X10.400 Y0.000
G1 X10.000 Y0.000
G1 X10.000 Y7.000
G1 X3.400 Y7.000
G1 X3.400 Y-7.000
G1 X10.000 Y-7.000
G1 X10.000 Y0.000
G1 X9.600 Y0.000
G1 X9.600 Y6.600
G1 X3.800 Y6.600
G1 X3.800 Y-6.600
G1 X9.600 Y-6.600
G1 X9.600 Y0.000
G1 X9.200 Y0.000
G1 X9.200 Y6.200
G1 X4.200 Y6.200
G1 X4.200 Y-6.200
G1 X9.200 Y-6.200
G1 X9.200 Y0.000
G1 X8.800 Y0.000
G1 X8.800 Y5.800
G1 X4.600 Y5.800
G1 X4.600 Y-5.800
G1 X8.800 Y-5.800
G1 X8.800 Y0.000
G1 X8.400 Y0.000
G1 X8.400 Y5.400
G1 X5.000 Y5.400
G1 X5.000 Y-5.400
G1 X8.400 Y-5.400
G1 X8.400 Y0.000
G1 X8.000 Y0.000
G1 X8.000 Y5.000
G1 X5.400 Y5.000
G1 X5.400 Y-5.000
G1 X8.000 Y-5.000
G1 X8.000 Y0.000
G1 X7.600 Y0.000
G1 X7.600 Y4.600
G1 X5.800 Y4.600
G1 X5.800 Y-4.600
G1 X7.600 Y-4.600
G1 X7.600 Y0.000
G1 X7.200 Y0.000
G1 X7.200 Y4.200
G1 X6.200 Y4.200
G1 X6.200 Y-4.200
G1 X7.200 Y-4.200
G1 X7.200 Y0.000
G1 X6.800 Y0.000
G1 X6.800 Y0.000 Z0.700
G1 X6.800 Y0.000
G1 X7.200 Y0.000
G1 X7.200 Y-4.200
G1 X6.200 Y-4.200
G1 X6.200 Y4.200
G1 X7.200 Y4.200
G1 X7.200 Y0.000
G1 X7.600 Y0.000
G1 X7.600 Y-4.600
G1 X5.800 Y-4.600
G1 X5.800 Y4.600
G1 X7.600 Y4.600
G1 X7.600 Y0.000
G1 X8.000 Y0.000
G1 X8.000 Y-5.000
G1 X5.400 Y-5.000
G1 X5.400 Y5.000
G1 X8.000 Y5.000
G1 X8.000 Y0.000
G1 X8.400 Y0.000
G1 X8.400 Y-5.400
G1 X5.000 Y-5.400
G1 X5.000 Y5.400
G1 X8.400 Y5.400
G1 X8.400 Y0.000
G1 X8.800 Y0.000
G1 X8.800 Y-5.800
G1 X4.600 Y-5.800
G1 X4.600 Y5.800
G1 X8.800 Y5.800
G1 X8.800 Y0.000
G1 X9.200 Y0.000
G1 X9.200 Y-6.200
G1 X4.200 Y-6.200
G1 X4.200 Y6.200
G1 X9.200 Y6.200
G1 X9.200 Y0.000
G1 X9.600 Y0.000
G1 X9.600 Y-6.600
G1 X3.800 Y-6.600
G1 X3.800 Y6.600
G1 X9.600 Y6.600
G1 X9.600 Y0.000
G1 X10.000 Y0.000
G1 X10.000 Y-7.000
G1 X3.400 Y-7.000
G1 X3.400 Y7.000
G1 X10.000 Y7.000
G1 X10.000 Y0.000
G1 X10.400 Y0.000
G1 X10.400 Y-7.400
G1 X3.000 Y-7.400
G1 X3.000 Y7.400
G1 X10.400 Y7.400
G1 X10.400 Y0.000
G1 X10.800 Y0.000
G1 X10.800 Y-7.800
G1 X2.600 Y-7.800
G1 X2.600 Y7.800
G1 X10.800 Y7.800
G1 X10.800 Y0.000
G1 X11.200 Y0.000
G1 X11.200 Y-8.200
G1 X2.200 Y-8.200
G1 X2.200 Y8.200
G1 X11.200 Y8.200
G1 X11.200 Y0.000
G1 X11.600 Y0.000
G1 X11.600 Y-8.600
G1 X1.800 Y-8.600
G1 X1.800 Y8.600
G1 X11.600 Y8.600
G1 X11.600 Y0.000
G1 X12.000 Y0.000
G1 X12.000 Y-9.000
G1 X1.400 Y-9.000
G1 X1.400 Y9.000
G1 X12.000 Y9.000
G1 X12.000 Y0.000
G1 X12.400 Y0.000
G1 X12.400 Y-9.400
G1 X1.000 Y-9.400
G1 X1.000 Y9.400
G1 X12.400 Y9.400
G1 X12.400 Y0.000
G1 X12.800 Y0.000
G1 X12.800 Y-9.800
G1 X0.600 Y-9.800
G1 X0.600 Y9.800
G1 X12.800 Y9.800
G1 X12.800 Y0.000 Z0.700
M9
G1 Z10.000
G1 X-12.800 Y-9.800
G1 Z1.100
M7
G4 P150
G1 X12.800 Y-9.800
G1 X12.800 Y-9.400
G4 P5
G1 X-12.800 Y-9.400
G4 P5
G1 X-12.800 Y-9.000
G4 P5
G1 X12.800 Y-9.000
G4 P5
G1 X12.800 Y-8.600
G4 P5
G1 X-12.800 Y-8.600
G4 P5
G1 X-12.800 Y-8.200
G4 P5
G1 X12.800 Y-8.200
G4 P5
G1 X12.800 Y-7.800
G4 P5
G1 X-12.800 Y-7.800
G4 P5
G1 X-12.800 Y-7.400
G4 P5
G1 X12.800 Y-7.400
G4 P5
G1 X12.800 Y-7.000
G4 P5
G1 X-12.800 Y-7.000
G4 P5
G1 X-12.800 Y-6.600
G4 P5
G1 X12.800 Y-6.600
G4 P5
G1 X12.800 Y-6.200
G4 P5
G1 X-12.800 Y-6.200
G4 P5
G1 X-12.800 Y-5.800
G4 P5
G1 X12.800 Y-5.800
G4 P5
G1 X12.800 Y-5.400
G4 P5
G1 X-12.800 Y-5.400
G4 P5
G1 X-12.800 Y-5.000
G4 P5
G1 X12.800 Y-5.000
G4 P5
G1 X12.800 Y-4.600
G4 P5
G1 X-12.800 Y-4.600
G4 P5
G1 X-12.800 Y-4.200
G4 P5
G1 X12.800 Y-4.200
G4 P5
G1 X12.800 Y-3.800
G4 P5
G1 X-12.800 Y-3.800
G4 P5
G1 X-12.800 Y-3.400
G4 P5
G1 X12.800 Y-3.400
G4 P5
G1 X12.800 Y-3.000
G4 P5
G1 X-12.800 Y-3.000
G4 P5
G1 X-12.800 Y-2.600
G4 P5
G1 X12.800 Y-2.600
G4 P5
G1 X12.800 Y-2.200
G4 P5
G1 X-12.800 Y-2.200
G4 P5
G1 X-12.800 Y-1.800
G4 P5
G1 X12.800 Y-1.800
G4 P5
G1 X12.800 Y-1.400
G4 P5
G1 X-12.800 Y-1.400
G4 P5
G1 X-12.800 Y-1.000
G4 P5
G1 X12.800 Y-1.000
G4 P5
G1 X12.800 Y-0.600
G4 P5
G1 X-12.800 Y-0.600
G4 P5
G1 X-12.800 Y-0.200
G4 P5
G1 X12.800 Y-0.200
G4 P5
G1 X12.800 Y0.200
G4 P5
G1 X-12.800 Y0.200
G4 P5
G1 X-12.800 Y0.600
G4 P5
G1 X12.800 Y0.600
G4 P5
G1 X12.800 Y1.000
G4 P5
G1 X-12.800 Y1.000
G4 P5
G1 X-12.800 Y1.400
G4 P5
G1 X12.800 Y1.400
G4 P5
G1 X12.800 Y1.800
G4 P5
G1 X-12.800 Y1.800
G4 P5
G1 X-12.800 Y2.200
G4 P5
G1 X12.800 Y2.200
G4 P5
G1 X12.800 Y2.600
G4 P5
G1 X-12.800 Y2.600
G4 P5
G1 X-12.800 Y3.000
G4 P5
G1 X12.800 Y3.000
G4 P5
G1 X12.800 Y3.400
G4 P5
G1 X-12.800 Y3.400
G4 P5
G1 X-12.800 Y3.800
G4 P5
G1 X12.800 Y3.800
G4 P5
G1 X12.800 Y4.200
G4 P5
G1 X-12.800 Y4.200
G4 P5
G1 X-12.800 Y4.600
G4 P5
G1 X12.800 Y4.600
G4 P5
G1 X12.800 Y5.000
G4 P5
G1 X-12.800 Y5.000
G4 P5
G1 X-12.800 Y5.400
G4 P5
G1 X12.800 Y5.400
G4 P5
G1 X12.800 Y5.800
G4 P5
G1 X-12.800 Y5.800
G4 P5
G1 X-12.800 Y6.200
G4 P5
G1 X12.800 Y6.200
G4 P5
G1 X12.800 Y6.600
G4 P5
G1 X-12.800 Y6.600
G4 P5
G1 X-12.800 Y7.000
G4 P5
G1 X12.800 Y7.000
G4 P5
G1 X12.800 Y7.400
G4 P5
G1 X-12.800 Y7.400
G4 P5
G1 X-12.800 Y7.800
G4 P5
G1 X12.800 Y7.800
G4 P5
G1 X12.800 Y8.200
G4 P5
G1 X-12.800 Y8.200
G4 P5
G1 X-12.800 Y8.600
G4 P5
G1 X12.800 Y8.600
G4 P5
G1 X12.800 Y9.000
G4 P5
G1 X-12.800 Y9.000
G4 P5
G1 X-12.800 Y9.400
G4 P5
G1 X12.800 Y9.400
G4 P5
G1 X12.800 Y9.800
G4 P5
G1 X-12.800 Y9.800
G4 P5
M9
G1 Z10.000
G1 X-12.800 Y0.000
G1 Z1.500
M7
G4 P150
G1 X-12.800 Y0.000 Z1.500
G1 X-12.800 Y-9.800
G1 X-1.200 Y-9.800
G1 X-1.200 Y9.800
G1 X-12.800 Y9.800
G1 X-12.800 Y0.000
G1 X-12.400 Y0.000
G1 X-12.400 Y-9.400
G1 X-1.600 Y-9.400
G1 X-1.600 Y9.400
G1 X-12.400 Y9.400
G1 X-12.400 Y0.000
G1 X-12.000 Y0.000
G1 X-12.000 Y-9.000
G1 X-2.000 Y-9.000
G1 X-2.000 Y9.000
G1 X-12.000 Y9.000
G1 X-12.000 Y0.000
G1 X-11.600 Y0.000
G1 X-11.600 Y-8.600
G1 X-2.400 Y-8.600
G1 X-2.400 Y8.600
G1 X-11.600 Y8.600
G1 X-11.600 Y0.000
G1 X-11.200 Y0.000
G1 X-11.200 Y-8.200
G1 X-2.800 Y-8.200
G1 X-2.800 Y8.200
G1 X-11.200 Y8.200
G1 X-11.200 Y0.000
G1 X-10.800 Y0.000
G1 X-10.800 Y-7.800
G1 X-3.200 Y-7.800
G1 X-3.200 Y7.800
G1 X-10.800 Y7.800
G1 X-10.800 Y0.000
G1 X-10.400 Y0.000
G1 X-10.400 Y-7.400
G1 X-3.600 Y-7.400
G1 X-3.600 Y7.400
G1 X-10.400 Y7.400
G1 X-10.400 Y0.000
G1 X-10.000 Y0.000
G1 X-10.000 Y-7.000
G1 X-4.000 Y-7.000
G1 X-4.000 Y7.000
G1 X-10.000 Y7.000
G1 X-10.000 Y0.000
G1 X-9.600 Y0.000
G1 X-9.600 Y-6.600
G1 X-4.400 Y-6.600
G1 X-4.400 Y6.600
G1 X-9.600 Y6.600
G1 X-9.600 Y0.000
G1 X-9.200 Y0.000
G1 X-9.200 Y-6.200
G1 X-4.800 Y-6.200
G1 X-4.800 Y6.200
G1 X-9.200 Y6.200
G1 X-9.200 Y0.000
G1 X-8.800 Y0.000
G1 X-8.800 Y-5.800
G1 X-5.200 Y-5.800
G1 X-5.200 Y5.800
G1 X-8.800 Y5.800
G1 X-8.800 Y0.000
G1 X-8.400 Y0.000
G1 X-8.400 Y-5.400
G1 X-5.600 Y-5.400
G1 X-5.600 Y5.400
G1 X-8.400 Y5.400
G1 X-8.400 Y0.000
G1 X-8.000 Y0.000
G1 X-8.000 Y-5.000
G1 X-6.000 Y-5.000
G1 X-6.000 Y5.000
G1 X-8.000 Y5.000
G1 X-8.000 Y0.000
G1 X-7.600 Y0.000
G1 X-7.600 Y-4.600
G1 X-6.400 Y-4.600
G1 X-6.400 Y4.600
G1 X-7.600 Y4.600
G1 X-7.600 Y0.000
G1 X-7.200 Y0.000
G1 X-7.600 Y0.000 Z1.900
G1 X-7.600 Y0.000
G1 X-8.000 Y0.000
G1 X-8.000 Y5.000
G1 X-6.873 Y5.000
G1 X-6.873 Y-5.000
G1 X-8.000 Y-5.000
G1 X-8.000 Y0.000
G1 X-8.400 Y0.000
G1 X-8.400 Y5.400
G1 X-6.473 Y5.400
G1 X-6.473 Y-5.400
G1 X-8.400 Y-5.400
G1 X-8.400 Y0.000
G1 X-8.800 Y0.000
G1 X-8.800 Y5.800
G1 X-6.073 Y5.800
G1 X-6.073 Y-5.800
G1 X-8.800 Y-5.800
G1 X-8.800 Y0.000
G1 X-9.200 Y0.000
G1 X-9.200 Y6.200
G1 X-5.673 Y6.200
G1 X-5.673 Y-6.200
G1 X-9.200 Y-6.200
G1 X-9.200 Y0.000
G1 X-9.600 Y0.000
G1 X-9.600 Y6.600
G1 X-5.273 Y6.600
G1 X-5.273 Y-6.600
G1 X-9.600 Y-6.600
G1 X-9.600 Y0.000
G1 X-10.000 Y0.000
G1 X-10.000 Y7.000
G1 X-4.873 Y7.000
G1 X-4.873 Y-7.000
G1 X-10.000 Y-7.000
G1 X-10.000 Y0.000
G1 X-10.400 Y0.000
G1 X-10.400 Y7.400
G1 X-4.473 Y7.400
G1 X-4.473 Y-7.400
G1 X-10.400 Y-7.400
G1 X-10.400 Y0.000
G1 X-10.800 Y0.000
G1 X-10.800 Y7.800
G1 X-4.073 Y7.800
G1 X-4.073 Y-7.800
G1 X-10.800 Y-7.800
G1 X-10.800 Y0.000
G1 X-11.200 Y0.000
G1 X-11.200 Y8.200
G1 X-3.673 Y8.200
G1 X-3.673 Y-8.200
G1 X-11.200 Y-8.200
G1 X-11.200 Y0.000
G1 X-11.600 Y0.000
G1 X-11.600 Y8.600
G1 X-3.273 Y8.600
G1 X-3.273 Y-8.600
G1 X-11.600 Y-8.600
G1 X-11.600 Y0.000
G1 X-12.000 Y0.000
G1 X-12.000 Y9.000
G1 X-2.873 Y9.000
G1 X-2.873 Y-9.000
G1 X-12.000 Y-9.000
G1 X-12.000 Y0.000
G1 X-12.400 Y0.000
G1 X-12.400 Y9.400
G1 X-2.473 Y9.400
G1 X-2.473 Y-9.400
G1 X-12.400 Y-9.400
G1 X-12.400 Y0.000
G1 X-12.800 Y0.000
G1 X-12.800 Y9.800
G1 X-2.073 Y9.800
G1 X-2.073 Y-9.800
G1 X-12.800 Y-9.800
G1 X-12.800 Y0.000 Z1.900
G1 X-12.800 Y0.000 Z2.300
G1 X-12.800 Y-9.800
G1 X-2.450 Y-9.800
G1 X-2.450 Y9.800
G1 X-12.800 Y9.800
G1 X-12.800 Y0.000
G1 X-12.400 Y0.000
G1 X-12.400 Y-9.400
G1 X-2.850 Y-9.400
G1 X-2.850 Y9.400
G1 X-12.400 Y9.400
G1 X-12.400 Y0.000
G1 X-12.000 Y0.000
G1 X-12.000 Y-9.000
G1 X-3.250 Y-9.000
G1 X-3.250 Y9.000
G1 X-12.000 Y9.000
G1 X-12.000 Y0.000
G1 X-11.600 Y0.000
G1 X-11.600 Y-8.600
G1 X-3.650 Y-8.600
G1 X-3.650 Y8.600
G1 X-11.600 Y8.600
G1 X-11.600 Y0.000
G1 X-11.200 Y0.000
G1 X-11.200 Y-8.200
G1 X-4.050 Y-8.200
G1 X-4.050 Y8.200
G1 X-11.200 Y8.200
G1 X-11.200 Y0.000
G1 X-10.800 Y0.000
G1 X-10.800 Y-7.800
G1 X-4.450 Y-7.800
G1 X-4.450 Y7.800
G1 X-10.800 Y7.800
G1 X-10.800 Y0.000
G1 X-10.400 Y0.000
G1 X-10.400 Y-7.400
G1 X-4.850 Y-7.400
G1 X-4.850 Y7.400
G1 X-10.400 Y7.400
G1 X-10.400 Y0.000
G1 X-10.000 Y0.000
G1 X-10.000 Y-7.000
G1 X-5.250 Y-7.000
G1 X-5.250 Y7.000
G1 X-10.000 Y7.000
G1 X-10.000 Y0.000
G1 X-9.600 Y0.000
G1 X-9.600 Y-6.600
G1 X-5.650 Y-6.600
G1 X-5.650 Y6.600
G1 X-9.600 Y6.600
G1 X-9.600 Y0.000
G1 X-9.200 Y0.000
G1 X-9.200 Y-6.200
G1 X-6.050 Y-6.200
G1 X-6.050 Y6.200
G1 X-9.200 Y6.200
G1 X-9.200 Y0.000
G1 X-8.800 Y0.000
G1 X-8.800 Y-5.800
G1 X-6.450 Y-5.800
G1 X-6.450 Y5.800
G1 X-8.800 Y5.800
G1 X-8.800 Y0.000
G1 X-8.400 Y0.000
G1 X-8.400 Y-5.400
G1 X-6.850 Y-5.400
G1 X-6.850 Y5.400
G1 X-8.400 Y5.400
G1 X-8.400 Y0.000
G1 X-8.000 Y0.000
G1 X-8.000 Y-5.000
G1 X-7.250 Y-5.000
G1 X-7.250 Y5.000
G1 X-8.000 Y5.000
G1 X-8.000 Y0.000
G1 X-7.600 Y0.000
G1 X-7.600 Y0.000 Z2.700
G1 X-7.600 Y0.000
G1 X-8.000 Y0.000
G1 X-8.000 Y5.000
G1 X-7.525 Y5.000
G1 X-7.525 Y-5.000
G1 X-8.000 Y-5.000
G1 X-8.000 Y0.000
G1 X-8.400 Y0.000
G1 X-8.400 Y5.400
G1 X-7.125 Y5.400
G1 X-7.125 Y-5.400
G1 X-8.400 Y-5.400
G1 X-8.400 Y0.000
G1 X-8.800 Y0.000
G1 X-8.800 Y5.800
G1 X-6.725 Y5.800
G1 X-6.725 Y-5.800
G1 X-8.800 Y-5.800
G1 X-8.800 Y0.000
G1 X-9.200 Y0.000
G1 X-9.200 Y6.200
G1 X-6.325 Y6.200
G1 X-6.325 Y-6.200
G1 X-9.200 Y-6.200
G1 X-9.200 Y0.000
G1 X-9.600 Y0.000
G1 X-9.600 Y6.600
G1 X-5.925 Y6.600
G1 X-5.925 Y-6.600
G1 X-9.600 Y-6.600
G1 X-9.600 Y0.000
G1 X-10.000 Y0.000
G1 X-10.000 Y7.000
G1 X-5.525 Y7.000
G1 X-5.525 Y-7.000
G1 X-10.000 Y-7.000
G1 X-10.000 Y0.000
G1 X-10.400 Y0.000
G1 X-10.400 Y7.400
G1 X-5.125 Y7.400
G1 X-5.125 Y-7.400
G1 X-10.400 Y-7.400
G1 X-10.400 Y0.000
G1 X-10.800 Y0.000
G1 X-10.800 Y7.800
G1 X-4.725 Y7.800
G1 X-4.725 Y-7.800
G1 X-10.800 Y-7.800
G1 X-10.800 Y0.000
G1 X-11.200 Y0.000
G1 X-11.200 Y8.200
G1 X-4.325 Y8.200
G1 X-4.325 Y-8.200
G1 X-11.200 Y-8.200
G1 X-11.200 Y0.000
G1 X-11.600 Y0.000
G1 X-11.600 Y8.600
G1 X-3.925 Y8.600
G1 X-3.925 Y-8.600
G1 X-11.600 Y-8.600
G1 X-11.600 Y0.000
G1 X-12.000 Y0.000
G1 X-12.000 Y9.000
G1 X-3.525 Y9.000
G1 X-3.525 Y-9.000
G1 X-12.000 Y-9.000
G1 X-12.000 Y0.000
G1 X-12.400 Y0.000
G1 X-12.400 Y9.400
G1 X-3.125 Y9.400
G1 X-3.125 Y-9.400
G1 X-12.400 Y-9.400
G1 X-12.400 Y0.000
G1 X-12.800 Y0.000
G1 X-12.800 Y9.800
G1 X-2.725 Y9.800
G1 X-2.725 Y-9.800
G1 X-12.800 Y-9.800
G1 X-12.800 Y0.000 Z2.700
G1 X-12.800 Y0.000 Z3.100
G1 X-12.800 Y-9.800
G1 X-2.936 Y-9.800
G1 X-2.936 Y9.800
G1 X-12.800 Y9.800
G1 X-12.800 Y0.000
G1 X-12.400 Y0.000
G1 X-12.400 Y-9.400
G1 X-3.336 Y-9.400
G1 X-3.336 Y9.400
G1 X-12.400 Y9.400
G1 X-12.400 Y0.000
G1 X-12.000 Y0.000
G1 X-12.000 Y-9.000
G1 X-3.736 Y-9.000
G1 X-3.736 Y9.000
G1 X-12.000 Y9.000
G1 X-12.000 Y0.000
G1 X-11.600 Y0.000
G1 X-11.600 Y-8.600
G1 X-4.136 Y-8.600
G1 X-4.136 Y8.600
G1 X-11.600 Y8.600
G1 X-11.600 Y0.000
G1 X-11.200 Y0.000
G1 X-11.200 Y-8.200
G1 X-4.536 Y-8.200
G1 X-4.536 Y8.200
G1 X-11.200 Y8.200
G1 X-11.200 Y0.000
G1 X-10.800 Y0.000
G1 X-10.800 Y-7.800
G1 X-4.936 Y-7.800
G1 X-4.936 Y7.800
G1 X-10.800 Y7.800
G1 X-10.800 Y0.000
G1 X-10.400 Y0.000
G1 X-10.400 Y-7.400
G1 X-5.336 Y-7.400
G1 X-5.336 Y7.400
G1 X-10.400 Y7.400
G1 X-10.400 Y0.000
G1 X-10.000 Y0.000
G1 X-10.000 Y-7.000
G1 X-5.736 Y-7.000
G1 X-5.736 Y7.000
G1 X-10.000 Y7.000
G1 X-10.000 Y0.000
G1 X-9.600 Y0.000
G1 X-9.600 Y-6.600
G1 X-6.136 Y-6.600
G1 X-6.136 Y6.600
G1 X-9.600 Y6.600
G1 X-9.600 Y0.000
G1 X-9.200 Y0.000
G1 X-9.200 Y-6.200
G1 X-6.536 Y-6.200
G1 X-6.536 Y6.200
G1 X-9.200 Y6.200
G1 X-9.200 Y0.000
G1 X-8.800 Y0.000
G1 X-8.800 Y-5.800
G1 X-6.936 Y-5.800
G1 X-6.936 Y5.800
G1 X-8.800 Y5.800
G1 X-8.800 Y0.000
G1 X-8.400 Y0.000
G1 X-8.400 Y-5.400
G1 X-7.336 Y-5.400
G1 X-7.336 Y5.400
G1 X-8.400 Y5.400
G1 X-8.400 Y0.000
G1 X-8.000 Y0.000
G1 X-8.000 Y0.000 Z3.500
G1 X-8.000 Y0.000
G1 X-8.400 Y0.000
G1 X-8.400 Y5.400
G1 X-7.498 Y5.400
G1 X-7.498 Y-5.400
G1 X-8.400 Y-5.400
G1 X-8.400 Y0.000
G1 X-8.800 Y0.000
G1 X-8.800 Y5.800
G1 X-7.098 Y5.800
G1 X-7.098 Y-5.800
G1 X-8.800 Y-5.800
G1 X-8.800 Y0.000
G1 X-9.200 Y0.000
G1 X-9.200 Y6.200
G1 X-6.698 Y6.200
G1 X-6.698 Y-6.200
G1 X-9.200 Y-6.200
G1 X-9.200 Y0.000
G1 X-9.600 Y0.000
G1 X-9.600 Y6.600
G1 X-6.298 Y6.600
G1 X-6.298 Y-6.600
G1 X-9.600 Y-6.600
G1 X-9.600 Y0.000
G1 X-10.000 Y0.000
G1 X-10.000 Y7.000
G1 X-5.898 Y7.000
G1 X-5.898 Y-7.000
G1 X-10.000 Y-7.000
G1 X-10.000 Y0.000
G1 X-10.400 Y0.000
G1 X-10.400 Y7.400
G1 X-5.498 Y7.400
G1 X-5.498 Y-7.400
G1 X-10.400 Y-7.400
G1 X-10.400 Y0.000
G1 X-10.800 Y0.000
G1 X-10.800 Y7.800
G1 X-5.098 Y7.800
G1 X-5.098 Y-7.800
G1 X-10.800 Y-7.800
G1 X-10.800 Y0.000
G1 X-11.200 Y0.000
G1 X-11.200 Y8.200
G1 X-4.698 Y8.200
G1 X-4.698 Y-8.200
G1 X-11.200 Y-8.200
G1 X-11.200 Y0.000
G1 X-11.600 Y0.000
G1 X-11.600 Y8.600
G1 X-4.298 Y8.600
G1 X-4.298 Y-8.600
G1 X-11.600 Y-8.600
G1 X-11.600 Y0.000
G1 X-12.000 Y0.000
G1 X-12.000 Y9.000
G1 X-3.898 Y9.000
G1 X-3.898 Y-9.000
G1 X-12.000 Y-9.000
G1 X-12.000 Y0.000
G1 X-12.400 Y0.000
G1 X-12.400 Y9.400
G1 X-3.498 Y9.400
G1 X-3.498 Y-9.400
G1 X-12.400 Y-9.400
G1 X-12.400 Y0.000
G1 X-12.800 Y0.000
G1 X-12.800 Y9.800
G1 X-3.098 Y9.800
G1 X-3.098 Y-9.800
G1 X-12.800 Y-9.800
G1 X-12.800 Y0.000 Z3.500
G1 X-12.800 Y0.000 Z3.900
G1 X-12.800 Y-9.800
G1 X-3.220 Y-9.800
G1 X-3.220 Y9.800
G1 X-12.800 Y9.800
G1 X-12.800 Y0.000
G1 X-12.400 Y0.000
G1 X-12.400 Y-9.400
G1 X-3.620 Y-9.400
G1 X-3.620 Y9.400
G1 X-12.400 Y9.400
G1 X-12.400 Y0.000
G1 X-12.000 Y0.000
G1 X-12.000 Y-9.000
G1 X-4.020 Y-9.000
G1 X-4.020 Y9.000
G1 X-12.000 Y9.000
G1 X-12.000 Y0.000
G1 X-11.600 Y0.000
G1 X-11.600 Y-8.600
G1 X-4.420 Y-8.600
G1 X-4.420 Y8.600
G1 X-11.600 Y8.600
G1 X-11.600 Y0.000
G1 X-11.200 Y0.000
G1 X-11.200 Y-8.200
G1 X-4.820 Y-8.200
G1 X-4.820 Y8.200
G1 X-11.200 Y8.200
G1 X-11.200 Y0.000
G1 X-10.800 Y0.000
G1 X-10.800 Y-7.800
G1 X-5.220 Y-7.800
G1 X-5.220 Y7.800
G1 X-10.800 Y7.800
G1 X-10.800 Y0.000
G1 X-10.400 Y0.000
G1 X-10.400 Y-7.400
G1 X-5.620 Y-7.400
G1 X-5.620 Y7.400
G1 X-10.400 Y7.400
G1 X-10.400 Y0.000
G1 X-10.000 Y0.000
G1 X-10.000 Y-7.000
G1 X-6.020 Y-7.000
G1 X-6.020 Y7.000
G1 X-10.000 Y7.000
G1 X-10.000 Y0.000
G1 X-9.600 Y0.000
G1 X-9.600 Y-6.600
G1 X-6.420 Y-6.600
G1 X-6.420 Y6.600
G1 X-9.600 Y6.600
G1 X-9.600 Y0.000
G1 X-9.200 Y0.000
G1 X-9.200 Y-6.200
G1 X-6.820 Y-6.200
G1 X-6.820 Y6.200
G1 X-9.200 Y6.200
G1 X-9.200 Y0.000
G1 X-8.800 Y0.000
G1 X-8.800 Y-5.800
G1 X-7.220 Y-5.800
G1 X-7.220 Y5.800
G1 X-8.800 Y5.800
G1 X-8.800 Y0.000
G1 X-8.400 Y0.000
G1 X-8.400 Y-5.400
G1 X-7.620 Y-5.400
G1 X-7.620 Y5.400
G1 X-8.400 Y5.400
G1 X-8.400 Y0.000
G1 X-8.000 Y0.000
G1 X-8.000 Y0.000 Z4.300
G1 X-8.000 Y0.000
G1 X-8.400 Y0.000
G1 X-8.400 Y5.400
G1 X-7.708 Y5.400
G1 X-7.708 Y-5.400
G1 X-8.400 Y-5.400
G1 X-8.400 Y0.000
G1 X-8.800 Y0.000
G1 X-8.800 Y5.800
G1 X-7.308 Y5.800
G1 X-7.308 Y-5.800
G1 X-8.800 Y-5.800
G1 X-8.800 Y0.000
G1 X-9.200 Y0.000
G1 X-9.200 Y6.200
G1 X-6.908 Y6.200
G1 X-6.908 Y-6.200
G1 X-9.200 Y-6.200
G1 X-9.200 Y0.000
G1 X-9.600 Y0.000
G1 X-9.600 Y6.600
G1 X-6.508 Y6.600
G1 X-6.508 Y-6.600
G1 X-9.600 Y-6.600
G1 X-9.600 Y0.000
G1 X-10.000 Y0.000
G1 X-10.000 Y7.000
G1 X-6.108 Y7.000
G1 X-6.108 Y-7.000
G1 X-10.000 Y-7.000
G1 X-10.000 Y0.000
G1 X-10.400 Y0.000
G1 X-10.400 Y7.400
G1 X-5.708 Y7.400
G1 X-5.708 Y-7.400
G1 X-10.400 Y-7.400
G1 X-10.400 Y0.000
G1 X-10.800 Y0.000
G1 X-10.800 Y7.800
G1 X-5.308 Y7.800
G1 X-5.308 Y-7.800
G1 X-10.800 Y-7.800
G1 X-10.800 Y0.000
G1 X-11.200 Y0.000
G1 X-11.200 Y8.200
G1 X-4.908 Y8.200
G1 X-4.908 Y-8.200
G1 X-11.200 Y-8.200
G1 X-11.200 Y0.000
G1 X-11.600 Y0.000
G1 X-11.600 Y8.600
G1 X-4.508 Y8.600
G1 X-4.508 Y-8.600
G1 X-11.600 Y-8.600
G1 X-11.600 Y0.000
G1 X-12.000 Y0.000
G1 X-12.000 Y9.000
G1 X-4.108 Y9.000
G1 X-4.108 Y-9.000
G1 X-12.000 Y-9.000
G1 X-12.000 Y0.000
G1 X-12.400 Y0.000
G1 X-12.400 Y9.400
G1 X-3.708 Y9.400
G1 X-3.708 Y-9.400
G1 X-12.400 Y-9.400
G1 X-12.400 Y0.000
G1 X-12.800 Y0.000
G1 X-12.800 Y9.800
G1 X-3.308 Y9.800
G1 X-3.308 Y-9.800
G1 X-12.800 Y-9.800
G1 X-12.800 Y0.000 Z4.300
G1 X-12.800 Y0.000 Z4.700
G1 X-12.800 Y-9.800
G1 X-3.365 Y-9.800
G1 X-3.365 Y9.800
G1 X-12.800 Y9.800
G1 X-12.800 Y0.000
G1 X-12.400 Y0.000
G1 X-12.400 Y-9.400
G1 X-3.765 Y-9.400
G1 X-3.765 Y9.400
G1 X-12.400 Y9.400
G1 X-12.400 Y0.000
G1 X-12.000 Y0.000
G1 X-12.000 Y-9.000
G1 X-4.165 Y-9.000
G1 X-4.165 Y9.000
G1 X-12.000 Y9.000
G1 X-12.000 Y0.000
G1 X-11.600 Y0.000
G1 X-11.600 Y-8.600
G1 X-4.565 Y-8.600
G1 X-4.565 Y8.600
G1 X-11.600 Y8.600
G1 X-11.600 Y0.000
G1 X-11.200 Y0.000
G1 X-11.200 Y-8.200
G1 X-4.965 Y-8.200
G1 X-4.965 Y8.200
G1 X-11.200 Y8.200
G1 X-11.200 Y0.000
G1 X-10.800 Y0.000
G1 X-10.800 Y-7.800
G1 X-5.365 Y-7.800
G1 X-5.365 Y7.800
G1 X-10.800 Y7.800
G1 X-10.800 Y0.000
G1 X-10.400 Y0.000
G1 X-10.400 Y-7.400
G1 X-5.765 Y-7.400
G1 X-5.765 Y7.400
G1 X-10.400 Y7.400
G1 X-10.400 Y0.000
G1 X-10.000 Y0.000
G1 X-10.000 Y-7.000
G1 X-6.165 Y-7.000
G1 X-6.165 Y7.000
G1 X-10.000 Y7.000
G1 X-10.000 Y0.000
G1 X-9.600 Y0.000
G1 X-9.600 Y-6.600
G1 X-6.565 Y-6.600
G1 X-6.565 Y6.600
G1 X-9.600 Y6.600
G1 X-9.600 Y0.000
G1 X-9.200 Y0.000
G1 X-9.200 Y-6.200
G1 X-6.965 Y-6.200
G1 X-6.965 Y6.200
G1 X-9.200 Y6.200
G1 X-9.200 Y0.000
G1 X-8.800 Y0.000
G1 X-8.800 Y-5.800
G1 X-7.365 Y-5.800
G1 X-7.365 Y5.800
G1 X-8.800 Y5.800
G1 X-8.800 Y0.000
G1 X-8.400 Y0.000
G1 X-8.400 Y-5.400
G1 X-7.765 Y-5.400
G1 X-7.765 Y5.400
G1 X-8.400 Y5.400
G1 X-8.400 Y0.000
G1 X-8.000 Y0.000
G1 X-8.000 Y0.000 Z5.100
G1 X-8.000 Y0.000
G1 X-8.400 Y0.000
G1 X-8.400 Y5.400
G1 X-7.793 Y5.400
G1 X-7.793 Y-5.400
G1 X-8.400 Y-5.400
G1 X-8.400 Y0.000
G1 X-8.800 Y0.000
G1 X-8.800 Y5.800
G1 X-7.393 Y5.800
G1 X-7.393 Y-5.800
G1 X-8.800 Y-5.800
G1 X-8.800 Y0.000
G1 X-9.200 Y0.000
G1 X-9.200 Y6.200
G1 X-6.993 Y6.200
G1 X-6.993 Y-6.200
G1 X-9.200 Y-6.200
G1 X-9.200 Y0.000
G1 X-9.600 Y0.000
G1 X-9.600 Y6.600
G1 X-6.593 Y6.600
G1 X-6.593 Y-6.600
G1 X-9.600 Y-6.600
G1 X-9.600 Y0.000
G1 X-10.000 Y0.000
G1 X-10.000 Y7.000
G1 X-6.193 Y7.000
G1 X-6.193 Y-7.000
G1 X-10.000 Y-7.000
G1 X-10.000 Y0.000
G1 X-10.400 Y0.000
G1 X-10.400 Y7.400
G1 X-5.793 Y7.400
G1 X-5.793 Y-7.400
G1 X-10.400 Y-7.400
G1 X-10.400 Y0.000
G1 X-10.800 Y0.000
G1 X-10.800 Y7.800
G1 X-5.393 Y7.800
G1 X-5.393 Y-7.800
G1 X-10.800 Y-7.800
G1 X-10.800 Y0.000
G1 X-11.200 Y0.000
G1 X-11.200 Y8.200
G1 X-4.993 Y8.200
G1 X-4.993 Y-8.200
G1 X-11.200 Y-8.200
G1 X-11.200 Y0.000
G1 X-11.600 Y0.000
G1 X-11.600 Y8.600
G1 X-4.593 Y8.600
G1 X-4.593 Y-8.600
G1 X-11.600 Y-8.600
G1 X-11.600 Y0.000
G1 X-12.000 Y0.000
G1 X-12.000 Y9.000
G1 X-4.193 Y9.000
G1 X-4.193 Y-9.000
G1 X-12.000 Y-9.000
G1 X-12.000 Y0.000
G1 X-12.400 Y0.000
G1 X-12.400 Y9.400
G1 X-3.793 Y9.400
G1 X-3.793 Y-9.400
G1 X-12.400 Y-9.400
G1 X-12.400 Y0.000
G1 X-12.800 Y0.000
G1 X-12.800 Y9.800
G1 X-3.393 Y9.800
G1 X-3.393 Y-9.800
G1 X-12.800 Y-9.800
G1 X-12.800 Y0.000 Z5.100
M9
G1 Z10.000
G1 X12.800 Y0.000
G1 Z1.500
M7
G4 P150
G1 X12.800 Y0.000 Z1.500
G1 X12.800 Y9.800
G1 X1.200 Y9.800
G1 X1.200 Y-9.800
G1 X12.800 Y-9.800
G1 X12.800 Y0.000
G1 X12.400 Y0.000
G1 X12.400 Y9.400
G1 X1.600 Y9.400
G1 X1.600 Y-9.400
G1 X12.400 Y-9.400
G1 X12.400 Y0.000
G1 X12.000 Y0.000
G1 X12.000 Y9.000
G1 X2.000 Y9.000
G1 X2.000 Y-9.000
G1 X12.000 Y-9.000
G1 X12.000 Y0.000
G1 X11.600 Y0.000
G1 X11.600 Y8.600
G1 X2.400 Y8.600
G1 X2.400 Y-8.600
G1 X11.600 Y-8.600
G1 X11.600 Y0.000
G1 X11.200 Y0.000
G1 X11.200 Y8.200
G1 X2.800 Y8.200
G1 X2.800 Y-8.200
G1 X11.200 Y-8.200
G1 X11.200 Y0.000
G1 X10.800 Y0.000
G1 X10.800 Y7.800
G1 X3.200 Y7.800
G1 X3.200 Y-7.800
G1 X10.800 Y-7.800
G1 X10.800 Y0.000
G1 X10.400 Y0.000
G1 X10.400 Y7.400
G1 X3.600 Y7.400
G1 X3.600 Y-7.400
G1 X10.400 Y-7.400
G1 X10.400 Y0.000
G1 X10.000 Y0.000
G1 X10.000 Y7.000
G1 X4.000 Y7.000
G1 X4.000 Y-7.000
G1 X10.000 Y-7.000
G1 X10.000 Y0.000
G1 X9.600 Y0.000
G1 X9.600 Y6.600
G1 X4.400 Y6.600
G1 X4.400 Y-6.600
G1 X9.600 Y-6.600
G1 X9.600 Y0.000
G1 X9.200 Y0.000
G1 X9.200 Y6.200
G1 X4.800 Y6.200
G1 X4.800 Y-6.200
G1 X9.200 Y-6.200
G1 X9.200 Y0.000
G1 X8.800 Y0.000
G1 X8.800 Y5.800
G1 X5.200 Y5.800
G1 X5.200 Y-5.800
G1 X8.800 Y-5.800
G1 X8.800 Y0.000
G1 X8.400 Y0.000
G1 X8.400 Y5.400
G1 X5.600 Y5.400
G1 X5.600 Y-5.400
G1 X8.400 Y-5.400
G1 X8.400 Y0.000
G1 X8.000 Y0.000
G1 X8.000 Y5.000
G1 X6.000 Y5.000
G1 X6.000 Y-5.000
G1 X8.000 Y-5.000
G1 X8.000 Y0.000
G1 X7.600 Y0.000
G1 X7.600 Y4.600
G1 X6.400 Y4.600
G1 X6.400 Y-4.600
G1 X7.600 Y-4.600
G1 X7.600 Y0.000
G1 X7.200 Y0.000
G1 X7.600 Y0.000 Z1.900
G1 X7.600 Y0.000
G1 X8.000 Y0.000
G1 X8.000 Y-5.000
G1 X6.873 Y-5.000
G1 X6.873 Y5.000
G1 X8.000 Y5.000
G1 X8.000 Y0.000
G1 X8.400 Y0.000
G1 X8.400 Y-5.400
G1 X6.473 Y-5.400
G1 X6.473 Y5.400
G1 X8.400 Y5.400
G1 X8.400 Y0.000
G1 X8.800 Y0.000
G1 X8.800 Y-5.800
G1 X6.073 Y-5.800
G1 X6.073 Y5.800
G1 X8.800 Y5.800
G1 X8.800 Y0.000
G1 X9.200 Y0.000
G1 X9.200 Y-6.200
G1 X5.673 Y-6.200
G1 X5.673 Y6.200
G1 X9.200 Y6.200
G1 X9.200 Y0.000
G1 X9.600 Y0.000
G1 X9.600 Y-6.600
G1 X5.273 Y-6.600
G1 X5.273 Y6.600
G1 X9.600 Y6.600
G1 X9.600 Y0.000
G1 X10.000 Y0.000
G1 X10.000 Y-7.000
G1 X4.873 Y-7.000
G1 X4.873 Y7.000
G1 X10.000 Y7.000
G1 X10.000 Y0.000
G1 X10.400 Y0.000
G1 X10.400 Y-7.400
G1 X4.473 Y-7.400
G1 X4.473 Y7.400
G1 X10.400 Y7.400
G1 X10.400 Y0.000
G1 X10.800 Y0.000
G1 X10.800 Y-7.800
G1 X4.073 Y-7.800
G1 X4.073 Y7.800
G1 X10.800 Y7.800
G1 X10.800 Y0.000
G1 X11.200 Y0.000
G1 X11.200 Y-8.200
G1 X3.673 Y-8.200
G1 X3.673 Y8.200
G1 X11.200 Y8.200
G1 X11.200 Y0.000
G1 X11.600 Y0.000
G1 X11.600 Y-8.600
G1 X3.273 Y-8.600
G1 X3.273 Y8.600
G1 X11.600 Y8.600
G1 X11.600 Y0.000
G1 X12.000 Y0.000
G1 X12.000 Y-9.000
G1 X2.873 Y-9.000
G1 X2.873 Y9.000
G1 X12.000 Y9.000
G1 X12.000 Y0.000
G1 X12.400 Y0.000
G1 X12.400 Y-9.400
G1 X2.473 Y-9.400
G1 X2.473 Y9.400
G1 X12.400 Y9.400
G1 X12.400 Y0.000
G1 X12.800 Y0.000
G1 X12.800 Y-9.800
G1 X2.073 Y-9.800
G1 X2.073 Y9.800
G1 X12.800 Y9.800
G1 X12.800 Y0.000 Z1.900
G1 X12.800 Y0.000 Z2.300
G1 X12.800 Y9.800
G1 X2.450 Y9.800
G1 X2.450 Y-9.800
G1 X12.800 Y-9.800
G1 X12.800 Y0.000
G1 X12.400 Y0.000
G1 X12.400 Y9.400
G1 X2.850 Y9.400
G1 X2.850 Y-9.400
G1 X12.400 Y-9.400
G1 X12.400 Y0.000
G1 X12.000 Y0.000
G1 X12.000 Y9.000
G1 X3.250 Y9.000
G1 X3.250 Y-9.000
G1 X12.000 Y-9.000
G1 X12.000 Y0.000
G1 X11.600 Y0.000
G1 X11.600 Y8.600
G1 X3.650 Y8.600
G1 X3.650 Y-8.600
G1 X11.600 Y-8.600
G1 X11.600 Y0.000
G1 X11.200 Y0.000
G1 X11.200 Y8.200
G1 X4.050 Y8.200
G1 X4.050 Y-8.200
G1 X11.200 Y-8.200
G1 X11.200 Y0.000
G1 X10.800 Y0.000
G1 X10.800 Y7.800
G1 X4.450 Y7.800
G1 X4.450 Y-7.800
G1 X10.800 Y-7.800
G1 X10.800 Y0.000
G1 X10.400 Y0.000
G1 X10.400 Y7.400
G1 X4.850 Y7.400
G1 X4.850 Y-7.400
G1 X10.400 Y-7.400
G1 X10.400 Y0.000
G1 X10.000 Y0.000
G1 X10.000 Y7.000
G1 X5.250 Y7.000
G1 X5.250 Y-7.000
G1 X10.000 Y-7.000
G1 X10.000 Y0.000
G1 X9.600 Y0.000
G1 X9.600 Y6.600
G1 X5.650 Y6.600
G1 X5.650 Y-6.600
G1 X9.600 Y-6.600
G1 X9.600 Y0.000
G1 X9.200 Y0.000
G1 X9.200 Y6.200
G1 X6.050 Y6.200
G1 X6.050 Y-6.200
G1 X9.200 Y-6.200
G1 X9.200 Y0.000
G1 X8.800 Y0.000
G1 X8.800 Y5.800
G1 X6.450 Y5.800
G1 X6.450 Y-5.800
G1 X8.800 Y-5.800
G1 X8.800 Y0.000
G1 X8.400 Y0.000
G1 X8.400 Y5.400
G1 X6.850 Y5.400
G1 X6.850 Y-5.400
G1 X8.400 Y-5.400
G1 X8.400 Y0.000
G1 X8.000 Y0.000
G1 X8.000 Y5.000
G1 X7.250 Y5.000
G1 X7.250 Y-5.000
G1 X8.000 Y-5.000
G1 X8.000 Y0.000
G1 X7.600 Y0.000
G1 X7.600 Y0.000 Z2.700
G1 X7.600 Y0.000
G1 X8.000 Y0.000
G1 X8.000 Y-5.000
G1 X7.525 Y-5.000
G1 X7.525 Y5.000
G1 X8.000 Y5.000
G1 X8.000 Y0.000
G1 X8.400 Y0.000
G1 X8.400 Y-5.400
G1 X7.125 Y-5.400
G1 X7.125 Y5.400
G1 X8.400 Y5.400
G1 X8.400 Y0.000
G1 X8.800 Y0.000
G1 X8.800 Y-5.800
G1 X6.725 Y-5.800
G1 X6.725 Y5.800
G1 X8.800 Y5.800
G1 X8.800 Y0.000
G1 X9.200 Y0.000
G1 X9.200 Y-6.200
G1 X6.325 Y-6.200
G1 X6.325 Y6.200
G1 X9.200 Y6.200
G1 X9.200 Y0.000
G1 X9.600 Y0.000
G1 X9.600 Y-6.600
G1 X5.925 Y-6.600
G1 X5.925 Y6.600
G1 X9.600 Y6.600
G1 X9.600 Y0.000
G1 X10.000 Y0.000
G1 X10.000 Y-7.000
G1 X5.525 Y-7.000
G1 X5.525 Y7.000
G1 X10.000 Y7.000
G1 X10.000 Y0.000
G1 X10.400 Y0.000
G1 X10.400 Y-7.400
G1 X5.125 Y-7.400
G1 X5.125 Y7.400
G1 X10.400 Y7.400
G1 X10.400 Y0.000
G1 X10.800 Y0.000
G1 X10.800 Y-7.800
G1 X4.725 Y-7.800
G1 X4.725 Y7.800
G1 X10.800 Y7.800
G1 X10.800 Y0.000
G1 X11.200 Y0.000
G1 X11.200 Y-8.200
G1 X4.325 Y-8.200
G1 X4.325 Y8.200
G1 X11.200 Y8.200
G1 X11.200 Y0.000
G1 X11.600 Y0.000
G1 X11.600 Y-8.600
G1 X3.925 Y-8.600
G1 X3.925 Y8.600
G1 X11.600 Y8.600
G1 X11.600 Y0.000
G1 X12.000 Y0.000
G1 X12.000 Y-9.000
G1 X3.525 Y-9.000
G1 X3.525 Y9.000
G1 X12.000 Y9.000
G1 X12.000 Y0.000
G1 X12.400 Y0.000
G1 X12.400 Y-9.400
G1 X3.125 Y-9.400
G1 X3.125 Y9.400
G1 X12.400 Y9.400
G1 X12.400 Y0.000
G1 X12.800 Y0.000
G1 X12.800 Y-9.800
G1 X2.725 Y-9.800
G1 X2.725 Y9.800
G1 X12.800 Y9.800
G1 X12.800 Y0.000 Z2.700
G1 X12.800 Y0.000 Z3.100
G1 X12.800 Y9.800
G1 X2.936 Y9.800
G1 X2.936 Y-9.800
G1 X12.800 Y-9.800
G1 X12.800 Y0.000
G1 X12.400 Y0.000
G1 X12.400 Y9.400
G1 X3.336 Y9.400
G1 X3.336 Y-9.400
G1 X12.400 Y-9.400
G1 X12.400 Y0.000
G1 X12.000 Y0.000
G1 X12.000 Y9.000
G1 X3.736 Y9.000
G1 X3.736 Y-9.000
G1 X12.000 Y-9.000
G1 X12.000 Y0.000
G1 X11.600 Y0.000
G1 X11.600 Y8.600
G1 X4.136 Y8.600
G1 X4.136 Y-8.600
G1 X11.600 Y-8.600
G1 X11.600 Y0.000
G1 X11.200 Y0.000
G1 X11.200 Y8.200
G1 X4.536 Y8.200
G1 X4.536 Y-8.200
G1 X11.200 Y-8.200
G1 X11.200 Y0.000
G1 X10.800 Y0.000
G1 X10.800 Y7.800
G1 X4.936 Y7.800
G1 X4.936 Y-7.800
G1 X10.800 Y-7.800
G1 X10.800 Y0.000
G1 X10.400 Y0.000
G1 X10.400 Y7.400
G1 X5.336 Y7.400
G1 X5.336 Y-7.400
G1 X10.400 Y-7.400
G1 X10.400 Y0.000
G1 X10.000 Y0.000
G1 X10.000 Y7.000
G1 X5.736 Y7.000
G1 X5.736 Y-7.000
G1 X10.000 Y-7.000
G1 X10.000 Y0.000
G1 X9.600 Y0.000
G1 X9.600 Y6.600
G1 X6.136 Y6.600
G1 X6.136 Y-6.600
G1 X9.600 Y-6.600
G1 X9.600 Y0.000
G1 X9.200 Y0.000
G1 X9.200 Y6.200
G1 X6.536 Y6.200
G1 X6.536 Y-6.200
G1 X9.200 Y-6.200
G1 X9.200 Y0.000
G1 X8.800 Y0.000
G1 X8.800 Y5.800
G1 X6.936 Y5.800
G1 X6.936 Y-5.800
G1 X8.800 Y-5.800
G1 X8.800 Y0.000
G1 X8.400 Y0.000
G1 X8.400 Y5.400
G1 X7.336 Y5.400
G1 X7.336 Y-5.400
G1 X8.400 Y-5.400
G1 X8.400 Y0.000
G1 X8.000 Y0.000
G1 X8.000 Y0.000 Z3.500
G1 X8.000 Y0.000
G1 X8.400 Y0.000
G1 X8.400 Y-5.400
G1 X7.498 Y-5.400
G1 X7.498 Y5.400
G1 X8.400 Y5.400
G1 X8.400 Y0.000
G1 X8.800 Y0.000
G1 X8.800 Y-5.800
G1 X7.098 Y-5.800
G1 X7.098 Y5.800
G1 X8.800 Y5.800
G1 X8.800 Y0.000
G1 X9.200 Y0.000
G1 X9.200 Y-6.200
G1 X6.698 Y-6.200
G1 X6.698 Y6.200
G1 X9.200 Y6.200
G1 X9.200 Y0.000
G1 X9.600 Y0.000
G1 X9.600 Y-6.600
G1 X6.298 Y-6.600
G1 X6.298 Y6.600
G1 X9.600 Y6.600
G1 X9.600 Y0.000
G1 X10.000 Y0.000
G1 X10.000 Y-7.000
G1 X5.898 Y-7.000
G1 X5.898 Y7.000
G1 X10.000 Y7.000
G1 X10.000 Y0.000
G1 X10.400 Y0.000
G1 X10.400 Y-7.400
G1 X5.498 Y-7.400
G1 X5.498 Y7.400
G1 X10.400 Y7.400
G1 X10.400 Y0.000
G1 X10.800 Y0.000
G1 X10.800 Y-7.800
G1 X5.098 Y-7.800
G1 X5.098 Y7.800
G1 X10.800 Y7.800
G1 X10.800 Y0.000
G1 X11.200 Y0.000
G1 X11.200 Y-8.200
G1 X4.698 Y-8.200
G1 X4.698 Y8.200
G1 X11.200 Y8.200
G1 X11.200 Y0.000
G1 X11.600 Y0.000
G1 X11.600 Y-8.600
G1 X4.298 Y-8.600
G1 X4.298 Y8.600
G1 X11.600 Y8.600
G1 X11.600 Y0.000
G1 X12.000 Y0.000
G1 X12.000 Y-9.000
G1 X3.898 Y-9.000
G1 X3.898 Y9.000
G1 X12.000 Y9.000
G1 X12.000 Y0.000
G1 X12.400 Y0.000
G1 X12.400 Y-9.400
G1 X3.498 Y-9.400
G1 X3.498 Y9.400
G1 X12.400 Y9.400
G1 X12.400 Y0.000
G1 X12.800 Y0.000
G1 X12.800 Y-9.800
G1 X3.098 Y-9.800
G1 X3.098 Y9.800
G1 X12.800 Y9.800
G1 X12.800 Y0.000 Z3.500
G1 X12.800 Y0.000 Z3.900
G1 X12.800 Y9.800
G1 X3.220 Y9.800
G1 X3.220 Y-9.800
G1 X12.800 Y-9.800
G1 X12.800 Y0.000
G1 X12.400 Y0.000
G1 X12.400 Y9.400
G1 X3.620 Y9.400
G1 X3.620 Y-9.400
G1 X12.400 Y-9.400
G1 X12.400 Y0.000
G1 X12.000 Y0.000
G1 X12.000 Y9.000
G1 X4.020 Y9.000
G1 X4.020 Y-9.000
G1 X12.000 Y-9.000
G1 X12.000 Y0.000
G1 X11.600 Y0.000
G1 X11.600 Y8.600
G1 X4.420 Y8.600
G1 X4.420 Y-8.600
G1 X11.600 Y-8.600
G1 X11.600 Y0.000
G1 X11.200 Y0.000
G1 X11.200 Y8.200
G1 X4.820 Y8.200
G1 X4.820 Y-8.200
G1 X11.200 Y-8.200
G1 X11.200 Y0.000
G1 X10.800 Y0.000
G1 X10.800 Y7.800
G1 X5.220 Y7.800
G1 X5.220 Y-7.800
G1 X10.800 Y-7.800
G1 X10.800 Y0.000
G1 X10.400 Y0.000
G1 X10.400 Y7.400
G1 X5.620 Y7.400
G1 X5.620 Y-7.400
G1 X10.400 Y-7.400
G1 X10.400 Y0.000
G1 X10.000 Y0.000
G1 X10.000 Y7.000
G1 X6.020 Y7.000
G1 X6.020 Y-7.000
G1 X10.000 Y-7.000
G1 X10.000 Y0.000
G1 X9.600 Y0.000
G1 X9.600 Y6.600
G1 X6.420 Y6.600
G1 X6.420 Y-6.600
G1 X9.600 Y-6.600
G1 X9.600 Y0.000
G1 X9.200 Y0.000
G1 X9.200 Y6.200
G1 X6.820 Y6.200
G1 X6.820 Y-6.200
G1 X9.200 Y-6.200
G1 X9.200 Y0.000
G1 X8.800 Y0.000
G1 X8.800 Y5.800
G1 X7.220 Y5.800
G1 X7.220 Y-5.800
G1 X8.800 Y-5.800
G1 X8.800 Y0.000
G1 X8.400 Y0.000
G1 X8.400 Y5.400
G1 X7.620 Y5.400
G1 X7.620 Y-5.400
G1 X8.400 Y-5.400
G1 X8.400 Y0.000
G1 X8.000 Y0.000
G1 X8.000 Y0.000 Z4.300
G1 X8.000 Y0.000
G1 X8.400 Y0.000
G1 X8.400 Y-5.400
G1 X7.708 Y-5.400
G1 X7.708 Y5.400
G1 X8.400 Y5.400
G1 X8.400 Y0.000
G1 X8.800 Y0.000
G1 X8.800 Y-5.800
G1 X7.308 Y-5.800
G1 X7.308 Y5.800
G1 X8.800 Y5.800
G1 X8.800 Y0.000
G1 X9.200 Y0.000
G1 X9.200 Y-6.200
G1 X6.908 Y-6.200
G1 X6.908 Y6.200
G1 X9.200 Y6.200
G1 X9.200 Y0.000
G1 X9.600 Y0.000
G1 X9.600 Y-6.600
G1 X6.508 Y-6.600
G1 X6.508 Y6.600
G1 X9.600 Y6.600
G1 X9.600 Y0.000
G1 X10.000 Y0.000
G1 X10.000 Y-7.000
G1 X6.108 Y-7.000
G1 X6.108 Y7.000
G1 X10.000 Y7.000
G1 X10.000 Y0.000
G1 X10.400 Y0.000
G1 X10.400 Y-7.400
G1 X5.708 Y-7.400
G1 X5.708 Y7.400
G1 X10.400 Y7.400
G1 X10.400 Y0.000
G1 X10.800 Y0.000
G1 X10.800 Y-7.800
G1 X5.308 Y-7.800
G1 X5.308 Y7.800
G1 X10.800 Y7.800
G1 X10.800 Y0.000
G1 X11.200 Y0.000
G1 X11.200 Y-8.200
G1 X4.908 Y-8.200
G1 X4.908 Y8.200
G1 X11.200 Y8.200
G1 X11.200 Y0.000
G1 X11.600 Y0.000
G1 X11.600 Y-8.600
G1 X4.508 Y-8.600
G1 X4.508 Y8.600
G1 X11.600 Y8.600
G1 X11.600 Y0.000
G1 X12.000 Y0.000
G1 X12.000 Y-9.000
G1 X4.108 Y-9.000
G1 X4.108 Y9.000
G1 X12.000 Y9.000
G1 X12.000 Y0.000
G1 X12.400 Y0.000
G1 X12.400 Y-9.400
G1 X3.708 Y-9.400
G1 X3.708 Y9.400
G1 X12.400 Y9.400
G1 X12.400 Y0.000
G1 X12.800 Y0.000
G1 X12.800 Y-9.800
G1 X3.308 Y-9.800
G1 X3.308 Y9.800
G1 X12.800 Y9.800
G1 X12.800 Y0.000 Z4.300
G1 X12.800 Y0.000 Z4.700
G1 X12.800 Y9.800
G1 X3.365 Y9.800
G1 X3.365 Y-9.800
G1 X12.800 Y-9.800
G1 X12.800 Y0.000
G1 X12.400 Y0.000
G1 X12.400 Y9.400
G1 X3.765 Y9.400
G1 X3.765 Y-9.400
G1 X12.400 Y-9.400
G1 X12.400 Y0.000
G1 X12.000 Y0.000
G1 X12.000 Y9.000
G1 X4.165 Y9.000
G1 X4.165 Y-9.000
G1 X12.000 Y-9.000
G1 X12.000 Y0.000
G1 X11.600 Y0.000
G1 X11.600 Y8.600
G1 X4.565 Y8.600
G1 X4.565 Y-8.600
G1 X11.600 Y-8.600
G1 X11.600 Y0.000
G1 X11.200 Y0.000
G1 X11.200 Y8.200
G1 X4.965 Y8.200
G1 X4.965 Y-8.200
G1 X11.200 Y-8.200
G1 X11.200 Y0.000
G1 X10.800 Y0.000
G1 X10.800 Y7.800
G1 X5.365 Y7.800
G1 X5.365 Y-7.800
G1 X10.800 Y-7.800
G1 X10.800 Y0.000
G1 X10.400 Y0.000
G1 X10.400 Y7.400
G1 X5.765 Y7.400
G1 X5.765 Y-7.400
G1 X10.400 Y-7.400
G1 X10.400 Y0.000
G1 X10.000 Y0.000
G1 X10.000 Y7.000
G1 X6.165 Y7.000
G1 X6.165 Y-7.000
G1 X10.000 Y-7.000
G1 X10.000 Y0.000
G1 X9.600 Y0.000
G1 X9.600 Y6.600
G1 X6.565 Y6.600
G1 X6.565 Y-6.600
G1 X9.600 Y-6.600
G1 X9.600 Y0.000
G1 X9.200 Y0.000
G1 X9.200 Y6.200
G1 X6.965 Y6.200
G1 X6.965 Y-6.200
G1 X9.200 Y-6.200
G1 X9.200 Y0.000
G1 X8.800 Y0.000
G1 X8.800 Y5.800
G1 X7.365 Y5.800
G1 X7.365 Y-5.800
G1 X8.800 Y-5.800
G1 X8.800 Y0.000
G1 X8.400 Y0.000
G1 X8.400 Y5.400
G1 X7.765 Y5.400
G1 X7.765 Y-5.400
G1 X8.400 Y-5.400
G1 X8.400 Y0.000
G1 X8.000 Y0.000
G1 X8.000 Y0.000 Z5.100
G1 X8.000 Y0.000
G1 X8.400 Y0.000
G1 X8.400 Y-5.400
G1 X7.793 Y-5.400
G1 X7.793 Y5.400
G1 X8.400 Y5.400
G1 X8.400 Y0.000
G1 X8.800 Y0.000
G1 X8.800 Y-5.800
G1 X7.393 Y-5.800
G1 X7.393 Y5.800
G1 X8.800 Y5.800
G1 X8.800 Y0.000
G1 X9.200 Y0.000
G1 X9.200 Y-6.200
G1 X6.993 Y-6.200
G1 X6.993 Y6.200
G1 X9.200 Y6.200
G1 X9.200 Y0.000
G1 X9.600 Y0.000
G1 X9.600 Y-6.600
G1 X6.593 Y-6.600
G1 X6.593 Y6.600
G1 X9.600 Y6.600
G1 X9.600 Y0.000
G1 X10.000 Y0.000
G1 X10.000 Y-7.000
G1 X6.193 Y-7.000
G1 X6.193 Y7.000
G1 X10.000 Y7.000
G1 X10.000 Y0.000
G1 X10.400 Y0.000
G1 X10.400 Y-7.400
G1 X5.793 Y-7.400
G1 X5.793 Y7.400
G1 X10.400 Y7.400
G1 X10.400 Y0.000
G1 X10.800 Y0.000
G1 X10.800 Y-7.800
G1 X5.393 Y-7.800
G1 X5.393 Y7.800
G1 X10.800 Y7.800
G1 X10.800 Y0.000
G1 X11.200 Y0.000
G1 X11.200 Y-8.200
G1 X4.993 Y-8.200
G1 X4.993 Y8.200
G1 X11.200 Y8.200
G1 X11.200 Y0.000
G1 X11.600 Y0.000
G1 X11.600 Y-8.600
G1 X4.593 Y-8.600
G1 X4.593 Y8.600
G1 X11.600 Y8.600
G1 X11.600 Y0.000
G1 X12.000 Y0.000
G1 X12.000 Y-9.000
G1 X4.193 Y-9.000
G1 X4.193 Y9.000
G1 X12.000 Y9.000
G1 X12.000 Y0.000
G1 X12.400 Y0.000
G1 X12.400 Y-9.400
G1 X3.793 Y-9.400
G1 X3.793 Y9.400
G1 X12.400 Y9.400
G1 X12.400 Y0.000
G1 X12.800 Y0.000
G1 X12.800 Y-9.800
G1 X3.393 Y-9.800
G1 X3.393 Y9.800
G1 X12.800 Y9.800
G1 X12.800 Y0.000 Z5.100

;Finish
M9
G1 Z10.000
G28 X-100 Y-100;Home