;layer_height = 0.4
;line_width = 0.4
;layer_count = 8
;mesh = base_double_together_short
G21 ;start of the code
G1 Z15 F300
G28 X0 Y0 ;Home
G92 X0 Y0 ;Consider this as current
G0 X50 Y50 F3000 ;Go-to Offset
G92 X0 Y0 ;Reset

G0 F3600 X-17.000 Y0.000 Z0.300 ;Go to start position
M7
G4 P150


G1 X-16.800 Y0.000 Z0.300 F1800
G1 X-16.800 Y-9.800
G4 P5
G1 X-4.900 Y-9.800
G4 P5
G1 X-4.900 Y9.800
G4 P5
G1 X-16.800 Y9.800
G4 P5
G1 X-16.800 Y0.000
G1 X-16.400 Y0.000
G1 X-16.400 Y-9.400
G4 P5
G1 X-5.300 Y-9.400
G4 P5
G1 X-5.300 Y9.400
G4 P5
G1 X-16.400 Y9.400
G4 P5
G1 X-16.400 Y0.000
G1 X-16.000 Y0.000
G1 X-16.000 Y-9.000
G4 P5
G1 X-5.700 Y-9.000
G4 P5
G1 X-5.700 Y9.000
G4 P5
G1 X-16.000 Y9.000
G4 P5
G1 X-16.000 Y0.000
G1 X-15.600 Y0.000
G1 X-15.600 Y-8.600
G4 P5
G1 X-6.100 Y-8.600
G4 P5
G1 X-6.100 Y8.600
G4 P5
G1 X-15.600 Y8.600
G4 P5
G1 X-15.600 Y0.000
G1 X-15.200 Y0.000
G1 X-15.200 Y-8.200
G4 P5
G1 X-6.500 Y-8.200
G4 P5
G1 X-6.500 Y8.200
G4 P5
G1 X-15.200 Y8.200
G4 P5
G1 X-15.200 Y0.000
G1 X-14.800 Y0.000
G1 X-14.800 Y-7.800
G4 P5
G1 X-6.900 Y-7.800
G4 P5
G1 X-6.900 Y7.800
G4 P5
G1 X-14.800 Y7.800
G4 P5
G1 X-14.800 Y0.000
G1 X-14.400 Y0.000
G1 X-14.400 Y-7.400
G4 P5
G1 X-7.300 Y-7.400
G4 P5
G1 X-7.300 Y7.400
G4 P5
G1 X-14.400 Y7.400
G4 P5
G1 X-14.400 Y0.000
G1 X-14.000 Y0.000
G1 X-14.000 Y-7.000
G4 P5
G1 X-7.700 Y-7.000
G4 P5
G1 X-7.700 Y7.000
G4 P5
G1 X-14.000 Y7.000
G4 P5
G1 X-14.000 Y0.000
G1 X-13.600 Y0.000
G1 X-13.600 Y-6.600
G4 P5
G1 X-8.100 Y-6.600
G4 P5
G1 X-8.100 Y6.600
G4 P5
G1 X-13.600 Y6.600
G4 P5
G1 X-13.600 Y0.000
G1 X-13.200 Y0.000
G1 X-13.200 Y-6.200
G4 P5
G1 X-8.500 Y-6.200
G4 P5
G1 X-8.500 Y6.200
G4 P5
G1 X-13.200 Y6.200
G4 P5
G1 X-13.200 Y0.000
G1 X-12.800 Y0.000
G1 X-12.800 Y-5.800
G4 P5
G1 X-8.900 Y-5.800
G4 P5
G1 X-8.900 Y5.800
G4 P5
G1 X-12.800 Y5.800
G4 P5
G1 X-12.800 Y0.000
G1 X-12.400 Y0.000
G1 X-12.400 Y-5.400
G4 P5
G1 X-9.300 Y-5.400
G4 P5
G1 X-9.300 Y5.400
G4 P5
G1 X-12.400 Y5.400
G4 P5
G1 X-12.400 Y0.000
G1 X-12.000 Y0.000
G1 X-12.000 Y-5.000
G4 P5
G1 X-9.700 Y-5.000
G4 P5
G1 X-9.700 Y5.000
G4 P5
G1 X-12.000 Y5.000
G4 P5
G1 X-12.000 Y0.000
G1 X-11.600 Y0.000
G1 X-11.600 Y-4.600
G4 P5
G1 X-10.100 Y-4.600
G4 P5
G1 X-10.100 Y4.600
G4 P5
G1 X-11.600 Y4.600
G4 P5
G1 X-11.600 Y0.000
G1 X-11.200 Y0.000
G1 X-11.200 Y-4.200
G4 P5
G1 X-10.500 Y-4.200
G4 P5
G1 X-10.500 Y4.200
G4 P5
G1 X-11.200 Y4.200
G4 P5
G1 X-11.200 Y0.000
G1 X-10.800 Y0.000
G1 X-10.800 Y0.000 Z0.700
G1 X-10.800 Y0.000
G1 X-11.200 Y0.000
G4 P5
G1 X-11.200 Y4.200
G4 P5
G1 X-10.500 Y4.200
G4 P5
G1 X-10.500 Y-4.200
G4 P5
G1 X-11.200 Y-4.200
G1 X-11.200 Y0.000
G1 X-11.600 Y0.000
G4 P5
G1 X-11.600 Y4.600
G4 P5
G1 X-10.100 Y4.600
G4 P5
G1 X-10.100 Y-4.600
G4 P5
G1 X-11.600 Y-4.600
G1 X-11.600 Y0.000
G1 X-12.000 Y0.000
G4 P5
G1 X-12.000 Y5.000
G4 P5
G1 X-9.700 Y5.000
G4 P5
G1 X-9.700 Y-5.000
G4 P5
G1 X-12.000 Y-5.000
G1 X-12.000 Y0.000
G1 X-12.400 Y0.000
G4 P5
G1 X-12.400 Y5.400
G4 P5
G1 X-9.300 Y5.400
G4 P5
G1 X-9.300 Y-5.400
G4 P5
G1 X-12.400 Y-5.400
G1 X-12.400 Y0.000
G1 X-12.800 Y0.000
G4 P5
G1 X-12.800 Y5.800
G4 P5
G1 X-8.900 Y5.800
G4 P5
G1 X-8.900 Y-5.800
G4 P5
G1 X-12.800 Y-5.800
G1 X-12.800 Y0.000
G1 X-13.200 Y0.000
G4 P5
G1 X-13.200 Y6.200
G4 P5
G1 X-8.500 Y6.200
G4 P5
G1 X-8.500 Y-6.200
G4 P5
G1 X-13.200 Y-6.200
G1 X-13.200 Y0.000
G1 X-13.600 Y0.000
G4 P5
G1 X-13.600 Y6.600
G4 P5
G1 X-8.100 Y6.600
G4 P5
G1 X-8.100 Y-6.600
G4 P5
G1 X-13.600 Y-6.600
G1 X-13.600 Y0.000
G1 X-14.000 Y0.000
G4 P5
G1 X-14.000 Y7.000
G4 P5
G1 X-7.700 Y7.000
G4 P5
G1 X-7.700 Y-7.000
G4 P5
G1 X-14.000 Y-7.000
G1 X-14.000 Y0.000
G1 X-14.400 Y0.000
G4 P5
G1 X-14.400 Y7.400
G4 P5
G1 X-7.300 Y7.400
G4 P5
G1 X-7.300 Y-7.400
G4 P5
G1 X-14.400 Y-7.400
G1 X-14.400 Y0.000
G1 X-14.800 Y0.000
G4 P5
G1 X-14.800 Y7.800
G4 P5
G1 X-6.900 Y7.800
G4 P5
G1 X-6.900 Y-7.800
G4 P5
G1 X-14.800 Y-7.800
G1 X-14.800 Y0.000
G1 X-15.200 Y0.000
G4 P5
G1 X-15.200 Y8.200
G4 P5
G1 X-6.500 Y8.200
G4 P5
G1 X-6.500 Y-8.200
G4 P5
G1 X-15.200 Y-8.200
G1 X-15.200 Y0.000
G1 X-15.600 Y0.000
G4 P5
G1 X-15.600 Y8.600
G4 P5
G1 X-6.100 Y8.600
G4 P5
G1 X-6.100 Y-8.600
G4 P5
G1 X-15.600 Y-8.600
G1 X-15.600 Y0.000
G1 X-16.000 Y0.000
G4 P5
G1 X-16.000 Y9.000
G4 P5
G1 X-5.700 Y9.000
G4 P5
G1 X-5.700 Y-9.000
G4 P5
G1 X-16.000 Y-9.000
G1 X-16.000 Y0.000
G1 X-16.400 Y0.000
G4 P5
G1 X-16.400 Y9.400
G4 P5
G1 X-5.300 Y9.400
G4 P5
G1 X-5.300 Y-9.400
G4 P5
G1 X-16.400 Y-9.400
G1 X-16.400 Y0.000
G1 X-16.800 Y0.000
G4 P5
G1 X-16.800 Y9.800
G4 P5
G1 X-4.900 Y9.800
G4 P5
G1 X-4.900 Y-9.800
G4 P5
G1 X-16.800 Y-9.800
G1 X-16.800 Y0.000 Z0.700
M9
G1 Z10.000
G1 X-3.700 Y0.000
G1 Z0.300
M7
G4 P150
G1 X-3.500 Y0.000 Z0.300
G1 X-3.500 Y-9.800
G4 P5
G1 X3.500 Y-9.800
G4 P5
G1 X3.500 Y9.800
G4 P5
G1 X-3.500 Y9.800
G4 P5
G1 X-3.500 Y0.000
G1 X-3.100 Y0.000
G1 X-3.100 Y-9.400
G4 P5
G1 X3.100 Y-9.400
G4 P5
G1 X3.100 Y9.400
G4 P5
G1 X-3.100 Y9.400
G4 P5
G1 X-3.100 Y0.000
G1 X-2.700 Y0.000
G1 X-2.700 Y-9.000
G4 P5
G1 X2.700 Y-9.000
G4 P5
G1 X2.700 Y9.000
G4 P5
G1 X-2.700 Y9.000
G4 P5
G1 X-2.700 Y0.000
G1 X-2.300 Y0.000
G1 X-2.300 Y-8.600
G4 P5
G1 X2.300 Y-8.600
G4 P5
G1 X2.300 Y8.600
G4 P5
G1 X-2.300 Y8.600
G4 P5
G1 X-2.300 Y0.000
G1 X-1.900 Y0.000
G1 X-1.900 Y-8.200
G4 P5
G1 X1.900 Y-8.200
G4 P5
G1 X1.900 Y8.200
G4 P5
G1 X-1.900 Y8.200
G4 P5
G1 X-1.900 Y0.000
G1 X-1.500 Y0.000
G1 X-1.500 Y-7.800
G4 P5
G1 X1.500 Y-7.800
G4 P5
G1 X1.500 Y7.800
G4 P5
G1 X-1.500 Y7.800
G4 P5
G1 X-1.500 Y0.000
G1 X-1.100 Y0.000
G1 X-1.100 Y-7.400
G4 P5
G1 X1.100 Y-7.400
G4 P5
G1 X1.100 Y7.400
G4 P5
G1 X-1.100 Y7.400
G4 P5
G1 X-1.100 Y0.000
G1 X-0.700 Y0.000
G1 X-0.700 Y-7.000
G4 P5
G1 X0.700 Y-7.000
G4 P5
G1 X0.700 Y7.000
G4 P5
G1 X-0.700 Y7.000
G4 P5
G1 X-0.700 Y0.000
G1 X-0.300 Y0.000
G1 X-0.300 Y-6.600
G4 P5
G1 X0.300 Y-6.600
G4 P5
G1 X0.300 Y6.600
G4 P5
G1 X-0.300 Y6.600
G4 P5
G1 X-0.300 Y0.000
G1 X0.100 Y0.000
G1 X0.100 Y0.000 Z0.700
G1 X0.100 Y0.000
G1 X-0.300 Y0.000
G4 P5
G1 X-0.300 Y6.600
G4 P5
G1 X0.300 Y6.600
G4 P5
G1 X0.300 Y-6.600
G4 P5
G1 X-0.300 Y-6.600
G1 X-0.300 Y0.000
G1 X-0.700 Y0.000
G4 P5
G1 X-0.700 Y7.000
G4 P5
G1 X0.700 Y7.000
G4 P5
G1 X0.700 Y-7.000
G4 P5
G1 X-0.700 Y-7.000
G1 X-0.700 Y0.000
G1 X-1.100 Y0.000
G4 P5
G1 X-1.100 Y7.400
G4 P5
G1 X1.100 Y7.400
G4 P5
G1 X1.100 Y-7.400
G4 P5
G1 X-1.100 Y-7.400
G1 X-1.100 Y0.000
G1 X-1.500 Y0.000
G4 P5
G1 X-1.500 Y7.800
G4 P5
G1 X1.500 Y7.800
G4 P5
G1 X1.500 Y-7.800
G4 P5
G1 X-1.500 Y-7.800
G1 X-1.500 Y0.000
G1 X-1.900 Y0.000
G4 P5
G1 X-1.900 Y8.200
G4 P5
G1 X1.900 Y8.200
G4 P5
G1 X1.900 Y-8.200
G4 P5
G1 X-1.900 Y-8.200
G1 X-1.900 Y0.000
G1 X-2.300 Y0.000
G4 P5
G1 X-2.300 Y8.600
G4 P5
G1 X2.300 Y8.600
G4 P5
G1 X2.300 Y-8.600
G4 P5
G1 X-2.300 Y-8.600
G1 X-2.300 Y0.000
G1 X-2.700 Y0.000
G4 P5
G1 X-2.700 Y9.000
G4 P5
G1 X2.700 Y9.000
G4 P5
G1 X2.700 Y-9.000
G4 P5
G1 X-2.700 Y-9.000
G1 X-2.700 Y0.000
G1 X-3.100 Y0.000
G4 P5
G1 X-3.100 Y9.400
G4 P5
G1 X3.100 Y9.400
G4 P5
G1 X3.100 Y-9.400
G4 P5
G1 X-3.100 Y-9.400
G1 X-3.100 Y0.000
G1 X-3.500 Y0.000
G4 P5
G1 X-3.500 Y9.800
G4 P5
G1 X3.500 Y9.800
G4 P5
G1 X3.500 Y-9.800
G4 P5
G1 X-3.500 Y-9.800
G1 X-3.500 Y0.000 Z0.700
M9
G1 Z10.000
G1 X17.000 Y0.000
G1 Z0.300
M7
G4 P150
G1 X16.800 Y0.000 Z0.300
G1 X16.800 Y9.800
G4 P5
G1 X4.900 Y9.800
G4 P5
G1 X4.900 Y-9.800
G4 P5
G1 X16.800 Y-9.800
G4 P5
G1 X16.800 Y0.000
G1 X16.400 Y0.000
G1 X16.400 Y9.400
G4 P5
G1 X5.300 Y9.400
G4 P5
G1 X5.300 Y-9.400
G4 P5
G1 X16.400 Y-9.400
G4 P5
G1 X16.400 Y0.000
G1 X16.000 Y0.000
G1 X16.000 Y9.000
G4 P5
G1 X5.700 Y9.000
G4 P5
G1 X5.700 Y-9.000
G4 P5
G1 X16.000 Y-9.000
G4 P5
G1 X16.000 Y0.000
G1 X15.600 Y0.000
G1 X15.600 Y8.600
G4 P5
G1 X6.100 Y8.600
G4 P5
G1 X6.100 Y-8.600
G4 P5
G1 X15.600 Y-8.600
G4 P5
G1 X15.600 Y0.000
G1 X15.200 Y0.000
G1 X15.200 Y8.200
G4 P5
G1 X6.500 Y8.200
G4 P5
G1 X6.500 Y-8.200
G4 P5
G1 X15.200 Y-8.200
G4 P5
G1 X15.200 Y0.000
G1 X14.800 Y0.000
G1 X14.800 Y7.800
G4 P5
G1 X6.900 Y7.800
G4 P5
G1 X6.900 Y-7.800
G4 P5
G1 X14.800 Y-7.800
G4 P5
G1 X14.800 Y0.000
G1 X14.400 Y0.000
G1 X14.400 Y7.400
G4 P5
G1 X7.300 Y7.400
G4 P5
G1 X7.300 Y-7.400
G4 P5
G1 X14.400 Y-7.400
G4 P5
G1 X14.400 Y0.000
G1 X14.000 Y0.000
G1 X14.000 Y7.000
G4 P5
G1 X7.700 Y7.000
G4 P5
G1 X7.700 Y-7.000
G4 P5
G1 X14.000 Y-7.000
G4 P5
G1 X14.000 Y0.000
G1 X13.600 Y0.000
G1 X13.600 Y6.600
G4 P5
G1 X8.100 Y6.600
G4 P5
G1 X8.100 Y-6.600
G4 P5
G1 X13.600 Y-6.600
G4 P5
G1 X13.600 Y0.000
G1 X13.200 Y0.000
G1 X13.200 Y6.200
G4 P5
G1 X8.500 Y6.200
G4 P5
G1 X8.500 Y-6.200
G4 P5
G1 X13.200 Y-6.200
G4 P5
G1 X13.200 Y0.000
G1 X12.800 Y0.000
G1 X12.800 Y5.800
G4 P5
G1 X8.900 Y5.800
G4 P5
G1 X8.900 Y-5.800
G4 P5
G1 X12.800 Y-5.800
G4 P5
G1 X12.800 Y0.000
G1 X12.400 Y0.000
G1 X12.400 Y5.400
G4 P5
G1 X9.300 Y5.400
G4 P5
G1 X9.300 Y-5.400
G4 P5
G1 X12.400 Y-5.400
G4 P5
G1 X12.400 Y0.000
G1 X12.000 Y0.000
G1 X12.000 Y5.000
G4 P5
G1 X9.700 Y5.000
G4 P5
G1 X9.700 Y-5.000
G4 P5
G1 X12.000 Y-5.000
G4 P5
G1 X12.000 Y0.000
G1 X11.600 Y0.000
G1 X11.600 Y4.600
G4 P5
G1 X10.100 Y4.600
G4 P5
G1 X10.100 Y-4.600
G4 P5
G1 X11.600 Y-4.600
G4 P5
G1 X11.600 Y0.000
G1 X11.200 Y0.000
G1 X11.200 Y4.200
G4 P5
G1 X10.500 Y4.200
G4 P5
G1 X10.500 Y-4.200
G4 P5
G1 X11.200 Y-4.200
G4 P5
G1 X11.200 Y0.000
G1 X10.800 Y0.000
G1 X10.800 Y0.000 Z0.700
G1 X10.800 Y0.000
G1 X11.200 Y0.000
G4 P5
G1 X11.200 Y-4.200
G4 P5
G1 X10.500 Y-4.200
G4 P5
G1 X10.500 Y4.200
G4 P5
G1 X11.200 Y4.200
G1 X11.200 Y0.000
G1 X11.600 Y0.000
G4 P5
G1 X11.600 Y-4.600
G4 P5
G1 X10.100 Y-4.600
G4 P5
G1 X10.100 Y4.600
G4 P5
G1 X11.600 Y4.600
G1 X11.600 Y0.000
G1 X12.000 Y0.000
G4 P5
G1 X12.000 Y-5.000
G4 P5
G1 X9.700 Y-5.000
G4 P5
G1 X9.700 Y5.000
G4 P5
G1 X12.000 Y5.000
G1 X12.000 Y0.000
G1 X12.400 Y0.000
G4 P5
G1 X12.400 Y-5.400
G4 P5
G1 X9.300 Y-5.400
G4 P5
G1 X9.300 Y5.400
G4 P5
G1 X12.400 Y5.400
G1 X12.400 Y0.000
G1 X12.800 Y0.000
G4 P5
G1 X12.800 Y-5.800
G4 P5
G1 X8.900 Y-5.800
G4 P5
G1 X8.900 Y5.800
G4 P5
G1 X12.800 Y5.800
G1 X12.800 Y0.000
G1 X13.200 Y0.000
G4 P5
G1 X13.200 Y-6.200
G4 P5
G1 X8.500 Y-6.200
G4 P5
G1 X8.500 Y6.200
G4 P5
G1 X13.200 Y6.200
G1 X13.200 Y0.000
G1 X13.600 Y0.000
G4 P5
G1 X13.600 Y-6.600
G4 P5
G1 X8.100 Y-6.600
G4 P5
G1 X8.100 Y6.600
G4 P5
G1 X13.600 Y6.600
G1 X13.600 Y0.000
G1 X14.000 Y0.000
G4 P5
G1 X14.000 Y-7.000
G4 P5
G1 X7.700 Y-7.000
G4 P5
G1 X7.700 Y7.000
G4 P5
G1 X14.000 Y7.000
G1 X14.000 Y0.000
G1 X14.400 Y0.000
G4 P5
G1 X14.400 Y-7.400
G4 P5
G1 X7.300 Y-7.400
G4 P5
G1 X7.300 Y7.400
G4 P5
G1 X14.400 Y7.400
G1 X14.400 Y0.000
G1 X14.800 Y0.000
G4 P5
G1 X14.800 Y-7.800
G4 P5
G1 X6.900 Y-7.800
G4 P5
G1 X6.900 Y7.800
G4 P5
G1 X14.800 Y7.800
G1 X14.800 Y0.000
G1 X15.200 Y0.000
G4 P5
G1 X15.200 Y-8.200
G4 P5
G1 X6.500 Y-8.200
G4 P5
G1 X6.500 Y8.200
G4 P5
G1 X15.200 Y8.200
G1 X15.200 Y0.000
G1 X15.600 Y0.000
G4 P5
G1 X15.600 Y-8.600
G4 P5
G1 X6.100 Y-8.600
G4 P5
G1 X6.100 Y8.600
G4 P5
G1 X15.600 Y8.600
G1 X15.600 Y0.000
G1 X16.000 Y0.000
G4 P5
G1 X16.000 Y-9.000
G4 P5
G1 X5.700 Y-9.000
G4 P5
G1 X5.700 Y9.000
G4 P5
G1 X16.000 Y9.000
G1 X16.000 Y0.000
G1 X16.400 Y0.000
G4 P5
G1 X16.400 Y-9.400
G4 P5
G1 X5.300 Y-9.400
G4 P5
G1 X5.300 Y9.400
G4 P5
G1 X16.400 Y9.400
G1 X16.400 Y0.000
G1 X16.800 Y0.000
G4 P5
G1 X16.800 Y-9.800
G4 P5
G1 X4.900 Y-9.800
G4 P5
G1 X4.900 Y9.800
G4 P5
G1 X16.800 Y9.800
G1 X16.800 Y0.000 Z0.700
M9
G1 Z10.000
G1 X-17.000 Y-10.000
G1 Z1.100
M7
G4 P150
G1 X16.800 Y-9.800
G4 P5
G1 X16.800 Y-9.400
G4 P5
G1 X-16.800 Y-9.400
G4 P5
G1 X-16.800 Y-9.000
G4 P5
G1 X16.800 Y-9.000
G4 P5
G1 X16.800 Y-8.600
G4 P5
G1 X-16.800 Y-8.600
G4 P5
G1 X-16.800 Y-8.200
G4 P5
G1 X16.800 Y-8.200
G4 P5
G1 X16.800 Y-7.800
G4 P5
G1 X-16.800 Y-7.800
G4 P5
G1 X-16.800 Y-7.400
G4 P5
G1 X16.800 Y-7.400
G4 P5
G1 X16.800 Y-7.000
G4 P5
G1 X-16.800 Y-7.000
G4 P5
G1 X-16.800 Y-6.600
G4 P5
G1 X16.800 Y-6.600
G4 P5
G1 X16.800 Y-6.200
G4 P5
G1 X-16.800 Y-6.200
G4 P5
G1 X-16.800 Y-5.800
G4 P5
G1 X16.800 Y-5.800
G4 P5
G1 X16.800 Y-5.400
G4 P5
G1 X-16.800 Y-5.400
G4 P5
G1 X-16.800 Y-5.000
G4 P5
G1 X16.800 Y-5.000
G4 P5
G1 X16.800 Y-4.600
G4 P5
G1 X-16.800 Y-4.600
G4 P5
G1 X-16.800 Y-4.200
G4 P5
G1 X16.800 Y-4.200
G4 P5
G1 X16.800 Y-3.800
G4 P5
G1 X-16.800 Y-3.800
G4 P5
G1 X-16.800 Y-3.400
G4 P5
G1 X16.800 Y-3.400
G4 P5
G1 X16.800 Y-3.000
G4 P5
G1 X-16.800 Y-3.000
G4 P5
G1 X-16.800 Y-2.600
G4 P5
G1 X16.800 Y-2.600
G4 P5
G1 X16.800 Y-2.200
G4 P5
G1 X-16.800 Y-2.200
G4 P5
G1 X-16.800 Y-1.800
G4 P5
G1 X16.800 Y-1.800
G4 P5
G1 X16.800 Y-1.400
G4 P5
G1 X-16.800 Y-1.400
G4 P5
G1 X-16.800 Y-1.000
G4 P5
G1 X16.800 Y-1.000
G4 P5
G1 X16.800 Y-0.600
G4 P5
G1 X-16.800 Y-0.600
G4 P5
G1 X-16.800 Y-0.200
G4 P5
G1 X16.800 Y-0.200
G4 P5
G1 X16.800 Y0.200
G4 P5
G1 X-16.800 Y0.200
G4 P5
G1 X-16.800 Y0.600
G4 P5
G1 X16.800 Y0.600
G4 P5
G1 X16.800 Y1.000
G4 P5
G1 X-16.800 Y1.000
G4 P5
G1 X-16.800 Y1.400
G4 P5
G1 X16.800 Y1.400
G4 P5
G1 X16.800 Y1.800
G4 P5
G1 X-16.800 Y1.800
G4 P5
G1 X-16.800 Y2.200
G4 P5
G1 X16.800 Y2.200
G4 P5
G1 X16.800 Y2.600
G4 P5
G1 X-16.800 Y2.600
G4 P5
G1 X-16.800 Y3.000
G4 P5
G1 X16.800 Y3.000
G4 P5
G1 X16.800 Y3.400
G4 P5
G1 X-16.800 Y3.400
G4 P5
G1 X-16.800 Y3.800
G4 P5
G1 X16.800 Y3.800
G4 P5
G1 X16.800 Y4.200
G4 P5
G1 X-16.800 Y4.200
G4 P5
G1 X-16.800 Y4.600
G4 P5
G1 X16.800 Y4.600
G4 P5
G1 X16.800 Y5.000
G4 P5
G1 X-16.800 Y5.000
G4 P5
G1 X-16.800 Y5.400
G4 P5
G1 X16.800 Y5.400
G4 P5
G1 X16.800 Y5.800
G4 P5
G1 X-16.800 Y5.800
G4 P5
G1 X-16.800 Y6.200
G4 P5
G1 X16.800 Y6.200
G4 P5
G1 X16.800 Y6.600
G4 P5
G1 X-16.800 Y6.600
G4 P5
G1 X-16.800 Y7.000
G4 P5
G1 X16.800 Y7.000
G4 P5
G1 X16.800 Y7.400
G4 P5
G1 X-16.800 Y7.400
G4 P5
G1 X-16.800 Y7.800
G4 P5
G1 X16.800 Y7.800
G4 P5
G1 X16.800 Y8.200
G4 P5
G1 X-16.800 Y8.200
G4 P5
G1 X-16.800 Y8.600
G4 P5
G1 X16.800 Y8.600
G4 P5
G1 X16.800 Y9.000
G4 P5
G1 X-16.800 Y9.000
G4 P5
G1 X-16.800 Y9.400
G4 P5
G1 X16.800 Y9.400
G4 P5
G1 X16.800 Y9.800
G4 P5
G1 X-16.800 Y9.800
G4 P5
M9
G1 Z10.000
G1 X3.700 Y-0.250
M0
G1 Z1.500
M7
G4 P150
G1 X2.386 Y-0.450 Z1.500 F600
G1 X-2.386 Y-0.450
G4 P5
G1 X-2.386 Y-9.800
G4 P5
G1 X2.386 Y-9.800
G4 P5
G1 X2.386 Y-0.450
G1 X1.986 Y-0.850
G1 X-1.986 Y-0.850
G4 P5
G1 X-1.986 Y-9.400
G4 P5
G1 X1.986 Y-9.400
G4 P5
G1 X1.986 Y-0.850
G1 X1.586 Y-1.250
G1 X-1.586 Y-1.250
G4 P5
G1 X-1.586 Y-9.000
G4 P5
G1 X1.586 Y-9.000
G4 P5
G1 X1.586 Y-1.250
G1 X1.186 Y-1.650
G1 X-1.186 Y-1.650
G4 P5
G1 X-1.186 Y-8.600
G4 P5
G1 X1.186 Y-8.600
G4 P5
G1 X1.186 Y-1.650
G1 X0.786 Y-2.050
G1 X-0.786 Y-2.050
G4 P5
G1 X-0.786 Y-8.200
G4 P5
G1 X0.786 Y-8.200
G4 P5
G1 X0.786 Y-2.050
G1 X0.386 Y-2.450
G1 X-0.386 Y-2.450
G4 P5
G1 X-0.386 Y-7.800
G4 P5
G1 X0.386 Y-7.800
G4 P5
G1 X0.386 Y-2.450
G1 X-0.014 Y-2.850
G1 X-0.035 Y-8.200 Z1.900
G4 P5
G1 X-0.035 Y-8.200
G4 P5
G1 X-0.035 Y-2.050
G1 X0.035 Y-2.050
G1 X0.435 Y-1.650
G4 P5
G1 X0.435 Y-8.600
G4 P5
G1 X-0.435 Y-8.600
G4 P5
G1 X-0.435 Y-1.650
G1 X0.435 Y-1.650
G1 X0.835 Y-1.250
G4 P5
G1 X0.835 Y-9.000
G4 P5
G1 X-0.835 Y-9.000
G4 P5
G1 X-0.835 Y-1.250
G1 X0.835 Y-1.250
G1 X1.235 Y-0.850
G4 P5
G1 X1.235 Y-9.400
G4 P5
G1 X-1.235 Y-9.400
G4 P5
G1 X-1.235 Y-0.850
G1 X1.235 Y-0.850
G1 X1.635 Y-0.450
G4 P5
G1 X1.635 Y-9.800
G4 P5
G1 X-1.635 Y-9.800
G4 P5
G1 X-1.635 Y-0.450
G1 X1.635 Y-0.450 Z1.900
G1 X1.176 Y-0.450 Z2.300
G1 X-1.176 Y-0.450
G4 P5
G1 X-1.176 Y-9.800
G4 P5
G1 X1.176 Y-9.800
G4 P5
G1 X1.176 Y-0.450
G1 X0.776 Y-0.850
G1 X-0.776 Y-0.850
G4 P5
G1 X-0.776 Y-9.400
G4 P5
G1 X0.776 Y-9.400
G4 P5
G1 X0.776 Y-0.850
G1 X0.376 Y-1.250
G1 X-0.376 Y-1.250
G4 P5
G1 X-0.376 Y-9.000
G4 P5
G1 X0.376 Y-9.000
G4 P5
G1 X0.376 Y-1.250
G1 X-0.024 Y-1.650
G1 X-0.054 Y-9.000 Z2.700
G4 P5
G1 X-0.054 Y-9.000
G4 P5
G1 X-0.054 Y-1.250
G1 X0.054 Y-1.250
G1 X0.454 Y-0.850
G4 P5
G1 X0.454 Y-9.400
G4 P5
G1 X-0.454 Y-9.400
G4 P5
G1 X-0.454 Y-0.850
G1 X0.454 Y-0.850
G1 X0.854 Y-0.450
G4 P5
G1 X0.854 Y-9.800
G4 P5
G1 X-0.854 Y-9.800
G4 P5
G1 X-0.854 Y-0.450
G1 X0.854 Y-0.450 Z2.700
G1 X0.623 Y-0.450 Z3.100
G1 X-0.623 Y-0.450
G4 P5
G1 X-0.623 Y-9.800
G4 P5
G1 X0.623 Y-9.800
G4 P5
G1 X0.623 Y-0.450
G1 X0.223 Y-0.850
G1 X-0.223 Y-0.850
G4 P5
G1 X-0.223 Y-9.400
G4 P5
G1 X0.223 Y-9.400
G4 P5
G1 X0.223 Y-0.850
G1 X-0.177 Y-1.250
G1 X-0.060 Y-9.400 Z3.500
G4 P5
G1 X-0.060 Y-9.400
G4 P5
G1 X-0.060 Y-0.850
G1 X0.060 Y-0.850
G1 X0.460 Y-0.450
G4 P5
G1 X0.460 Y-9.800
G4 P5
G1 X-0.460 Y-9.800
G4 P5
G1 X-0.460 Y-0.450
G1 X0.460 Y-0.450 Z3.500
G1 X0.357 Y-0.450 Z3.900
G1 X-0.357 Y-0.450
G4 P5
G1 X-0.357 Y-9.800
G4 P5
G1 X0.357 Y-9.800
G4 P5
G1 X0.357 Y-0.450
G1 X-0.043 Y-0.850
G1 X-0.094 Y-0.850 Z4.300
G1 X-0.094 Y-0.850
G1 X0.306 Y-0.450
G4 P5
G1 X0.306 Y-9.800
G4 P5
G1 X-0.306 Y-9.800
G4 P5
G1 X-0.306 Y-0.450
G1 X0.306 Y-0.450 Z4.300
M9
G1 Z10.000
G1 X-3.700 Y0.250
G1 Z1.500
M7
G4 P150
G1 X-2.386 Y0.450 Z1.500
G1 X2.386 Y0.450
G4 P5
G1 X2.386 Y9.800
G4 P5
G1 X-2.386 Y9.800
G4 P5
G1 X-2.386 Y0.450
G1 X-1.986 Y0.850
G1 X1.986 Y0.850
G4 P5
G1 X1.986 Y9.400
G4 P5
G1 X-1.986 Y9.400
G4 P5
G1 X-1.986 Y0.850
G1 X-1.586 Y1.250
G1 X1.586 Y1.250
G4 P5
G1 X1.586 Y9.000
G4 P5
G1 X-1.586 Y9.000
G4 P5
G1 X-1.586 Y1.250
G1 X-1.186 Y1.650
G1 X1.186 Y1.650
G4 P5
G1 X1.186 Y8.600
G4 P5
G1 X-1.186 Y8.600
G4 P5
G1 X-1.186 Y1.650
G1 X-0.786 Y2.050
G1 X0.786 Y2.050
G4 P5
G1 X0.786 Y8.200
G4 P5
G1 X-0.786 Y8.200
G4 P5
G1 X-0.786 Y2.050
G1 X-0.386 Y2.450
G1 X0.386 Y2.450
G4 P5
G1 X0.386 Y7.800
G4 P5
G1 X-0.386 Y7.800
G4 P5
G1 X-0.386 Y2.450
G1 X0.014 Y2.850
G1 X0.035 Y8.200 Z1.900
G4 P5
G1 X0.035 Y8.200
G4 P5
G1 X0.035 Y2.050
G1 X-0.035 Y2.050
G1 X-0.435 Y1.650
G4 P5
G1 X-0.435 Y8.600
G4 P5
G1 X0.435 Y8.600
G4 P5
G1 X0.435 Y1.650
G1 X-0.435 Y1.650
G1 X-0.835 Y1.250
G4 P5
G1 X-0.835 Y9.000
G4 P5
G1 X0.835 Y9.000
G4 P5
G1 X0.835 Y1.250
G1 X-0.835 Y1.250
G1 X-1.235 Y0.850
G4 P5
G1 X-1.235 Y9.400
G4 P5
G1 X1.235 Y9.400
G4 P5
G1 X1.235 Y0.850
G1 X-1.235 Y0.850
G1 X-1.635 Y0.450
G4 P5
G1 X-1.635 Y9.800
G4 P5
G1 X1.635 Y9.800
G4 P5
G1 X1.635 Y0.450
G1 X-1.635 Y0.450 Z1.900
G1 X-1.176 Y0.450 Z2.300
G1 X1.176 Y0.450
G4 P5
G1 X1.176 Y9.800
G4 P5
G1 X-1.176 Y9.800
G4 P5
G1 X-1.176 Y0.450
G1 X-0.776 Y0.850
G1 X0.776 Y0.850
G4 P5
G1 X0.776 Y9.400
G4 P5
G1 X-0.776 Y9.400
G4 P5
G1 X-0.776 Y0.850
G1 X-0.376 Y1.250
G1 X0.376 Y1.250
G4 P5
G1 X0.376 Y9.000
G4 P5
G1 X-0.376 Y9.000
G4 P5
G1 X-0.376 Y1.250
G1 X0.024 Y1.650
G1 X0.054 Y9.000 Z2.700
G4 P5
G1 X0.054 Y9.000
G4 P5
G1 X0.054 Y1.250
G1 X-0.054 Y1.250
G1 X-0.454 Y0.850
G4 P5
G1 X-0.454 Y9.400
G4 P5
G1 X0.454 Y9.400
G4 P5
G1 X0.454 Y0.850
G1 X-0.454 Y0.850
G1 X-0.854 Y0.450
G4 P5
G1 X-0.854 Y9.800
G4 P5
G1 X0.854 Y9.800
G4 P5
G1 X0.854 Y0.450
G1 X-0.854 Y0.450 Z2.700
G1 X-0.623 Y0.450 Z3.100
G1 X0.623 Y0.450
G4 P5
G1 X0.623 Y9.800
G4 P5
G1 X-0.623 Y9.800
G4 P5
G1 X-0.623 Y0.450
G1 X-0.223 Y0.850
G1 X0.223 Y0.850
G4 P5
G1 X0.223 Y9.400
G4 P5
G1 X-0.223 Y9.400
G4 P5
G1 X-0.223 Y0.850
G1 X0.177 Y1.250
G1 X0.060 Y9.400 Z3.500
G4 P5
G1 X0.060 Y9.400
G4 P5
G1 X0.060 Y0.850
G1 X-0.060 Y0.850
G1 X-0.460 Y0.450
G4 P5
G1 X-0.460 Y9.800
G4 P5
G1 X0.460 Y9.800
G4 P5
G1 X0.460 Y0.450
G1 X-0.460 Y0.450 Z3.500
G1 X-0.357 Y0.450 Z3.900
G1 X0.357 Y0.450
G4 P5
G1 X0.357 Y9.800
G4 P5
G1 X-0.357 Y9.800
G4 P5
G1 X-0.357 Y0.450
G1 X0.043 Y0.850
G1 X0.094 Y0.850 Z4.300
G1 X0.094 Y0.850
G1 X-0.306 Y0.450
G4 P5
G1 X-0.306 Y9.800
G4 P5
G1 X0.306 Y9.800
G4 P5
G1 X0.306 Y0.450
G1 X-0.306 Y0.450 Z4.300
M9
G1 Z10.000
G1 X-17.000 Y0.000
M0
G1 Z1.500
M7
G4 P150
G1 X-16.800 Y0.000 Z1.500 F1800
G1 X-16.800 Y-9.800
G4 P5
G1 X-6.014 Y-9.800
G4 P5
G1 X-6.014 Y9.800
G4 P5
G1 X-16.800 Y9.800
G4 P5
G1 X-16.800 Y0.000
G1 X-16.400 Y0.000
G1 X-16.400 Y-9.400
G4 P5
G1 X-6.414 Y-9.400
G4 P5
G1 X-6.414 Y9.400
G4 P5
G1 X-16.400 Y9.400
G4 P5
G1 X-16.400 Y0.000
G1 X-16.000 Y0.000
G1 X-16.000 Y-9.000
G4 P5
G1 X-6.814 Y-9.000
G4 P5
G1 X-6.814 Y9.000
G4 P5
G1 X-16.000 Y9.000
G4 P5
G1 X-16.000 Y0.000
G1 X-15.600 Y0.000
G1 X-15.600 Y-8.600
G4 P5
G1 X-7.214 Y-8.600
G4 P5
G1 X-7.214 Y8.600
G4 P5
G1 X-15.600 Y8.600
G4 P5
G1 X-15.600 Y0.000
G1 X-15.200 Y0.000
G1 X-15.200 Y-8.200
G4 P5
G1 X-7.614 Y-8.200
G4 P5
G1 X-7.614 Y8.200
G4 P5
G1 X-15.200 Y8.200
G4 P5
G1 X-15.200 Y0.000
G1 X-14.800 Y0.000
G1 X-14.800 Y-7.800
G4 P5
G1 X-8.014 Y-7.800
G4 P5
G1 X-8.014 Y7.800
G4 P5
G1 X-14.800 Y7.800
G4 P5
G1 X-14.800 Y0.000
G1 X-14.400 Y0.000
G1 X-14.400 Y-7.400
G4 P5
G1 X-8.414 Y-7.400
G4 P5
G1 X-8.414 Y7.400
G4 P5
G1 X-14.400 Y7.400
G4 P5
G1 X-14.400 Y0.000
G1 X-14.000 Y0.000
G1 X-14.000 Y-7.000
G4 P5
G1 X-8.814 Y-7.000
G4 P5
G1 X-8.814 Y7.000
G4 P5
G1 X-14.000 Y7.000
G4 P5
G1 X-14.000 Y0.000
G1 X-13.600 Y0.000
G1 X-13.600 Y-6.600
G4 P5
G1 X-9.214 Y-6.600
G4 P5
G1 X-9.214 Y6.600
G4 P5
G1 X-13.600 Y6.600
G4 P5
G1 X-13.600 Y0.000
G1 X-13.200 Y0.000
G1 X-13.200 Y-6.200
G4 P5
G1 X-9.614 Y-6.200
G4 P5
G1 X-9.614 Y6.200
G4 P5
G1 X-13.200 Y6.200
G4 P5
G1 X-13.200 Y0.000
G1 X-12.800 Y0.000
G1 X-12.800 Y-5.800
G4 P5
G1 X-10.014 Y-5.800
G4 P5
G1 X-10.014 Y5.800
G4 P5
G1 X-12.800 Y5.800
G4 P5
G1 X-12.800 Y0.000
G1 X-12.400 Y0.000
G1 X-12.400 Y-5.400
G4 P5
G1 X-10.414 Y-5.400
G4 P5
G1 X-10.414 Y5.400
G4 P5
G1 X-12.400 Y5.400
G4 P5
G1 X-12.400 Y0.000
G1 X-12.000 Y0.000
G1 X-12.000 Y-5.000
G4 P5
G1 X-10.814 Y-5.000
G4 P5
G1 X-10.814 Y5.000
G4 P5
G1 X-12.000 Y5.000
G4 P5
G1 X-12.000 Y0.000
G1 X-11.600 Y0.000
G1 X-11.600 Y-4.600
G4 P5
G1 X-11.214 Y-4.600
G4 P5
G1 X-11.214 Y4.600
G4 P5
G1 X-11.600 Y4.600
G4 P5
G1 X-11.600 Y0.000
G1 X-11.200 Y0.000
G1 X-11.600 Y0.000 Z1.900
G1 X-11.600 Y0.000
G1 X-12.000 Y0.000
G4 P5
G1 X-12.000 Y5.000
G4 P5
G1 X-11.565 Y5.000
G4 P5
G1 X-11.565 Y-5.000
G4 P5
G1 X-12.000 Y-5.000
G1 X-12.000 Y0.000
G1 X-12.400 Y0.000
G4 P5
G1 X-12.400 Y5.400
G4 P5
G1 X-11.165 Y5.400
G4 P5
G1 X-11.165 Y-5.400
G4 P5
G1 X-12.400 Y-5.400
G1 X-12.400 Y0.000
G1 X-12.800 Y0.000
G4 P5
G1 X-12.800 Y5.800
G4 P5
G1 X-10.765 Y5.800
G4 P5
G1 X-10.765 Y-5.800
G4 P5
G1 X-12.800 Y-5.800
G1 X-12.800 Y0.000
G1 X-13.200 Y0.000
G4 P5
G1 X-13.200 Y6.200
G4 P5
G1 X-10.365 Y6.200
G4 P5
G1 X-10.365 Y-6.200
G4 P5
G1 X-13.200 Y-6.200
G1 X-13.200 Y0.000
G1 X-13.600 Y0.000
G4 P5
G1 X-13.600 Y6.600
G4 P5
G1 X-9.965 Y6.600
G4 P5
G1 X-9.965 Y-6.600
G4 P5
G1 X-13.600 Y-6.600
G1 X-13.600 Y0.000
G1 X-14.000 Y0.000
G4 P5
G1 X-14.000 Y7.000
G4 P5
G1 X-9.565 Y7.000
G4 P5
G1 X-9.565 Y-7.000
G4 P5
G1 X-14.000 Y-7.000
G1 X-14.000 Y0.000
G1 X-14.400 Y0.000
G4 P5
G1 X-14.400 Y7.400
G4 P5
G1 X-9.165 Y7.400
G4 P5
G1 X-9.165 Y-7.400
G4 P5
G1 X-14.400 Y-7.400
G1 X-14.400 Y0.000
G1 X-14.800 Y0.000
G4 P5
G1 X-14.800 Y7.800
G4 P5
G1 X-8.765 Y7.800
G4 P5
G1 X-8.765 Y-7.800
G4 P5
G1 X-14.800 Y-7.800
G1 X-14.800 Y0.000
G1 X-15.200 Y0.000
G4 P5
G1 X-15.200 Y8.200
G4 P5
G1 X-8.365 Y8.200
G4 P5
G1 X-8.365 Y-8.200
G4 P5
G1 X-15.200 Y-8.200
G1 X-15.200 Y0.000
G1 X-15.600 Y0.000
G4 P5
G1 X-15.600 Y8.600
G4 P5
G1 X-7.965 Y8.600
G4 P5
G1 X-7.965 Y-8.600
G4 P5
G1 X-15.600 Y-8.600
G1 X-15.600 Y0.000
G1 X-16.000 Y0.000
G4 P5
G1 X-16.000 Y9.000
G4 P5
G1 X-7.565 Y9.000
G4 P5
G1 X-7.565 Y-9.000
G4 P5
G1 X-16.000 Y-9.000
G1 X-16.000 Y0.000
G1 X-16.400 Y0.000
G4 P5
G1 X-16.400 Y9.400
G4 P5
G1 X-7.165 Y9.400
G4 P5
G1 X-7.165 Y-9.400
G4 P5
G1 X-16.400 Y-9.400
G1 X-16.400 Y0.000
G1 X-16.800 Y0.000
G4 P5
G1 X-16.800 Y9.800
G4 P5
G1 X-6.765 Y9.800
G4 P5
G1 X-6.765 Y-9.800
G4 P5
G1 X-16.800 Y-9.800
G1 X-16.800 Y0.000 Z1.900
G1 X-16.800 Y0.000 Z2.300
G1 X-16.800 Y-9.800
G4 P5
G1 X-7.224 Y-9.800
G4 P5
G1 X-7.224 Y9.800
G4 P5
G1 X-16.800 Y9.800
G4 P5
G1 X-16.800 Y0.000
G1 X-16.400 Y0.000
G1 X-16.400 Y-9.400
G4 P5
G1 X-7.624 Y-9.400
G4 P5
G1 X-7.624 Y9.400
G4 P5
G1 X-16.400 Y9.400
G4 P5
G1 X-16.400 Y0.000
G1 X-16.000 Y0.000
G1 X-16.000 Y-9.000
G4 P5
G1 X-8.024 Y-9.000
G4 P5
G1 X-8.024 Y9.000
G4 P5
G1 X-16.000 Y9.000
G4 P5
G1 X-16.000 Y0.000
G1 X-15.600 Y0.000
G1 X-15.600 Y-8.600
G4 P5
G1 X-8.424 Y-8.600
G4 P5
G1 X-8.424 Y8.600
G4 P5
G1 X-15.600 Y8.600
G4 P5
G1 X-15.600 Y0.000
G1 X-15.200 Y0.000
G1 X-15.200 Y-8.200
G4 P5
G1 X-8.824 Y-8.200
G4 P5
G1 X-8.824 Y8.200
G4 P5
G1 X-15.200 Y8.200
G4 P5
G1 X-15.200 Y0.000
G1 X-14.800 Y0.000
G1 X-14.800 Y-7.800
G4 P5
G1 X-9.224 Y-7.800
G4 P5
G1 X-9.224 Y7.800
G4 P5
G1 X-14.800 Y7.800
G4 P5
G1 X-14.800 Y0.000
G1 X-14.400 Y0.000
G1 X-14.400 Y-7.400
G4 P5
G1 X-9.624 Y-7.400
G4 P5
G1 X-9.624 Y7.400
G4 P5
G1 X-14.400 Y7.400
G4 P5
G1 X-14.400 Y0.000
G1 X-14.000 Y0.000
G1 X-14.000 Y-7.000
G4 P5
G1 X-10.024 Y-7.000
G4 P5
G1 X-10.024 Y7.000
G4 P5
G1 X-14.000 Y7.000
G4 P5
G1 X-14.000 Y0.000
G1 X-13.600 Y0.000
G1 X-13.600 Y-6.600
G4 P5
G1 X-10.424 Y-6.600
G4 P5
G1 X-10.424 Y6.600
G4 P5
G1 X-13.600 Y6.600
G4 P5
G1 X-13.600 Y0.000
G1 X-13.200 Y0.000
G1 X-13.200 Y-6.200
G4 P5
G1 X-10.824 Y-6.200
G4 P5
G1 X-10.824 Y6.200
G4 P5
G1 X-13.200 Y6.200
G4 P5
G1 X-13.200 Y0.000
G1 X-12.800 Y0.000
G1 X-12.800 Y-5.800
G4 P5
G1 X-11.224 Y-5.800
G4 P5
G1 X-11.224 Y5.800
G4 P5
G1 X-12.800 Y5.800
G4 P5
G1 X-12.800 Y0.000
G1 X-12.400 Y0.000
G1 X-12.400 Y-5.400
G4 P5
G1 X-11.624 Y-5.400
G4 P5
G1 X-11.624 Y5.400
G4 P5
G1 X-12.400 Y5.400
G4 P5
G1 X-12.400 Y0.000
G1 X-12.000 Y0.000
G1 X-12.000 Y0.000 Z2.700
G1 X-12.000 Y0.000
G1 X-12.400 Y0.000
G4 P5
G1 X-12.400 Y5.400
G4 P5
G1 X-11.946 Y5.400
G4 P5
G1 X-11.946 Y-5.400
G4 P5
G1 X-12.400 Y-5.400
G1 X-12.400 Y0.000
G1 X-12.800 Y0.000
G4 P5
G1 X-12.800 Y5.800
G4 P5
G1 X-11.546 Y5.800
G4 P5
G1 X-11.546 Y-5.800
G4 P5
G1 X-12.800 Y-5.800
G1 X-12.800 Y0.000
G1 X-13.200 Y0.000
G4 P5
G1 X-13.200 Y6.200
G4 P5
G1 X-11.146 Y6.200
G4 P5
G1 X-11.146 Y-6.200
G4 P5
G1 X-13.200 Y-6.200
G1 X-13.200 Y0.000
G1 X-13.600 Y0.000
G4 P5
G1 X-13.600 Y6.600
G4 P5
G1 X-10.746 Y6.600
G4 P5
G1 X-10.746 Y-6.600
G4 P5
G1 X-13.600 Y-6.600
G1 X-13.600 Y0.000
G1 X-14.000 Y0.000
G4 P5
G1 X-14.000 Y7.000
G4 P5
G1 X-10.346 Y7.000
G4 P5
G1 X-10.346 Y-7.000
G4 P5
G1 X-14.000 Y-7.000
G1 X-14.000 Y0.000
G1 X-14.400 Y0.000
G4 P5
G1 X-14.400 Y7.400
G4 P5
G1 X-9.946 Y7.400
G4 P5
G1 X-9.946 Y-7.400
G4 P5
G1 X-14.400 Y-7.400
G1 X-14.400 Y0.000
G1 X-14.800 Y0.000
G4 P5
G1 X-14.800 Y7.800
G4 P5
G1 X-9.546 Y7.800
G4 P5
G1 X-9.546 Y-7.800
G4 P5
G1 X-14.800 Y-7.800
G1 X-14.800 Y0.000
G1 X-15.200 Y0.000
G4 P5
G1 X-15.200 Y8.200
G4 P5
G1 X-9.146 Y8.200
G4 P5
G1 X-9.146 Y-8.200
G4 P5
G1 X-15.200 Y-8.200
G1 X-15.200 Y0.000
G1 X-15.600 Y0.000
G4 P5
G1 X-15.600 Y8.600
G4 P5
G1 X-8.746 Y8.600
G4 P5
G1 X-8.746 Y-8.600
G4 P5
G1 X-15.600 Y-8.600
G1 X-15.600 Y0.000
G1 X-16.000 Y0.000
G4 P5
G1 X-16.000 Y9.000
G4 P5
G1 X-8.346 Y9.000
G4 P5
G1 X-8.346 Y-9.000
G4 P5
G1 X-16.000 Y-9.000
G1 X-16.000 Y0.000
G1 X-16.400 Y0.000
G4 P5
G1 X-16.400 Y9.400
G4 P5
G1 X-7.946 Y9.400
G4 P5
G1 X-7.946 Y-9.400
G4 P5
G1 X-16.400 Y-9.400
G1 X-16.400 Y0.000
G1 X-16.800 Y0.000
G4 P5
G1 X-16.800 Y9.800
G4 P5
G1 X-7.546 Y9.800
G4 P5
G1 X-7.546 Y-9.800
G4 P5
G1 X-16.800 Y-9.800
G1 X-16.800 Y0.000 Z2.700
G1 X-16.800 Y0.000 Z3.100
G1 X-16.800 Y-9.800
G4 P5
G1 X-7.777 Y-9.800
G4 P5
G1 X-7.777 Y9.800
G4 P5
G1 X-16.800 Y9.800
G4 P5
G1 X-16.800 Y0.000
G1 X-16.400 Y0.000
G1 X-16.400 Y-9.400
G4 P5
G1 X-8.177 Y-9.400
G4 P5
G1 X-8.177 Y9.400
G4 P5
G1 X-16.400 Y9.400
G4 P5
G1 X-16.400 Y0.000
G1 X-16.000 Y0.000
G1 X-16.000 Y-9.000
G4 P5
G1 X-8.577 Y-9.000
G4 P5
G1 X-8.577 Y9.000
G4 P5
G1 X-16.000 Y9.000
G4 P5
G1 X-16.000 Y0.000
G1 X-15.600 Y0.000
G1 X-15.600 Y-8.600
G4 P5
G1 X-8.977 Y-8.600
G4 P5
G1 X-8.977 Y8.600
G4 P5
G1 X-15.600 Y8.600
G4 P5
G1 X-15.600 Y0.000
G1 X-15.200 Y0.000
G1 X-15.200 Y-8.200
G4 P5
G1 X-9.377 Y-8.200
G4 P5
G1 X-9.377 Y8.200
G4 P5
G1 X-15.200 Y8.200
G4 P5
G1 X-15.200 Y0.000
G1 X-14.800 Y0.000
G1 X-14.800 Y-7.800
G4 P5
G1 X-9.777 Y-7.800
G4 P5
G1 X-9.777 Y7.800
G4 P5
G1 X-14.800 Y7.800
G4 P5
G1 X-14.800 Y0.000
G1 X-14.400 Y0.000
G1 X-14.400 Y-7.400
G4 P5
G1 X-10.177 Y-7.400
G4 P5
G1 X-10.177 Y7.400
G4 P5
G1 X-14.400 Y7.400
G4 P5
G1 X-14.400 Y0.000
G1 X-14.000 Y0.000
G1 X-14.000 Y-7.000
G4 P5
G1 X-10.577 Y-7.000
G4 P5
G1 X-10.577 Y7.000
G4 P5
G1 X-14.000 Y7.000
G4 P5
G1 X-14.000 Y0.000
G1 X-13.600 Y0.000
G1 X-13.600 Y-6.600
G4 P5
G1 X-10.977 Y-6.600
G4 P5
G1 X-10.977 Y6.600
G4 P5
G1 X-13.600 Y6.600
G4 P5
G1 X-13.600 Y0.000
G1 X-13.200 Y0.000
G1 X-13.200 Y-6.200
G4 P5
G1 X-11.377 Y-6.200
G4 P5
G1 X-11.377 Y6.200
G4 P5
G1 X-13.200 Y6.200
G4 P5
G1 X-13.200 Y0.000
G1 X-12.800 Y0.000
G1 X-12.800 Y-5.800
G4 P5
G1 X-11.777 Y-5.800
G4 P5
G1 X-11.777 Y5.800
G4 P5
G1 X-12.800 Y5.800
G4 P5
G1 X-12.800 Y0.000
G1 X-12.400 Y0.000
G1 X-12.400 Y-5.400
G4 P5
G1 X-12.177 Y-5.400
G4 P5
G1 X-12.177 Y5.400
G4 P5
G1 X-12.400 Y5.400
G4 P5
G1 X-12.400 Y0.000
G1 X-12.000 Y0.000
G1 X-12.000 Y0.000 Z3.500
G1 X-12.000 Y0.000
G1 X-12.400 Y0.000
G4 P5
G1 X-12.400 Y5.400
G4 P5
G1 X-12.340 Y5.400
G4 P5
G1 X-12.340 Y-5.400
G4 P5
G1 X-12.400 Y-5.400
G1 X-12.400 Y0.000
G1 X-12.800 Y0.000
G4 P5
G1 X-12.800 Y5.800
G4 P5
G1 X-11.940 Y5.800
G4 P5
G1 X-11.940 Y-5.800
G4 P5
G1 X-12.800 Y-5.800
G1 X-12.800 Y0.000
G1 X-13.200 Y0.000
G4 P5
G1 X-13.200 Y6.200
G4 P5
G1 X-11.540 Y6.200
G4 P5
G1 X-11.540 Y-6.200
G4 P5
G1 X-13.200 Y-6.200
G1 X-13.200 Y0.000
G1 X-13.600 Y0.000
G4 P5
G1 X-13.600 Y6.600
G4 P5
G1 X-11.140 Y6.600
G4 P5
G1 X-11.140 Y-6.600
G4 P5
G1 X-13.600 Y-6.600
G1 X-13.600 Y0.000
G1 X-14.000 Y0.000
G4 P5
G1 X-14.000 Y7.000
G4 P5
G1 X-10.740 Y7.000
G4 P5
G1 X-10.740 Y-7.000
G4 P5
G1 X-14.000 Y-7.000
G1 X-14.000 Y0.000
G1 X-14.400 Y0.000
G4 P5
G1 X-14.400 Y7.400
G4 P5
G1 X-10.340 Y7.400
G4 P5
G1 X-10.340 Y-7.400
G4 P5
G1 X-14.400 Y-7.400
G1 X-14.400 Y0.000
G1 X-14.800 Y0.000
G4 P5
G1 X-14.800 Y7.800
G4 P5
G1 X-9.940 Y7.800
G4 P5
G1 X-9.940 Y-7.800
G4 P5
G1 X-14.800 Y-7.800
G1 X-14.800 Y0.000
G1 X-15.200 Y0.000
G4 P5
G1 X-15.200 Y8.200
G4 P5
G1 X-9.540 Y8.200
G4 P5
G1 X-9.540 Y-8.200
G4 P5
G1 X-15.200 Y-8.200
G1 X-15.200 Y0.000
G1 X-15.600 Y0.000
G4 P5
G1 X-15.600 Y8.600
G4 P5
G1 X-9.140 Y8.600
G4 P5
G1 X-9.140 Y-8.600
G4 P5
G1 X-15.600 Y-8.600
G1 X-15.600 Y0.000
G1 X-16.000 Y0.000
G4 P5
G1 X-16.000 Y9.000
G4 P5
G1 X-8.740 Y9.000
G4 P5
G1 X-8.740 Y-9.000
G4 P5
G1 X-16.000 Y-9.000
G1 X-16.000 Y0.000
G1 X-16.400 Y0.000
G4 P5
G1 X-16.400 Y9.400
G4 P5
G1 X-8.340 Y9.400
G4 P5
G1 X-8.340 Y-9.400
G4 P5
G1 X-16.400 Y-9.400
G1 X-16.400 Y0.000
G1 X-16.800 Y0.000
G4 P5
G1 X-16.800 Y9.800
G4 P5
G1 X-7.940 Y9.800
G4 P5
G1 X-7.940 Y-9.800
G4 P5
G1 X-16.800 Y-9.800
G1 X-16.800 Y0.000 Z3.500
G1 X-16.800 Y0.000 Z3.900
G1 X-16.800 Y-9.800
G4 P5
G1 X-8.043 Y-9.800
G4 P5
G1 X-8.043 Y9.800
G4 P5
G1 X-16.800 Y9.800
G4 P5
G1 X-16.800 Y0.000
G1 X-16.400 Y0.000
G1 X-16.400 Y-9.400
G4 P5
G1 X-8.443 Y-9.400
G4 P5
G1 X-8.443 Y9.400
G4 P5
G1 X-16.400 Y9.400
G4 P5
G1 X-16.400 Y0.000
G1 X-16.000 Y0.000
G1 X-16.000 Y-9.000
G4 P5
G1 X-8.843 Y-9.000
G4 P5
G1 X-8.843 Y9.000
G4 P5
G1 X-16.000 Y9.000
G4 P5
G1 X-16.000 Y0.000
G1 X-15.600 Y0.000
G1 X-15.600 Y-8.600
G4 P5
G1 X-9.243 Y-8.600
G4 P5
G1 X-9.243 Y8.600
G4 P5
G1 X-15.600 Y8.600
G4 P5
G1 X-15.600 Y0.000
G1 X-15.200 Y0.000
G1 X-15.200 Y-8.200
G4 P5
G1 X-9.643 Y-8.200
G4 P5
G1 X-9.643 Y8.200
G4 P5
G1 X-15.200 Y8.200
G4 P5
G1 X-15.200 Y0.000
G1 X-14.800 Y0.000
G1 X-14.800 Y-7.800
G4 P5
G1 X-10.043 Y-7.800
G4 P5
G1 X-10.043 Y7.800
G4 P5
G1 X-14.800 Y7.800
G4 P5
G1 X-14.800 Y0.000
G1 X-14.400 Y0.000
G1 X-14.400 Y-7.400
G4 P5
G1 X-10.443 Y-7.400
G4 P5
G1 X-10.443 Y7.400
G4 P5
G1 X-14.400 Y7.400
G4 P5
G1 X-14.400 Y0.000
G1 X-14.000 Y0.000
G1 X-14.000 Y-7.000
G4 P5
G1 X-10.843 Y-7.000
G4 P5
G1 X-10.843 Y7.000
G4 P5
G1 X-14.000 Y7.000
G4 P5
G1 X-14.000 Y0.000
G1 X-13.600 Y0.000
G1 X-13.600 Y-6.600
G4 P5
G1 X-11.243 Y-6.600
G4 P5
G1 X-11.243 Y6.600
G4 P5
G1 X-13.600 Y6.600
G4 P5
G1 X-13.600 Y0.000
G1 X-13.200 Y0.000
G1 X-13.200 Y-6.200
G4 P5
G1 X-11.643 Y-6.200
G4 P5
G1 X-11.643 Y6.200
G4 P5
G1 X-13.200 Y6.200
G4 P5
G1 X-13.200 Y0.000
G1 X-12.800 Y0.000
G1 X-12.800 Y-5.800
G4 P5
G1 X-12.043 Y-5.800
G4 P5
G1 X-12.043 Y5.800
G4 P5
G1 X-12.800 Y5.800
G4 P5
G1 X-12.800 Y0.000
G1 X-12.400 Y0.000
G1 X-12.400 Y0.000 Z4.300
G1 X-12.400 Y0.000
G1 X-12.800 Y0.000
G4 P5
G1 X-12.800 Y5.800
G4 P5
G1 X-12.094 Y5.800
G4 P5
G1 X-12.094 Y-5.800
G4 P5
G1 X-12.800 Y-5.800
G1 X-12.800 Y0.000
G1 X-13.200 Y0.000
G4 P5
G1 X-13.200 Y6.200
G4 P5
G1 X-11.694 Y6.200
G4 P5
G1 X-11.694 Y-6.200
G4 P5
G1 X-13.200 Y-6.200
G1 X-13.200 Y0.000
G1 X-13.600 Y0.000
G4 P5
G1 X-13.600 Y6.600
G4 P5
G1 X-11.294 Y6.600
G4 P5
G1 X-11.294 Y-6.600
G4 P5
G1 X-13.600 Y-6.600
G1 X-13.600 Y0.000
G1 X-14.000 Y0.000
G4 P5
G1 X-14.000 Y7.000
G4 P5
G1 X-10.894 Y7.000
G4 P5
G1 X-10.894 Y-7.000
G4 P5
G1 X-14.000 Y-7.000
G1 X-14.000 Y0.000
G1 X-14.400 Y0.000
G4 P5
G1 X-14.400 Y7.400
G4 P5
G1 X-10.494 Y7.400
G4 P5
G1 X-10.494 Y-7.400
G4 P5
G1 X-14.400 Y-7.400
G1 X-14.400 Y0.000
G1 X-14.800 Y0.000
G4 P5
G1 X-14.800 Y7.800
G4 P5
G1 X-10.094 Y7.800
G4 P5
G1 X-10.094 Y-7.800
G4 P5
G1 X-14.800 Y-7.800
G1 X-14.800 Y0.000
G1 X-15.200 Y0.000
G4 P5
G1 X-15.200 Y8.200
G4 P5
G1 X-9.694 Y8.200
G4 P5
G1 X-9.694 Y-8.200
G4 P5
G1 X-15.200 Y-8.200
G1 X-15.200 Y0.000
G1 X-15.600 Y0.000
G4 P5
G1 X-15.600 Y8.600
G4 P5
G1 X-9.294 Y8.600
G4 P5
G1 X-9.294 Y-8.600
G4 P5
G1 X-15.600 Y-8.600
G1 X-15.600 Y0.000
G1 X-16.000 Y0.000
G4 P5
G1 X-16.000 Y9.000
G4 P5
G1 X-8.894 Y9.000
G4 P5
G1 X-8.894 Y-9.000
G4 P5
G1 X-16.000 Y-9.000
G1 X-16.000 Y0.000
G1 X-16.400 Y0.000
G4 P5
G1 X-16.400 Y9.400
G4 P5
G1 X-8.494 Y9.400
G4 P5
G1 X-8.494 Y-9.400
G4 P5
G1 X-16.400 Y-9.400
G1 X-16.400 Y0.000
G1 X-16.800 Y0.000
G4 P5
G1 X-16.800 Y9.800
G4 P5
G1 X-8.094 Y9.800
G4 P5
G1 X-8.094 Y-9.800
G4 P5
G1 X-16.800 Y-9.800
G1 X-16.800 Y0.000 Z4.300
M9
G1 Z10.000
G1 X17.000 Y0.000
G1 Z1.500
M7
G4 P150
G1 X16.800 Y0.000 Z1.500
G1 X16.800 Y9.800
G4 P5
G1 X6.014 Y9.800
G4 P5
G1 X6.014 Y-9.800
G4 P5
G1 X16.800 Y-9.800
G4 P5
G1 X16.800 Y0.000
G1 X16.400 Y0.000
G1 X16.400 Y9.400
G4 P5
G1 X6.414 Y9.400
G4 P5
G1 X6.414 Y-9.400
G4 P5
G1 X16.400 Y-9.400
G4 P5
G1 X16.400 Y0.000
G1 X16.000 Y0.000
G1 X16.000 Y9.000
G4 P5
G1 X6.814 Y9.000
G4 P5
G1 X6.814 Y-9.000
G4 P5
G1 X16.000 Y-9.000
G4 P5
G1 X16.000 Y0.000
G1 X15.600 Y0.000
G1 X15.600 Y8.600
G4 P5
G1 X7.214 Y8.600
G4 P5
G1 X7.214 Y-8.600
G4 P5
G1 X15.600 Y-8.600
G4 P5
G1 X15.600 Y0.000
G1 X15.200 Y0.000
G1 X15.200 Y8.200
G4 P5
G1 X7.614 Y8.200
G4 P5
G1 X7.614 Y-8.200
G4 P5
G1 X15.200 Y-8.200
G4 P5
G1 X15.200 Y0.000
G1 X14.800 Y0.000
G1 X14.800 Y7.800
G4 P5
G1 X8.014 Y7.800
G4 P5
G1 X8.014 Y-7.800
G4 P5
G1 X14.800 Y-7.800
G4 P5
G1 X14.800 Y0.000
G1 X14.400 Y0.000
G1 X14.400 Y7.400
G4 P5
G1 X8.414 Y7.400
G4 P5
G1 X8.414 Y-7.400
G4 P5
G1 X14.400 Y-7.400
G4 P5
G1 X14.400 Y0.000
G1 X14.000 Y0.000
G1 X14.000 Y7.000
G4 P5
G1 X8.814 Y7.000
G4 P5
G1 X8.814 Y-7.000
G4 P5
G1 X14.000 Y-7.000
G4 P5
G1 X14.000 Y0.000
G1 X13.600 Y0.000
G1 X13.600 Y6.600
G4 P5
G1 X9.214 Y6.600
G4 P5
G1 X9.214 Y-6.600
G4 P5
G1 X13.600 Y-6.600
G4 P5
G1 X13.600 Y0.000
G1 X13.200 Y0.000
G1 X13.200 Y6.200
G4 P5
G1 X9.614 Y6.200
G4 P5
G1 X9.614 Y-6.200
G4 P5
G1 X13.200 Y-6.200
G4 P5
G1 X13.200 Y0.000
G1 X12.800 Y0.000
G1 X12.800 Y5.800
G4 P5
G1 X10.014 Y5.800
G4 P5
G1 X10.014 Y-5.800
G4 P5
G1 X12.800 Y-5.800
G4 P5
G1 X12.800 Y0.000
G1 X12.400 Y0.000
G1 X12.400 Y5.400
G4 P5
G1 X10.414 Y5.400
G4 P5
G1 X10.414 Y-5.400
G4 P5
G1 X12.400 Y-5.400
G4 P5
G1 X12.400 Y0.000
G1 X12.000 Y0.000
G1 X12.000 Y5.000
G4 P5
G1 X10.814 Y5.000
G4 P5
G1 X10.814 Y-5.000
G4 P5
G1 X12.000 Y-5.000
G4 P5
G1 X12.000 Y0.000
G1 X11.600 Y0.000
G1 X11.600 Y4.600
G4 P5
G1 X11.214 Y4.600
G4 P5
G1 X11.214 Y-4.600
G4 P5
G1 X11.600 Y-4.600
G4 P5
G1 X11.600 Y0.000
G1 X11.200 Y0.000
G1 X11.600 Y0.000 Z1.900
G1 X11.600 Y0.000
G1 X12.000 Y0.000
G4 P5
G1 X12.000 Y-5.000
G4 P5
G1 X11.565 Y-5.000
G4 P5
G1 X11.565 Y5.000
G4 P5
G1 X12.000 Y5.000
G1 X12.000 Y0.000
G1 X12.400 Y0.000
G4 P5
G1 X12.400 Y-5.400
G4 P5
G1 X11.165 Y-5.400
G4 P5
G1 X11.165 Y5.400
G4 P5
G1 X12.400 Y5.400
G1 X12.400 Y0.000
G1 X12.800 Y0.000
G4 P5
G1 X12.800 Y-5.800
G4 P5
G1 X10.765 Y-5.800
G4 P5
G1 X10.765 Y5.800
G4 P5
G1 X12.800 Y5.800
G1 X12.800 Y0.000
G1 X13.200 Y0.000
G4 P5
G1 X13.200 Y-6.200
G4 P5
G1 X10.365 Y-6.200
G4 P5
G1 X10.365 Y6.200
G4 P5
G1 X13.200 Y6.200
G1 X13.200 Y0.000
G1 X13.600 Y0.000
G4 P5
G1 X13.600 Y-6.600
G4 P5
G1 X9.965 Y-6.600
G4 P5
G1 X9.965 Y6.600
G4 P5
G1 X13.600 Y6.600
G1 X13.600 Y0.000
G1 X14.000 Y0.000
G4 P5
G1 X14.000 Y-7.000
G4 P5
G1 X9.565 Y-7.000
G4 P5
G1 X9.565 Y7.000
G4 P5
G1 X14.000 Y7.000
G1 X14.000 Y0.000
G1 X14.400 Y0.000
G4 P5
G1 X14.400 Y-7.400
G4 P5
G1 X9.165 Y-7.400
G4 P5
G1 X9.165 Y7.400
G4 P5
G1 X14.400 Y7.400
G1 X14.400 Y0.000
G1 X14.800 Y0.000
G4 P5
G1 X14.800 Y-7.800
G4 P5
G1 X8.765 Y-7.800
G4 P5
G1 X8.765 Y7.800
G4 P5
G1 X14.800 Y7.800
G1 X14.800 Y0.000
G1 X15.200 Y0.000
G4 P5
G1 X15.200 Y-8.200
G4 P5
G1 X8.365 Y-8.200
G4 P5
G1 X8.365 Y8.200
G4 P5
G1 X15.200 Y8.200
G1 X15.200 Y0.000
G1 X15.600 Y0.000
G4 P5
G1 X15.600 Y-8.600
G4 P5
G1 X7.965 Y-8.600
G4 P5
G1 X7.965 Y8.600
G4 P5
G1 X15.600 Y8.600
G1 X15.600 Y0.000
G1 X16.000 Y0.000
G4 P5
G1 X16.000 Y-9.000
G4 P5
G1 X7.565 Y-9.000
G4 P5
G1 X7.565 Y9.000
G4 P5
G1 X16.000 Y9.000
G1 X16.000 Y0.000
G1 X16.400 Y0.000
G4 P5
G1 X16.400 Y-9.400
G4 P5
G1 X7.165 Y-9.400
G4 P5
G1 X7.165 Y9.400
G4 P5
G1 X16.400 Y9.400
G1 X16.400 Y0.000
G1 X16.800 Y0.000
G4 P5
G1 X16.800 Y-9.800
G4 P5
G1 X6.765 Y-9.800
G4 P5
G1 X6.765 Y9.800
G4 P5
G1 X16.800 Y9.800
G1 X16.800 Y0.000 Z1.900
G1 X16.800 Y0.000 Z2.300
G1 X16.800 Y9.800
G4 P5
G1 X7.224 Y9.800
G4 P5
G1 X7.224 Y-9.800
G4 P5
G1 X16.800 Y-9.800
G4 P5
G1 X16.800 Y0.000
G1 X16.400 Y0.000
G1 X16.400 Y9.400
G4 P5
G1 X7.624 Y9.400
G4 P5
G1 X7.624 Y-9.400
G4 P5
G1 X16.400 Y-9.400
G4 P5
G1 X16.400 Y0.000
G1 X16.000 Y0.000
G1 X16.000 Y9.000
G4 P5
G1 X8.024 Y9.000
G4 P5
G1 X8.024 Y-9.000
G4 P5
G1 X16.000 Y-9.000
G4 P5
G1 X16.000 Y0.000
G1 X15.600 Y0.000
G1 X15.600 Y8.600
G4 P5
G1 X8.424 Y8.600
G4 P5
G1 X8.424 Y-8.600
G4 P5
G1 X15.600 Y-8.600
G4 P5
G1 X15.600 Y0.000
G1 X15.200 Y0.000
G1 X15.200 Y8.200
G4 P5
G1 X8.824 Y8.200
G4 P5
G1 X8.824 Y-8.200
G4 P5
G1 X15.200 Y-8.200
G4 P5
G1 X15.200 Y0.000
G1 X14.800 Y0.000
G1 X14.800 Y7.800
G4 P5
G1 X9.224 Y7.800
G4 P5
G1 X9.224 Y-7.800
G4 P5
G1 X14.800 Y-7.800
G4 P5
G1 X14.800 Y0.000
G1 X14.400 Y0.000
G1 X14.400 Y7.400
G4 P5
G1 X9.624 Y7.400
G4 P5
G1 X9.624 Y-7.400
G4 P5
G1 X14.400 Y-7.400
G4 P5
G1 X14.400 Y0.000
G1 X14.000 Y0.000
G1 X14.000 Y7.000
G4 P5
G1 X10.024 Y7.000
G4 P5
G1 X10.024 Y-7.000
G4 P5
G1 X14.000 Y-7.000
G4 P5
G1 X14.000 Y0.000
G1 X13.600 Y0.000
G1 X13.600 Y6.600
G4 P5
G1 X10.424 Y6.600
G4 P5
G1 X10.424 Y-6.600
G4 P5
G1 X13.600 Y-6.600
G4 P5
G1 X13.600 Y0.000
G1 X13.200 Y0.000
G1 X13.200 Y6.200
G4 P5
G1 X10.824 Y6.200
G4 P5
G1 X10.824 Y-6.200
G4 P5
G1 X13.200 Y-6.200
G4 P5
G1 X13.200 Y0.000
G1 X12.800 Y0.000
G1 X12.800 Y5.800
G4 P5
G1 X11.224 Y5.800
G4 P5
G1 X11.224 Y-5.800
G4 P5
G1 X12.800 Y-5.800
G4 P5
G1 X12.800 Y0.000
G1 X12.400 Y0.000
G1 X12.400 Y5.400
G4 P5
G1 X11.624 Y5.400
G4 P5
G1 X11.624 Y-5.400
G4 P5
G1 X12.400 Y-5.400
G4 P5
G1 X12.400 Y0.000
G1 X12.000 Y0.000
G1 X12.000 Y0.000 Z2.700
G1 X12.000 Y0.000
G1 X12.400 Y0.000
G4 P5
G1 X12.400 Y-5.400
G4 P5
G1 X11.946 Y-5.400
G4 P5
G1 X11.946 Y5.400
G4 P5
G1 X12.400 Y5.400
G1 X12.400 Y0.000
G1 X12.800 Y0.000
G4 P5
G1 X12.800 Y-5.800
G4 P5
G1 X11.546 Y-5.800
G4 P5
G1 X11.546 Y5.800
G4 P5
G1 X12.800 Y5.800
G1 X12.800 Y0.000
G1 X13.200 Y0.000
G4 P5
G1 X13.200 Y-6.200
G4 P5
G1 X11.146 Y-6.200
G4 P5
G1 X11.146 Y6.200
G4 P5
G1 X13.200 Y6.200
G1 X13.200 Y0.000
G1 X13.600 Y0.000
G4 P5
G1 X13.600 Y-6.600
G4 P5
G1 X10.746 Y-6.600
G4 P5
G1 X10.746 Y6.600
G4 P5
G1 X13.600 Y6.600
G1 X13.600 Y0.000
G1 X14.000 Y0.000
G4 P5
G1 X14.000 Y-7.000
G4 P5
G1 X10.346 Y-7.000
G4 P5
G1 X10.346 Y7.000
G4 P5
G1 X14.000 Y7.000
G1 X14.000 Y0.000
G1 X14.400 Y0.000
G4 P5
G1 X14.400 Y-7.400
G4 P5
G1 X9.946 Y-7.400
G4 P5
G1 X9.946 Y7.400
G4 P5
G1 X14.400 Y7.400
G1 X14.400 Y0.000
G1 X14.800 Y0.000
G4 P5
G1 X14.800 Y-7.800
G4 P5
G1 X9.546 Y-7.800
G4 P5
G1 X9.546 Y7.800
G4 P5
G1 X14.800 Y7.800
G1 X14.800 Y0.000
G1 X15.200 Y0.000
G4 P5
G1 X15.200 Y-8.200
G4 P5
G1 X9.146 Y-8.200
G4 P5
G1 X9.146 Y8.200
G4 P5
G1 X15.200 Y8.200
G1 X15.200 Y0.000
G1 X15.600 Y0.000
G4 P5
G1 X15.600 Y-8.600
G4 P5
G1 X8.746 Y-8.600
G4 P5
G1 X8.746 Y8.600
G4 P5
G1 X15.600 Y8.600
G1 X15.600 Y0.000
G1 X16.000 Y0.000
G4 P5
G1 X16.000 Y-9.000
G4 P5
G1 X8.346 Y-9.000
G4 P5
G1 X8.346 Y9.000
G4 P5
G1 X16.000 Y9.000
G1 X16.000 Y0.000
G1 X16.400 Y0.000
G4 P5
G1 X16.400 Y-9.400
G4 P5
G1 X7.946 Y-9.400
G4 P5
G1 X7.946 Y9.400
G4 P5
G1 X16.400 Y9.400
G1 X16.400 Y0.000
G1 X16.800 Y0.000
G4 P5
G1 X16.800 Y-9.800
G4 P5
G1 X7.546 Y-9.800
G4 P5
G1 X7.546 Y9.800
G4 P5
G1 X16.800 Y9.800
G1 X16.800 Y0.000 Z2.700
G1 X16.800 Y0.000 Z3.100
G1 X16.800 Y9.800
G4 P5
G1 X7.777 Y9.800
G4 P5
G1 X7.777 Y-9.800
G4 P5
G1 X16.800 Y-9.800
G4 P5
G1 X16.800 Y0.000
G1 X16.400 Y0.000
G1 X16.400 Y9.400
G4 P5
G1 X8.177 Y9.400
G4 P5
G1 X8.177 Y-9.400
G4 P5
G1 X16.400 Y-9.400
G4 P5
G1 X16.400 Y0.000
G1 X16.000 Y0.000
G1 X16.000 Y9.000
G4 P5
G1 X8.577 Y9.000
G4 P5
G1 X8.577 Y-9.000
G4 P5
G1 X16.000 Y-9.000
G4 P5
G1 X16.000 Y0.000
G1 X15.600 Y0.000
G1 X15.600 Y8.600
G4 P5
G1 X8.977 Y8.600
G4 P5
G1 X8.977 Y-8.600
G4 P5
G1 X15.600 Y-8.600
G4 P5
G1 X15.600 Y0.000
G1 X15.200 Y0.000
G1 X15.200 Y8.200
G4 P5
G1 X9.377 Y8.200
G4 P5
G1 X9.377 Y-8.200
G4 P5
G1 X15.200 Y-8.200
G4 P5
G1 X15.200 Y0.000
G1 X14.800 Y0.000
G1 X14.800 Y7.800
G4 P5
G1 X9.777 Y7.800
G4 P5
G1 X9.777 Y-7.800
G4 P5
G1 X14.800 Y-7.800
G4 P5
G1 X14.800 Y0.000
G1 X14.400 Y0.000
G1 X14.400 Y7.400
G4 P5
G1 X10.177 Y7.400
G4 P5
G1 X10.177 Y-7.400
G4 P5
G1 X14.400 Y-7.400
G4 P5
G1 X14.400 Y0.000
G1 X14.000 Y0.000
G1 X14.000 Y7.000
G4 P5
G1 X10.577 Y7.000
G4 P5
G1 X10.577 Y-7.000
G4 P5
G1 X14.000 Y-7.000
G4 P5
G1 X14.000 Y0.000
G1 X13.600 Y0.000
G1 X13.600 Y6.600
G4 P5
G1 X10.977 Y6.600
G4 P5
G1 X10.977 Y-6.600
G4 P5
G1 X13.600 Y-6.600
G4 P5
G1 X13.600 Y0.000
G1 X13.200 Y0.000
G1 X13.200 Y6.200
G4 P5
G1 X11.377 Y6.200
G4 P5
G1 X11.377 Y-6.200
G4 P5
G1 X13.200 Y-6.200
G4 P5
G1 X13.200 Y0.000
G1 X12.800 Y0.000
G1 X12.800 Y5.800
G4 P5
G1 X11.777 Y5.800
G4 P5
G1 X11.777 Y-5.800
G4 P5
G1 X12.800 Y-5.800
G4 P5
G1 X12.800 Y0.000
G1 X12.400 Y0.000
G1 X12.400 Y5.400
G4 P5
G1 X12.177 Y5.400
G4 P5
G1 X12.177 Y-5.400
G4 P5
G1 X12.400 Y-5.400
G4 P5
G1 X12.400 Y0.000
G1 X12.000 Y0.000
G1 X12.000 Y0.000 Z3.500
G1 X12.000 Y0.000
G1 X12.400 Y0.000
G4 P5
G1 X12.400 Y-5.400
G4 P5
G1 X12.340 Y-5.400
G4 P5
G1 X12.340 Y5.400
G4 P5
G1 X12.400 Y5.400
G1 X12.400 Y0.000
G1 X12.800 Y0.000
G4 P5
G1 X12.800 Y-5.800
G4 P5
G1 X11.940 Y-5.800
G4 P5
G1 X11.940 Y5.800
G4 P5
G1 X12.800 Y5.800
G1 X12.800 Y0.000
G1 X13.200 Y0.000
G4 P5
G1 X13.200 Y-6.200
G4 P5
G1 X11.540 Y-6.200
G4 P5
G1 X11.540 Y6.200
G4 P5
G1 X13.200 Y6.200
G1 X13.200 Y0.000
G1 X13.600 Y0.000
G4 P5
G1 X13.600 Y-6.600
G4 P5
G1 X11.140 Y-6.600
G4 P5
G1 X11.140 Y6.600
G4 P5
G1 X13.600 Y6.600
G1 X13.600 Y0.000
G1 X14.000 Y0.000
G4 P5
G1 X14.000 Y-7.000
G4 P5
G1 X10.740 Y-7.000
G4 P5
G1 X10.740 Y7.000
G4 P5
G1 X14.000 Y7.000
G1 X14.000 Y0.000
G1 X14.400 Y0.000
G4 P5
G1 X14.400 Y-7.400
G4 P5
G1 X10.340 Y-7.400
G4 P5
G1 X10.340 Y7.400
G4 P5
G1 X14.400 Y7.400
G1 X14.400 Y0.000
G1 X14.800 Y0.000
G4 P5
G1 X14.800 Y-7.800
G4 P5
G1 X9.940 Y-7.800
G4 P5
G1 X9.940 Y7.800
G4 P5
G1 X14.800 Y7.800
G1 X14.800 Y0.000
G1 X15.200 Y0.000
G4 P5
G1 X15.200 Y-8.200
G4 P5
G1 X9.540 Y-8.200
G4 P5
G1 X9.540 Y8.200
G4 P5
G1 X15.200 Y8.200
G1 X15.200 Y0.000
G1 X15.600 Y0.000
G4 P5
G1 X15.600 Y-8.600
G4 P5
G1 X9.140 Y-8.600
G4 P5
G1 X9.140 Y8.600
G4 P5
G1 X15.600 Y8.600
G1 X15.600 Y0.000
G1 X16.000 Y0.000
G4 P5
G1 X16.000 Y-9.000
G4 P5
G1 X8.740 Y-9.000
G4 P5
G1 X8.740 Y9.000
G4 P5
G1 X16.000 Y9.000
G1 X16.000 Y0.000
G1 X16.400 Y0.000
G4 P5
G1 X16.400 Y-9.400
G4 P5
G1 X8.340 Y-9.400
G4 P5
G1 X8.340 Y9.400
G4 P5
G1 X16.400 Y9.400
G1 X16.400 Y0.000
G1 X16.800 Y0.000
G4 P5
G1 X16.800 Y-9.800
G4 P5
G1 X7.940 Y-9.800
G4 P5
G1 X7.940 Y9.800
G4 P5
G1 X16.800 Y9.800
G1 X16.800 Y0.000 Z3.500
G1 X16.800 Y0.000 Z3.900
G1 X16.800 Y9.800
G4 P5
G1 X8.043 Y9.800
G4 P5
G1 X8.043 Y-9.800
G4 P5
G1 X16.800 Y-9.800
G4 P5
G1 X16.800 Y0.000
G1 X16.400 Y0.000
G1 X16.400 Y9.400
G4 P5
G1 X8.443 Y9.400
G4 P5
G1 X8.443 Y-9.400
G4 P5
G1 X16.400 Y-9.400
G4 P5
G1 X16.400 Y0.000
G1 X16.000 Y0.000
G1 X16.000 Y9.000
G4 P5
G1 X8.843 Y9.000
G4 P5
G1 X8.843 Y-9.000
G4 P5
G1 X16.000 Y-9.000
G4 P5
G1 X16.000 Y0.000
G1 X15.600 Y0.000
G1 X15.600 Y8.600
G4 P5
G1 X9.243 Y8.600
G4 P5
G1 X9.243 Y-8.600
G4 P5
G1 X15.600 Y-8.600
G4 P5
G1 X15.600 Y0.000
G1 X15.200 Y0.000
G1 X15.200 Y8.200
G4 P5
G1 X9.643 Y8.200
G4 P5
G1 X9.643 Y-8.200
G4 P5
G1 X15.200 Y-8.200
G4 P5
G1 X15.200 Y0.000
G1 X14.800 Y0.000
G1 X14.800 Y7.800
G4 P5
G1 X10.043 Y7.800
G4 P5
G1 X10.043 Y-7.800
G4 P5
G1 X14.800 Y-7.800
G4 P5
G1 X14.800 Y0.000
G1 X14.400 Y0.000
G1 X14.400 Y7.400
G4 P5
G1 X10.443 Y7.400
G4 P5
G1 X10.443 Y-7.400
G4 P5
G1 X14.400 Y-7.400
G4 P5
G1 X14.400 Y0.000
G1 X14.000 Y0.000
G1 X14.000 Y7.000
G4 P5
G1 X10.843 Y7.000
G4 P5
G1 X10.843 Y-7.000
G4 P5
G1 X14.000 Y-7.000
G4 P5
G1 X14.000 Y0.000
G1 X13.600 Y0.000
G1 X13.600 Y6.600
G4 P5
G1 X11.243 Y6.600
G4 P5
G1 X11.243 Y-6.600
G4 P5
G1 X13.600 Y-6.600
G4 P5
G1 X13.600 Y0.000
G1 X13.200 Y0.000
G1 X13.200 Y6.200
G4 P5
G1 X11.643 Y6.200
G4 P5
G1 X11.643 Y-6.200
G4 P5
G1 X13.200 Y-6.200
G4 P5
G1 X13.200 Y0.000
G1 X12.800 Y0.000
G1 X12.800 Y5.800
G4 P5
G1 X12.043 Y5.800
G4 P5
G1 X12.043 Y-5.800
G4 P5
G1 X12.800 Y-5.800
G4 P5
G1 X12.800 Y0.000
G1 X12.400 Y0.000
G1 X12.400 Y0.000 Z4.300
G1 X12.400 Y0.000
G1 X12.800 Y0.000
G4 P5
G1 X12.800 Y-5.800
G4 P5
G1 X12.094 Y-5.800
G4 P5
G1 X12.094 Y5.800
G4 P5
G1 X12.800 Y5.800
G1 X12.800 Y0.000
G1 X13.200 Y0.000
G4 P5
G1 X13.200 Y-6.200
G4 P5
G1 X11.694 Y-6.200
G4 P5
G1 X11.694 Y6.200
G4 P5
G1 X13.200 Y6.200
G1 X13.200 Y0.000
G1 X13.600 Y0.000
G4 P5
G1 X13.600 Y-6.600
G4 P5
G1 X11.294 Y-6.600
G4 P5
G1 X11.294 Y6.600
G4 P5
G1 X13.600 Y6.600
G1 X13.600 Y0.000
G1 X14.000 Y0.000
G4 P5
G1 X14.000 Y-7.000
G4 P5
G1 X10.894 Y-7.000
G4 P5
G1 X10.894 Y7.000
G4 P5
G1 X14.000 Y7.000
G1 X14.000 Y0.000
G1 X14.400 Y0.000
G4 P5
G1 X14.400 Y-7.400
G4 P5
G1 X10.494 Y-7.400
G4 P5
G1 X10.494 Y7.400
G4 P5
G1 X14.400 Y7.400
G1 X14.400 Y0.000
G1 X14.800 Y0.000
G4 P5
G1 X14.800 Y-7.800
G4 P5
G1 X10.094 Y-7.800
G4 P5
G1 X10.094 Y7.800
G4 P5
G1 X14.800 Y7.800
G1 X14.800 Y0.000
G1 X15.200 Y0.000
G4 P5
G1 X15.200 Y-8.200
G4 P5
G1 X9.694 Y-8.200
G4 P5
G1 X9.694 Y8.200
G4 P5
G1 X15.200 Y8.200
G1 X15.200 Y0.000
G1 X15.600 Y0.000
G4 P5
G1 X15.600 Y-8.600
G4 P5
G1 X9.294 Y-8.600
G4 P5
G1 X9.294 Y8.600
G4 P5
G1 X15.600 Y8.600
G1 X15.600 Y0.000
G1 X16.000 Y0.000
G4 P5
G1 X16.000 Y-9.000
G4 P5
G1 X8.894 Y-9.000
G4 P5
G1 X8.894 Y9.000
G4 P5
G1 X16.000 Y9.000
G1 X16.000 Y0.000
G1 X16.400 Y0.000
G4 P5
G1 X16.400 Y-9.400
G4 P5
G1 X8.494 Y-9.400
G4 P5
G1 X8.494 Y9.400
G4 P5
G1 X16.400 Y9.400
G1 X16.400 Y0.000
G1 X16.800 Y0.000
G4 P5
G1 X16.800 Y-9.800
G4 P5
G1 X8.094 Y-9.800
G4 P5
G1 X8.094 Y9.800
G4 P5
G1 X16.800 Y9.800
G1 X16.800 Y0.000 Z4.300

;Finish
M9
G1 Z10.000
G28 X-100 Y-100;Home