;layer_height = 0.4
;line_width = 0.4
;layer_count = 10
;mesh = twist_half_short
G21 ;start of the code
G1 Z15 F300
G28 X0 Y0 ;Home
G92 X0 Y0 ;Consider this as current
G0 X50 Y50 F3000 ;Go-to Offset
G92 X0 Y0 ;Reset

G0 F3600 X-16.800 Y0.000 Z0.300 ;Go to start position
M7
G4 P150


G1 X-19.800 Y0.000 Z0.300
G1 X-19.800 Y-9.800
G1 X-9.000 Y-9.800
G1 X-9.000 Y9.800
G1 X-19.800 Y9.800
G1 X-19.800 Y0.000
G1 X-19.400 Y0.000
G1 X-19.400 Y-9.400
G1 X-9.400 Y-9.400
G1 X-9.400 Y9.400
G1 X-19.400 Y9.400
G1 X-19.400 Y0.000
G1 X-19.000 Y0.000
G1 X-19.000 Y-9.000
G1 X-9.800 Y-9.000
G1 X-9.800 Y9.000
G1 X-19.000 Y9.000
G1 X-19.000 Y0.000
G1 X-18.600 Y0.000
G1 X-18.600 Y-8.600
G1 X-10.200 Y-8.600
G1 X-10.200 Y8.600
G1 X-18.600 Y8.600
G1 X-18.600 Y0.000
G1 X-18.200 Y0.000
G1 X-18.200 Y-8.200
G1 X-10.600 Y-8.200
G1 X-10.600 Y8.200
G1 X-18.200 Y8.200
G1 X-18.200 Y0.000
G1 X-17.800 Y0.000
G1 X-17.800 Y-7.800
G1 X-11.000 Y-7.800
G1 X-11.000 Y7.800
G1 X-17.800 Y7.800
G1 X-17.800 Y0.000
G1 X-17.400 Y0.000
G1 X-17.400 Y-7.400
G1 X-11.400 Y-7.400
G1 X-11.400 Y7.400
G1 X-17.400 Y7.400
G1 X-17.400 Y0.000
G1 X-17.000 Y0.000
G1 X-17.000 Y-7.000
G1 X-11.800 Y-7.000
G1 X-11.800 Y7.000
G1 X-17.000 Y7.000
G1 X-17.000 Y0.000
G1 X-16.600 Y0.000
G1 X-16.600 Y-6.600
G1 X-12.200 Y-6.600
G1 X-12.200 Y6.600
G1 X-16.600 Y6.600
G1 X-16.600 Y0.000
G1 X-16.200 Y0.000
G1 X-16.200 Y-6.200
G1 X-12.600 Y-6.200
G1 X-12.600 Y6.200
G1 X-16.200 Y6.200
G1 X-16.200 Y0.000
G1 X-15.800 Y0.000
G1 X-15.800 Y-5.800
G1 X-13.000 Y-5.800
G1 X-13.000 Y5.800
G1 X-15.800 Y5.800
G1 X-15.800 Y0.000
G1 X-15.400 Y0.000
G1 X-15.400 Y-5.400
G1 X-13.400 Y-5.400
G1 X-13.400 Y5.400
G1 X-15.400 Y5.400
G1 X-15.400 Y0.000
G1 X-15.000 Y0.000
G1 X-15.000 Y-5.000
G1 X-13.800 Y-5.000
G1 X-13.800 Y5.000
G1 X-15.000 Y5.000
G1 X-15.000 Y0.000
G1 X-14.600 Y0.000
G1 X-14.600 Y-4.600
G1 X-14.200 Y-4.600
G1 X-14.200 Y4.600
G1 X-14.600 Y4.600
G1 X-14.600 Y0.000
G1 X-14.200 Y0.000
M9
G1 Z10.000
G1 X19.800 Y0.000
G1 Z0.300
M7
G4 P150
G1 X19.800 Y0.000 Z0.300
G1 X19.800 Y9.800
G1 X-7.800 Y9.800
G1 X-7.800 Y-9.800
G1 X19.800 Y-9.800
G1 X19.800 Y0.000
G1 X19.400 Y0.000
G1 X19.400 Y9.400
G1 X-7.400 Y9.400
G1 X-7.400 Y-9.400
G1 X19.400 Y-9.400
G1 X19.400 Y0.000
G1 X19.000 Y0.000
G1 X19.000 Y9.000
G1 X-7.000 Y9.000
G1 X-7.000 Y-9.000
G1 X19.000 Y-9.000
G1 X19.000 Y0.000
G1 X18.600 Y0.000
G1 X18.600 Y8.600
G1 X-6.600 Y8.600
G1 X-6.600 Y-8.600
G1 X18.600 Y-8.600
G1 X18.600 Y0.000
G1 X18.200 Y0.000
G1 X18.200 Y8.200
G1 X-6.200 Y8.200
G1 X-6.200 Y-8.200
G1 X18.200 Y-8.200
G1 X18.200 Y0.000
G1 X17.800 Y0.000
G1 X17.800 Y7.800
G1 X-5.800 Y7.800
G1 X-5.800 Y-7.800
G1 X17.800 Y-7.800
G1 X17.800 Y0.000
G1 X17.400 Y0.000
G1 X17.400 Y7.400
G1 X-5.400 Y7.400
G1 X-5.400 Y-7.400
G1 X17.400 Y-7.400
G1 X17.400 Y0.000
G1 X17.000 Y0.000
G1 X17.000 Y7.000
G1 X-5.000 Y7.000
G1 X-5.000 Y-7.000
G1 X17.000 Y-7.000
G1 X17.000 Y0.000
G1 X16.600 Y0.000
G1 X16.600 Y6.600
G1 X-4.600 Y6.600
G1 X-4.600 Y-6.600
G1 X16.600 Y-6.600
G1 X16.600 Y0.000
G1 X16.200 Y0.000
G1 X16.200 Y6.200
G1 X-4.200 Y6.200
G1 X-4.200 Y-6.200
G1 X16.200 Y-6.200
G1 X16.200 Y0.000
G1 X15.800 Y0.000
G1 X15.800 Y5.800
G1 X-3.800 Y5.800
G1 X-3.800 Y-5.800
G1 X15.800 Y-5.800
G1 X15.800 Y0.000
G1 X15.400 Y0.000
G1 X15.400 Y5.400
G1 X-3.400 Y5.400
G1 X-3.400 Y-5.400
G1 X15.400 Y-5.400
G1 X15.400 Y0.000
G1 X15.000 Y0.000
G1 X15.000 Y5.000
G1 X-3.000 Y5.000
G1 X-3.000 Y-5.000
G1 X15.000 Y-5.000
G1 X15.000 Y0.000
G1 X14.600 Y0.000
G1 X14.600 Y4.600
G1 X-2.600 Y4.600
G1 X-2.600 Y-4.600
G1 X14.600 Y-4.600
G1 X14.600 Y0.000
G1 X14.200 Y0.000
G1 X14.200 Y4.200
G1 X-2.200 Y4.200
G1 X-2.200 Y-4.200
G1 X14.200 Y-4.200
G1 X14.200 Y0.000
G1 X13.800 Y0.000
G1 X13.800 Y3.800
G1 X-1.800 Y3.800
G1 X-1.800 Y-3.800
G1 X13.800 Y-3.800
G1 X13.800 Y0.000
G1 X13.400 Y0.000
G1 X13.400 Y3.400
G1 X-1.400 Y3.400
G1 X-1.400 Y-3.400
G1 X13.400 Y-3.400
G1 X13.400 Y0.000
G1 X13.000 Y0.000
G1 X13.000 Y3.000
G1 X-1.000 Y3.000
G1 X-1.000 Y-3.000
G1 X13.000 Y-3.000
G1 X13.000 Y0.000
G1 X12.600 Y0.000
G1 X12.600 Y2.600
G1 X-0.600 Y2.600
G1 X-0.600 Y-2.600
G1 X12.600 Y-2.600
G1 X12.600 Y0.000
G1 X12.200 Y0.000
G1 X12.200 Y2.200
G1 X-0.200 Y2.200
G1 X-0.200 Y-2.200
G1 X12.200 Y-2.200
G1 X12.200 Y0.000
G1 X11.800 Y0.000
G1 X11.800 Y1.800
G1 X0.200 Y1.800
G1 X0.200 Y-1.800
G1 X11.800 Y-1.800
G1 X11.800 Y0.000
G1 X11.400 Y0.000
G1 X11.400 Y1.400
G1 X0.600 Y1.400
G1 X0.600 Y-1.400
G1 X11.400 Y-1.400
G1 X11.400 Y0.000
G1 X11.000 Y0.000
G1 X11.000 Y1.000
G1 X1.000 Y1.000
G1 X1.000 Y-1.000
G1 X11.000 Y-1.000
G1 X11.000 Y0.000
G1 X10.600 Y0.000
G1 X10.600 Y0.600
G1 X1.400 Y0.600
G1 X1.400 Y-0.600
G1 X10.600 Y-0.600
G1 X10.600 Y0.000
G1 X10.200 Y0.000
M9
G1 Z10.000
G1 X-19.800 Y-9.800
G1 Z0.700
M7
G4 P150
G1 X19.800 Y-9.800
G1 X19.800 Y-9.400
G4 P5
G1 X-19.800 Y-9.400
G4 P5
G1 X-19.800 Y-9.000
G4 P5
G1 X19.800 Y-9.000
G4 P5
G1 X19.800 Y-8.600
G4 P5
G1 X-19.800 Y-8.600
G4 P5
G1 X-19.800 Y-8.200
G4 P5
G1 X19.800 Y-8.200
G4 P5
G1 X19.800 Y-7.800
G4 P5
G1 X-19.800 Y-7.800
G4 P5
G1 X-19.800 Y-7.400
G4 P5
G1 X19.800 Y-7.400
G4 P5
G1 X19.800 Y-7.000
G4 P5
G1 X-19.800 Y-7.000
G4 P5
G1 X-19.800 Y-6.600
G4 P5
G1 X19.800 Y-6.600
G4 P5
G1 X19.800 Y-6.200
G4 P5
G1 X-19.800 Y-6.200
G4 P5
G1 X-19.800 Y-5.800
G4 P5
G1 X19.800 Y-5.800
G4 P5
G1 X19.800 Y-5.400
G4 P5
G1 X-19.800 Y-5.400
G4 P5
G1 X-19.800 Y-5.000
G4 P5
G1 X19.800 Y-5.000
G4 P5
G1 X19.800 Y-4.600
G4 P5
G1 X-19.800 Y-4.600
G4 P5
G1 X-19.800 Y-4.200
G4 P5
G1 X19.800 Y-4.200
G4 P5
G1 X19.800 Y-3.800
G4 P5
G1 X-19.800 Y-3.800
G4 P5
G1 X-19.800 Y-3.400
G4 P5
G1 X19.800 Y-3.400
G4 P5
G1 X19.800 Y-3.000
G4 P5
G1 X-19.800 Y-3.000
G4 P5
G1 X-19.800 Y-2.600
G4 P5
G1 X19.800 Y-2.600
G4 P5
G1 X19.800 Y-2.200
G4 P5
G1 X-19.800 Y-2.200
G4 P5
G1 X-19.800 Y-1.800
G4 P5
G1 X19.800 Y-1.800
G4 P5
G1 X19.800 Y-1.400
G4 P5
G1 X-19.800 Y-1.400
G4 P5
G1 X-19.800 Y-1.000
G4 P5
G1 X19.800 Y-1.000
G4 P5
G1 X19.800 Y-0.600
G4 P5
G1 X-19.800 Y-0.600
G4 P5
G1 X-19.800 Y-0.200
G4 P5
G1 X19.800 Y-0.200
G4 P5
G1 X19.800 Y0.200
G4 P5
G1 X-19.800 Y0.200
G4 P5
G1 X-19.800 Y0.600
G4 P5
G1 X19.800 Y0.600
G4 P5
G1 X19.800 Y1.000
G4 P5
G1 X-19.800 Y1.000
G4 P5
G1 X-19.800 Y1.400
G4 P5
G1 X19.800 Y1.400
G4 P5
G1 X19.800 Y1.800
G4 P5
G1 X-19.800 Y1.800
G4 P5
G1 X-19.800 Y2.200
G4 P5
G1 X19.800 Y2.200
G4 P5
G1 X19.800 Y2.600
G4 P5
G1 X-19.800 Y2.600
G4 P5
G1 X-19.800 Y3.000
G4 P5
G1 X19.800 Y3.000
G4 P5
G1 X19.800 Y3.400
G4 P5
G1 X-19.800 Y3.400
G4 P5
G1 X-19.800 Y3.800
G4 P5
G1 X19.800 Y3.800
G4 P5
G1 X19.800 Y4.200
G4 P5
G1 X-19.800 Y4.200
G4 P5
G1 X-19.800 Y4.600
G4 P5
G1 X19.800 Y4.600
G4 P5
G1 X19.800 Y5.000
G4 P5
G1 X-19.800 Y5.000
G4 P5
G1 X-19.800 Y5.400
G4 P5
G1 X19.800 Y5.400
G4 P5
G1 X19.800 Y5.800
G4 P5
G1 X-19.800 Y5.800
G4 P5
G1 X-19.800 Y6.200
G4 P5
G1 X19.800 Y6.200
G4 P5
G1 X19.800 Y6.600
G4 P5
G1 X-19.800 Y6.600
G4 P5
G1 X-19.800 Y7.000
G4 P5
G1 X19.800 Y7.000
G4 P5
G1 X19.800 Y7.400
G4 P5
G1 X-19.800 Y7.400
G4 P5
G1 X-19.800 Y7.800
G4 P5
G1 X19.800 Y7.800
G4 P5
G1 X19.800 Y8.200
G4 P5
G1 X-19.800 Y8.200
G4 P5
G1 X-19.800 Y8.600
G4 P5
G1 X19.800 Y8.600
G4 P5
G1 X19.800 Y9.000
G4 P5
G1 X-19.800 Y9.000
G4 P5
G1 X-19.800 Y9.400
G4 P5
G1 X19.800 Y9.400
G4 P5
G1 X19.800 Y9.800
G4 P5
G1 X-19.800 Y9.800
G4 P5
M9
G1 Z10.000
G1 X-19.800 Y0.000
G1 Z1.100
M7
G4 P150
G1 X-19.800 Y0.000 Z1.100
G1 X-19.800 Y-9.800
G1 X-9.400 Y-9.800
G1 X-9.400 Y9.800
G1 X-19.800 Y9.800
G1 X-19.800 Y0.000
G1 X-19.400 Y0.000
G1 X-19.400 Y-9.400
G1 X-9.800 Y-9.400
G1 X-9.800 Y9.400
G1 X-19.400 Y9.400
G1 X-19.400 Y0.000
G1 X-19.000 Y0.000
G1 X-19.000 Y-9.000
G1 X-10.200 Y-9.000
G1 X-10.200 Y9.000
G1 X-19.000 Y9.000
G1 X-19.000 Y0.000
G1 X-18.600 Y0.000
G1 X-18.600 Y-8.600
G1 X-10.600 Y-8.600
G1 X-10.600 Y8.600
G1 X-18.600 Y8.600
G1 X-18.600 Y0.000
G1 X-18.200 Y0.000
G1 X-18.200 Y-8.200
G1 X-11.000 Y-8.200
G1 X-11.000 Y8.200
G1 X-18.200 Y8.200
G1 X-18.200 Y0.000
G1 X-17.800 Y0.000
G1 X-17.800 Y-7.800
G1 X-11.400 Y-7.800
G1 X-11.400 Y7.800
G1 X-17.800 Y7.800
G1 X-17.800 Y0.000
G1 X-17.400 Y0.000
G1 X-17.400 Y-7.400
G1 X-11.800 Y-7.400
G1 X-11.800 Y7.400
G1 X-17.400 Y7.400
G1 X-17.400 Y0.000
G1 X-17.000 Y0.000
G1 X-17.000 Y-7.000
G1 X-12.200 Y-7.000
G1 X-12.200 Y7.000
G1 X-17.000 Y7.000
G1 X-17.000 Y0.000
G1 X-16.600 Y0.000
G1 X-16.600 Y-6.600
G1 X-12.600 Y-6.600
G1 X-12.600 Y6.600
G1 X-16.600 Y6.600
G1 X-16.600 Y0.000
G1 X-16.200 Y0.000
G1 X-16.200 Y-6.200
G1 X-13.000 Y-6.200
G1 X-13.000 Y6.200
G1 X-16.200 Y6.200
G1 X-16.200 Y0.000
G1 X-15.800 Y0.000
G1 X-15.800 Y-5.800
G1 X-13.400 Y-5.800
G1 X-13.400 Y5.800
G1 X-15.800 Y5.800
G1 X-15.800 Y0.000
G1 X-15.400 Y0.000
G1 X-15.400 Y-5.400
G1 X-13.800 Y-5.400
G1 X-13.800 Y5.400
G1 X-15.400 Y5.400
G1 X-15.400 Y0.000
G1 X-15.000 Y0.000
G1 X-15.000 Y-5.000
G1 X-14.200 Y-5.000
G1 X-14.200 Y5.000
G1 X-15.000 Y5.000
G1 X-15.000 Y0.000
G1 X-14.600 Y0.000
G1 X-14.600 Y-4.600
G1 X-14.600 Y-4.600
G1 X-14.600 Y4.600
G1 X-14.600 Y4.600
G1 X-14.600 Y0.000
G1 X-14.200 Y0.000
G1 X-15.400 Y0.000 Z1.500
G1 X-15.400 Y0.000
G1 X-15.800 Y0.000
G1 X-15.800 Y5.800
G1 X-15.107 Y5.800
G1 X-15.107 Y-5.800
G1 X-15.800 Y-5.800
G1 X-15.800 Y0.000
G1 X-16.200 Y0.000
G1 X-16.200 Y6.200
G1 X-14.707 Y6.200
G1 X-14.707 Y-6.200
G1 X-16.200 Y-6.200
G1 X-16.200 Y0.000
G1 X-16.600 Y0.000
G1 X-16.600 Y6.600
G1 X-14.307 Y6.600
G1 X-14.307 Y-6.600
G1 X-16.600 Y-6.600
G1 X-16.600 Y0.000
G1 X-17.000 Y0.000
G1 X-17.000 Y7.000
G1 X-13.907 Y7.000
G1 X-13.907 Y-7.000
G1 X-17.000 Y-7.000
G1 X-17.000 Y0.000
G1 X-17.400 Y0.000
G1 X-17.400 Y7.400
G1 X-13.507 Y7.400
G1 X-13.507 Y-7.400
G1 X-17.400 Y-7.400
G1 X-17.400 Y0.000
G1 X-17.800 Y0.000
G1 X-17.800 Y7.800
G1 X-13.107 Y7.800
G1 X-13.107 Y-7.800
G1 X-17.800 Y-7.800
G1 X-17.800 Y0.000
G1 X-18.200 Y0.000
G1 X-18.200 Y8.200
G1 X-12.707 Y8.200
G1 X-12.707 Y-8.200
G1 X-18.200 Y-8.200
G1 X-18.200 Y0.000
G1 X-18.600 Y0.000
G1 X-18.600 Y8.600
G1 X-12.307 Y8.600
G1 X-12.307 Y-8.600
G1 X-18.600 Y-8.600
G1 X-18.600 Y0.000
G1 X-19.000 Y0.000
G1 X-19.000 Y9.000
G1 X-11.907 Y9.000
G1 X-11.907 Y-9.000
G1 X-19.000 Y-9.000
G1 X-19.000 Y0.000
G1 X-19.400 Y0.000
G1 X-19.400 Y9.400
G1 X-11.507 Y9.400
G1 X-11.507 Y-9.400
G1 X-19.400 Y-9.400
G1 X-19.400 Y0.000
G1 X-19.800 Y0.000
G1 X-19.800 Y9.800
G1 X-11.107 Y9.800
G1 X-11.107 Y-9.800
G1 X-19.800 Y-9.800
G1 X-19.800 Y0.000 Z1.500
G1 X-19.800 Y0.000 Z1.900
G1 X-19.800 Y-9.800
G1 X-11.646 Y-9.800
G1 X-11.646 Y9.800
G1 X-19.800 Y9.800
G1 X-19.800 Y0.000
G1 X-19.400 Y0.000
G1 X-19.400 Y-9.400
G1 X-12.046 Y-9.400
G1 X-12.046 Y9.400
G1 X-19.400 Y9.400
G1 X-19.400 Y0.000
G1 X-19.000 Y0.000
G1 X-19.000 Y-9.000
G1 X-12.446 Y-9.000
G1 X-12.446 Y9.000
G1 X-19.000 Y9.000
G1 X-19.000 Y0.000
G1 X-18.600 Y0.000
G1 X-18.600 Y-8.600
G1 X-12.846 Y-8.600
G1 X-12.846 Y8.600
G1 X-18.600 Y8.600
G1 X-18.600 Y0.000
G1 X-18.200 Y0.000
G1 X-18.200 Y-8.200
G1 X-13.246 Y-8.200
G1 X-13.246 Y8.200
G1 X-18.200 Y8.200
G1 X-18.200 Y0.000
G1 X-17.800 Y0.000
G1 X-17.800 Y-7.800
G1 X-13.646 Y-7.800
G1 X-13.646 Y7.800
G1 X-17.800 Y7.800
G1 X-17.800 Y0.000
G1 X-17.400 Y0.000
G1 X-17.400 Y-7.400
G1 X-14.046 Y-7.400
G1 X-14.046 Y7.400
G1 X-17.400 Y7.400
G1 X-17.400 Y0.000
G1 X-17.000 Y0.000
G1 X-17.000 Y-7.000
G1 X-14.446 Y-7.000
G1 X-14.446 Y7.000
G1 X-17.000 Y7.000
G1 X-17.000 Y0.000
G1 X-16.600 Y0.000
G1 X-16.600 Y-6.600
G1 X-14.846 Y-6.600
G1 X-14.846 Y6.600
G1 X-16.600 Y6.600
G1 X-16.600 Y0.000
G1 X-16.200 Y0.000
G1 X-16.200 Y-6.200
G1 X-15.246 Y-6.200
G1 X-15.246 Y6.200
G1 X-16.200 Y6.200
G1 X-16.200 Y0.000
G1 X-15.800 Y0.000
G1 X-15.800 Y-5.800
G1 X-15.646 Y-5.800
G1 X-15.646 Y5.800
G1 X-15.800 Y5.800
G1 X-15.800 Y0.000
G1 X-15.400 Y0.000
G1 X-15.800 Y0.000 Z2.300
G1 X-15.800 Y0.000
G1 X-16.200 Y0.000
G1 X-16.200 Y6.200
G1 X-15.640 Y6.200
G1 X-15.640 Y-6.200
G1 X-16.200 Y-6.200
G1 X-16.200 Y0.000
G1 X-16.600 Y0.000
G1 X-16.600 Y6.600
G1 X-15.240 Y6.600
G1 X-15.240 Y-6.600
G1 X-16.600 Y-6.600
G1 X-16.600 Y0.000
G1 X-17.000 Y0.000
G1 X-17.000 Y7.000
G1 X-14.840 Y7.000
G1 X-14.840 Y-7.000
G1 X-17.000 Y-7.000
G1 X-17.000 Y0.000
G1 X-17.400 Y0.000
G1 X-17.400 Y7.400
G1 X-14.440 Y7.400
G1 X-14.440 Y-7.400
G1 X-17.400 Y-7.400
G1 X-17.400 Y0.000
G1 X-17.800 Y0.000
G1 X-17.800 Y7.800
G1 X-14.040 Y7.800
G1 X-14.040 Y-7.800
G1 X-17.800 Y-7.800
G1 X-17.800 Y0.000
G1 X-18.200 Y0.000
G1 X-18.200 Y8.200
G1 X-13.640 Y8.200
G1 X-13.640 Y-8.200
G1 X-18.200 Y-8.200
G1 X-18.200 Y0.000
G1 X-18.600 Y0.000
G1 X-18.600 Y8.600
G1 X-13.240 Y8.600
G1 X-13.240 Y-8.600
G1 X-18.600 Y-8.600
G1 X-18.600 Y0.000
G1 X-19.000 Y0.000
G1 X-19.000 Y9.000
G1 X-12.840 Y9.000
G1 X-12.840 Y-9.000
G1 X-19.000 Y-9.000
G1 X-19.000 Y0.000
G1 X-19.400 Y0.000
G1 X-19.400 Y9.400
G1 X-12.440 Y9.400
G1 X-12.440 Y-9.400
G1 X-19.400 Y-9.400
G1 X-19.400 Y0.000
G1 X-19.800 Y0.000
G1 X-19.800 Y9.800
G1 X-12.040 Y9.800
G1 X-12.040 Y-9.800
G1 X-19.800 Y-9.800
G1 X-19.800 Y0.000 Z2.300
G1 X-19.800 Y0.000 Z2.700
G1 X-19.800 Y-9.800
G1 X-12.341 Y-9.800
G1 X-12.341 Y9.800
G1 X-19.800 Y9.800
G1 X-19.800 Y0.000
G1 X-19.400 Y0.000
G1 X-19.400 Y-9.400
G1 X-12.741 Y-9.400
G1 X-12.741 Y9.400
G1 X-19.400 Y9.400
G1 X-19.400 Y0.000
G1 X-19.000 Y0.000
G1 X-19.000 Y-9.000
G1 X-13.141 Y-9.000
G1 X-13.141 Y9.000
G1 X-19.000 Y9.000
G1 X-19.000 Y0.000
G1 X-18.600 Y0.000
G1 X-18.600 Y-8.600
G1 X-13.541 Y-8.600
G1 X-13.541 Y8.600
G1 X-18.600 Y8.600
G1 X-18.600 Y0.000
G1 X-18.200 Y0.000
G1 X-18.200 Y-8.200
G1 X-13.941 Y-8.200
G1 X-13.941 Y8.200
G1 X-18.200 Y8.200
G1 X-18.200 Y0.000
G1 X-17.800 Y0.000
G1 X-17.800 Y-7.800
G1 X-14.341 Y-7.800
G1 X-14.341 Y7.800
G1 X-17.800 Y7.800
G1 X-17.800 Y0.000
G1 X-17.400 Y0.000
G1 X-17.400 Y-7.400
G1 X-14.741 Y-7.400
G1 X-14.741 Y7.400
G1 X-17.400 Y7.400
G1 X-17.400 Y0.000
G1 X-17.000 Y0.000
G1 X-17.000 Y-7.000
G1 X-15.141 Y-7.000
G1 X-15.141 Y7.000
G1 X-17.000 Y7.000
G1 X-17.000 Y0.000
G1 X-16.600 Y0.000
G1 X-16.600 Y-6.600
G1 X-15.541 Y-6.600
G1 X-15.541 Y6.600
G1 X-16.600 Y6.600
G1 X-16.600 Y0.000
G1 X-16.200 Y0.000
G1 X-16.200 Y-6.200
G1 X-15.941 Y-6.200
G1 X-15.941 Y6.200
G1 X-16.200 Y6.200
G1 X-16.200 Y0.000
G1 X-15.800 Y0.000
G1 X-16.200 Y0.000 Z3.100
G1 X-16.200 Y0.000
G1 X-16.600 Y0.000
G1 X-16.600 Y6.600
G1 X-15.772 Y6.600
G1 X-15.772 Y-6.600
G1 X-16.600 Y-6.600
G1 X-16.600 Y0.000
G1 X-17.000 Y0.000
G1 X-17.000 Y7.000
G1 X-15.372 Y7.000
G1 X-15.372 Y-7.000
G1 X-17.000 Y-7.000
G1 X-17.000 Y0.000
G1 X-17.400 Y0.000
G1 X-17.400 Y7.400
G1 X-14.972 Y7.400
G1 X-14.972 Y-7.400
G1 X-17.400 Y-7.400
G1 X-17.400 Y0.000
G1 X-17.800 Y0.000
G1 X-17.800 Y7.800
G1 X-14.572 Y7.800
G1 X-14.572 Y-7.800
G1 X-17.800 Y-7.800
G1 X-17.800 Y0.000
G1 X-18.200 Y0.000
G1 X-18.200 Y8.200
G1 X-14.172 Y8.200
G1 X-14.172 Y-8.200
G1 X-18.200 Y-8.200
G1 X-18.200 Y0.000
G1 X-18.600 Y0.000
G1 X-18.600 Y8.600
G1 X-13.772 Y8.600
G1 X-13.772 Y-8.600
G1 X-18.600 Y-8.600
G1 X-18.600 Y0.000
G1 X-19.000 Y0.000
G1 X-19.000 Y9.000
G1 X-13.372 Y9.000
G1 X-13.372 Y-9.000
G1 X-19.000 Y-9.000
G1 X-19.000 Y0.000
G1 X-19.400 Y0.000
G1 X-19.400 Y9.400
G1 X-12.972 Y9.400
G1 X-12.972 Y-9.400
G1 X-19.400 Y-9.400
G1 X-19.400 Y0.000
G1 X-19.800 Y0.000
G1 X-19.800 Y9.800
G1 X-12.572 Y9.800
G1 X-12.572 Y-9.800
G1 X-19.800 Y-9.800
G1 X-19.800 Y0.000 Z3.100
G1 X-19.800 Y0.000 Z3.500
G1 X-19.800 Y-9.800
G1 X-12.747 Y-9.800
G1 X-12.747 Y9.800
G1 X-19.800 Y9.800
G1 X-19.800 Y0.000
G1 X-19.400 Y0.000
G1 X-19.400 Y-9.400
G1 X-13.147 Y-9.400
G1 X-13.147 Y9.400
G1 X-19.400 Y9.400
G1 X-19.400 Y0.000
G1 X-19.000 Y0.000
G1 X-19.000 Y-9.000
G1 X-13.547 Y-9.000
G1 X-13.547 Y9.000
G1 X-19.000 Y9.000
G1 X-19.000 Y0.000
G1 X-18.600 Y0.000
G1 X-18.600 Y-8.600
G1 X-13.947 Y-8.600
G1 X-13.947 Y8.600
G1 X-18.600 Y8.600
G1 X-18.600 Y0.000
G1 X-18.200 Y0.000
G1 X-18.200 Y-8.200
G1 X-14.347 Y-8.200
G1 X-14.347 Y8.200
G1 X-18.200 Y8.200
G1 X-18.200 Y0.000
G1 X-17.800 Y0.000
G1 X-17.800 Y-7.800
G1 X-14.747 Y-7.800
G1 X-14.747 Y7.800
G1 X-17.800 Y7.800
G1 X-17.800 Y0.000
G1 X-17.400 Y0.000
G1 X-17.400 Y-7.400
G1 X-15.147 Y-7.400
G1 X-15.147 Y7.400
G1 X-17.400 Y7.400
G1 X-17.400 Y0.000
G1 X-17.000 Y0.000
G1 X-17.000 Y-7.000
G1 X-15.547 Y-7.000
G1 X-15.547 Y7.000
G1 X-17.000 Y7.000
G1 X-17.000 Y0.000
G1 X-16.600 Y0.000
G1 X-16.600 Y-6.600
G1 X-15.947 Y-6.600
G1 X-15.947 Y6.600
G1 X-16.600 Y6.600
G1 X-16.600 Y0.000
G1 X-16.200 Y0.000
G1 X-16.200 Y-6.200
G1 X-16.347 Y-6.200
G1 X-16.347 Y6.200
G1 X-16.200 Y6.200
G1 X-16.200 Y0.000
G1 X-15.800 Y0.000
G1 X-16.200 Y0.000 Z3.900
G1 X-16.200 Y0.000
G1 X-16.600 Y0.000
G1 X-16.600 Y6.600
G1 X-16.073 Y6.600
G1 X-16.073 Y-6.600
G1 X-16.600 Y-6.600
G1 X-16.600 Y0.000
G1 X-17.000 Y0.000
G1 X-17.000 Y7.000
G1 X-15.673 Y7.000
G1 X-15.673 Y-7.000
G1 X-17.000 Y-7.000
G1 X-17.000 Y0.000
G1 X-17.400 Y0.000
G1 X-17.400 Y7.400
G1 X-15.273 Y7.400
G1 X-15.273 Y-7.400
G1 X-17.400 Y-7.400
G1 X-17.400 Y0.000
G1 X-17.800 Y0.000
G1 X-17.800 Y7.800
G1 X-14.873 Y7.800
G1 X-14.873 Y-7.800
G1 X-17.800 Y-7.800
G1 X-17.800 Y0.000
G1 X-18.200 Y0.000
G1 X-18.200 Y8.200
G1 X-14.473 Y8.200
G1 X-14.473 Y-8.200
G1 X-18.200 Y-8.200
G1 X-18.200 Y0.000
G1 X-18.600 Y0.000
G1 X-18.600 Y8.600
G1 X-14.073 Y8.600
G1 X-14.073 Y-8.600
G1 X-18.600 Y-8.600
G1 X-18.600 Y0.000
G1 X-19.000 Y0.000
G1 X-19.000 Y9.000
G1 X-13.673 Y9.000
G1 X-13.673 Y-9.000
G1 X-19.000 Y-9.000
G1 X-19.000 Y0.000
G1 X-19.400 Y0.000
G1 X-19.400 Y9.400
G1 X-13.273 Y9.400
G1 X-13.273 Y-9.400
G1 X-19.400 Y-9.400
G1 X-19.400 Y0.000
G1 X-19.800 Y0.000
G1 X-19.800 Y9.800
G1 X-12.873 Y9.800
G1 X-12.873 Y-9.800
G1 X-19.800 Y-9.800
G1 X-19.800 Y0.000 Z3.900
G1 X-19.800 Y0.000 Z4.300
G1 X-19.800 Y-9.800
G1 X-12.955 Y-9.800
G1 X-12.955 Y9.800
G1 X-19.800 Y9.800
G1 X-19.800 Y0.000
G1 X-19.400 Y0.000
G1 X-19.400 Y-9.400
G1 X-13.355 Y-9.400
G1 X-13.355 Y9.400
G1 X-19.400 Y9.400
G1 X-19.400 Y0.000
G1 X-19.000 Y0.000
G1 X-19.000 Y-9.000
G1 X-13.755 Y-9.000
G1 X-13.755 Y9.000
G1 X-19.000 Y9.000
G1 X-19.000 Y0.000
G1 X-18.600 Y0.000
G1 X-18.600 Y-8.600
G1 X-14.155 Y-8.600
G1 X-14.155 Y8.600
G1 X-18.600 Y8.600
G1 X-18.600 Y0.000
G1 X-18.200 Y0.000
G1 X-18.200 Y-8.200
G1 X-14.555 Y-8.200
G1 X-14.555 Y8.200
G1 X-18.200 Y8.200
G1 X-18.200 Y0.000
G1 X-17.800 Y0.000
G1 X-17.800 Y-7.800
G1 X-14.955 Y-7.800
G1 X-14.955 Y7.800
G1 X-17.800 Y7.800
G1 X-17.800 Y0.000
G1 X-17.400 Y0.000
G1 X-17.400 Y-7.400
G1 X-15.355 Y-7.400
G1 X-15.355 Y7.400
G1 X-17.400 Y7.400
G1 X-17.400 Y0.000
G1 X-17.000 Y0.000
G1 X-17.000 Y-7.000
G1 X-15.755 Y-7.000
G1 X-15.755 Y7.000
G1 X-17.000 Y7.000
G1 X-17.000 Y0.000
G1 X-16.600 Y0.000
G1 X-16.600 Y-6.600
G1 X-16.155 Y-6.600
G1 X-16.155 Y6.600
G1 X-16.600 Y6.600
G1 X-16.600 Y0.000
G1 X-16.200 Y0.000
G1 X-16.200 Y-6.200
G1 X-16.555 Y-6.200
G1 X-16.555 Y6.200
G1 X-16.200 Y6.200
G1 X-16.200 Y0.000
G1 X-15.800 Y0.000
G1 X-16.200 Y0.000 Z4.700
G1 X-16.200 Y0.000
G1 X-16.600 Y0.000
G1 X-16.600 Y6.600
G1 X-16.195 Y6.600
G1 X-16.195 Y-6.600
G1 X-16.600 Y-6.600
G1 X-16.600 Y0.000
G1 X-17.000 Y0.000
G1 X-17.000 Y7.000
G1 X-15.795 Y7.000
G1 X-15.795 Y-7.000
G1 X-17.000 Y-7.000
G1 X-17.000 Y0.000
G1 X-17.400 Y0.000
G1 X-17.400 Y7.400
G1 X-15.395 Y7.400
G1 X-15.395 Y-7.400
G1 X-17.400 Y-7.400
G1 X-17.400 Y0.000
G1 X-17.800 Y0.000
G1 X-17.800 Y7.800
G1 X-14.995 Y7.800
G1 X-14.995 Y-7.800
G1 X-17.800 Y-7.800
G1 X-17.800 Y0.000
G1 X-18.200 Y0.000
G1 X-18.200 Y8.200
G1 X-14.595 Y8.200
G1 X-14.595 Y-8.200
G1 X-18.200 Y-8.200
G1 X-18.200 Y0.000
G1 X-18.600 Y0.000
G1 X-18.600 Y8.600
G1 X-14.195 Y8.600
G1 X-14.195 Y-8.600
G1 X-18.600 Y-8.600
G1 X-18.600 Y0.000
G1 X-19.000 Y0.000
G1 X-19.000 Y9.000
G1 X-13.795 Y9.000
G1 X-13.795 Y-9.000
G1 X-19.000 Y-9.000
G1 X-19.000 Y0.000
G1 X-19.400 Y0.000
G1 X-19.400 Y9.400
G1 X-13.395 Y9.400
G1 X-13.395 Y-9.400
G1 X-19.400 Y-9.400
G1 X-19.400 Y0.000
G1 X-19.800 Y0.000
G1 X-19.800 Y9.800
G1 X-12.995 Y9.800
G1 X-12.995 Y-9.800
G1 X-19.800 Y-9.800
G1 X-19.800 Y0.000 Z4.700
M9
G1 Z10.000
G1 X3.800 Y0.000
G1 Z1.100
M7
G4 P150
G1 X3.805 Y0.000 Z1.100
G1 X3.805 Y9.800
G1 X-7.400 Y9.800
G1 X-7.400 Y-9.800
G1 X3.805 Y-9.800
G1 X3.805 Y0.000
G1 X3.405 Y0.000
G1 X3.405 Y9.400
G1 X-7.000 Y9.400
G1 X-7.000 Y-9.400
G1 X3.405 Y-9.400
G1 X3.405 Y0.000
G1 X3.005 Y0.000
G1 X3.005 Y9.000
G1 X-6.600 Y9.000
G1 X-6.600 Y-9.000
G1 X3.005 Y-9.000
G1 X3.005 Y0.000
G1 X2.605 Y0.000
G1 X2.605 Y8.600
G1 X-6.200 Y8.600
G1 X-6.200 Y-8.600
G1 X2.605 Y-8.600
G1 X2.605 Y0.000
G1 X2.205 Y0.000
G1 X2.205 Y8.200
G1 X-5.800 Y8.200
G1 X-5.800 Y-8.200
G1 X2.205 Y-8.200
G1 X2.205 Y0.000
G1 X1.805 Y0.000
G1 X1.805 Y7.800
G1 X-5.400 Y7.800
G1 X-5.400 Y-7.800
G1 X1.805 Y-7.800
G1 X1.805 Y0.000
G1 X1.405 Y0.000
G1 X1.405 Y7.400
G1 X-5.000 Y7.400
G1 X-5.000 Y-7.400
G1 X1.405 Y-7.400
G1 X1.405 Y0.000
G1 X1.005 Y0.000
G1 X1.005 Y7.000
G1 X-4.600 Y7.000
G1 X-4.600 Y-7.000
G1 X1.005 Y-7.000
G1 X1.005 Y0.000
G1 X0.605 Y0.000
G1 X0.605 Y6.600
G1 X-4.200 Y6.600
G1 X-4.200 Y-6.600
G1 X0.605 Y-6.600
G1 X0.605 Y0.000
G1 X0.205 Y0.000
G1 X0.205 Y6.200
G1 X-3.800 Y6.200
G1 X-3.800 Y-6.200
G1 X0.205 Y-6.200
G1 X0.205 Y0.000
G1 X-0.195 Y0.000
G1 X-0.195 Y5.800
G1 X-3.400 Y5.800
G1 X-3.400 Y-5.800
G1 X-0.195 Y-5.800
G1 X-0.195 Y0.000
G1 X-0.595 Y0.000
G1 X-0.595 Y5.400
G1 X-3.000 Y5.400
G1 X-3.000 Y-5.400
G1 X-0.595 Y-5.400
G1 X-0.595 Y0.000
G1 X-0.995 Y0.000
G1 X-0.995 Y5.000
G1 X-2.600 Y5.000
G1 X-2.600 Y-5.000
G1 X-0.995 Y-5.000
G1 X-0.995 Y0.000
G1 X-1.395 Y0.000
G1 X-1.395 Y4.600
G1 X-2.200 Y4.600
G1 X-2.200 Y-4.600
G1 X-1.395 Y-4.600
G1 X-1.395 Y0.000
G1 X-1.795 Y0.000
G1 X-1.795 Y4.200
G1 X-1.800 Y4.200
G1 X-1.800 Y-4.200
G1 X-1.795 Y-4.200
G1 X-1.795 Y0.000
G1 X-2.195 Y0.000
G1 X-0.995 Y0.000 Z1.500
G1 X-0.995 Y0.000
G1 X-0.595 Y0.000
G1 X-0.595 Y-5.400
G1 X-1.293 Y-5.400
G1 X-1.293 Y5.400
G1 X-0.595 Y5.400
G1 X-0.595 Y0.000
G1 X-0.195 Y0.000
G1 X-0.195 Y-5.800
G1 X-1.693 Y-5.800
G1 X-1.693 Y5.800
G1 X-0.195 Y5.800
G1 X-0.195 Y0.000
G1 X0.205 Y0.000
G1 X0.205 Y-6.200
G1 X-2.093 Y-6.200
G1 X-2.093 Y6.200
G1 X0.205 Y6.200
G1 X0.205 Y0.000
G1 X0.605 Y0.000
G1 X0.605 Y-6.600
G1 X-2.493 Y-6.600
G1 X-2.493 Y6.600
G1 X0.605 Y6.600
G1 X0.605 Y0.000
G1 X1.005 Y0.000
G1 X1.005 Y-7.000
G1 X-2.893 Y-7.000
G1 X-2.893 Y7.000
G1 X1.005 Y7.000
G1 X1.005 Y0.000
G1 X1.405 Y0.000
G1 X1.405 Y-7.400
G1 X-3.293 Y-7.400
G1 X-3.293 Y7.400
G1 X1.405 Y7.400
G1 X1.405 Y0.000
G1 X1.805 Y0.000
G1 X1.805 Y-7.800
G1 X-3.693 Y-7.800
G1 X-3.693 Y7.800
G1 X1.805 Y7.800
G1 X1.805 Y0.000
G1 X2.205 Y0.000
G1 X2.205 Y-8.200
G1 X-4.093 Y-8.200
G1 X-4.093 Y8.200
G1 X2.205 Y8.200
G1 X2.205 Y0.000
G1 X2.605 Y0.000
G1 X2.605 Y-8.600
G1 X-4.493 Y-8.600
G1 X-4.493 Y8.600
G1 X2.605 Y8.600
G1 X2.605 Y0.000
G1 X3.005 Y0.000
G1 X3.005 Y-9.000
G1 X-4.893 Y-9.000
G1 X-4.893 Y9.000
G1 X3.005 Y9.000
G1 X3.005 Y0.000
G1 X3.405 Y0.000
G1 X3.405 Y-9.400
G1 X-5.293 Y-9.400
G1 X-5.293 Y9.400
G1 X3.405 Y9.400
G1 X3.405 Y0.000
G1 X3.805 Y0.000
G1 X3.805 Y-9.800
G1 X-5.693 Y-9.800
G1 X-5.693 Y9.800
G1 X3.805 Y9.800
G1 X3.805 Y0.000 Z1.500
G1 X3.845 Y0.000 Z1.900
G1 X3.845 Y9.800
G1 X-5.154 Y9.800
G1 X-5.154 Y-9.800
G1 X3.845 Y-9.800
G1 X3.845 Y0.000
G1 X3.445 Y0.000
G1 X3.445 Y9.400
G1 X-4.754 Y9.400
G1 X-4.754 Y-9.400
G1 X3.445 Y-9.400
G1 X3.445 Y0.000
G1 X3.045 Y0.000
G1 X3.045 Y9.000
G1 X-4.354 Y9.000
G1 X-4.354 Y-9.000
G1 X3.045 Y-9.000
G1 X3.045 Y0.000
G1 X2.645 Y0.000
G1 X2.645 Y8.600
G1 X-3.954 Y8.600
G1 X-3.954 Y-8.600
G1 X2.645 Y-8.600
G1 X2.645 Y0.000
G1 X2.245 Y0.000
G1 X2.245 Y8.200
G1 X-3.554 Y8.200
G1 X-3.554 Y-8.200
G1 X2.245 Y-8.200
G1 X2.245 Y0.000
G1 X1.845 Y0.000
G1 X1.845 Y7.800
G1 X-3.154 Y7.800
G1 X-3.154 Y-7.800
G1 X1.845 Y-7.800
G1 X1.845 Y0.000
G1 X1.445 Y0.000
G1 X1.445 Y7.400
G1 X-2.754 Y7.400
G1 X-2.754 Y-7.400
G1 X1.445 Y-7.400
G1 X1.445 Y0.000
G1 X1.045 Y0.000
G1 X1.045 Y7.000
G1 X-2.354 Y7.000
G1 X-2.354 Y-7.000
G1 X1.045 Y-7.000
G1 X1.045 Y0.000
G1 X0.645 Y0.000
G1 X0.645 Y6.600
G1 X-1.954 Y6.600
G1 X-1.954 Y-6.600
G1 X0.645 Y-6.600
G1 X0.645 Y0.000
G1 X0.245 Y0.000
G1 X0.245 Y6.200
G1 X-1.554 Y6.200
G1 X-1.554 Y-6.200
G1 X0.245 Y-6.200
G1 X0.245 Y0.000
G1 X-0.155 Y0.000
G1 X-0.155 Y5.800
G1 X-1.154 Y5.800
G1 X-1.154 Y-5.800
G1 X-0.155 Y-5.800
G1 X-0.155 Y0.000
G1 X-0.555 Y0.000
G1 X-0.555 Y5.400
G1 X-0.754 Y5.400
G1 X-0.754 Y-5.400
G1 X-0.555 Y-5.400
G1 X-0.555 Y0.000
G1 X-0.955 Y0.000
M9
G1 Z10.000
G1 X0.000 Y1.000
G1 Z1.100
M7
G4 P150
G1 X0.000 Y1.000 Z2.300
G1 X3.927 Y1.000
G1 X3.927 Y9.800
G1 X-4.760 Y9.800
G1 X-4.760 Y1.000
G1 X0.000 Y1.000
G1 X0.000 Y1.400
G1 X3.527 Y1.400
G1 X3.527 Y9.400
G1 X-4.360 Y9.400
G1 X-4.360 Y1.400
G1 X-0.000 Y1.400
G1 X0.000 Y1.800
G1 X3.127 Y1.800
G1 X3.127 Y9.000
G1 X-3.960 Y9.000
G1 X-3.960 Y1.800
G1 X0.000 Y1.800
G1 X0.000 Y2.200
G1 X2.727 Y2.200
G1 X2.727 Y8.600
G1 X-3.560 Y8.600
G1 X-3.560 Y2.200
G1 X-0.000 Y2.200
G1 X0.000 Y2.600
G1 X2.327 Y2.600
G1 X2.327 Y8.200
G1 X-3.160 Y8.200
G1 X-3.160 Y2.600
G1 X0.000 Y2.600
G1 X0.000 Y3.000
G1 X1.927 Y3.000
G1 X1.927 Y7.800
G1 X-2.760 Y7.800
G1 X-2.760 Y3.000
G1 X-0.000 Y3.000
G1 X0.000 Y3.400
G1 X1.527 Y3.400
G1 X1.527 Y7.400
G1 X-2.360 Y7.400
G1 X-2.360 Y3.400
G1 X0.000 Y3.400
G1 X0.000 Y3.800
G1 X1.127 Y3.800
G1 X1.127 Y7.000
G1 X-1.960 Y7.000
G1 X-1.960 Y3.800
G1 X0.000 Y3.800
G1 X0.000 Y4.200
G1 X0.727 Y4.200
G1 X0.727 Y6.600
G1 X-1.560 Y6.600
G1 X-1.560 Y4.200
G1 X0.000 Y4.200
G1 X0.000 Y4.600
G1 X0.327 Y4.600
G1 X0.327 Y6.200
G1 X-1.160 Y6.200
G1 X-1.160 Y4.600
G1 X0.000 Y4.600
G1 X0.000 Y5.000
G1 X0.000 Y5.000 Z2.700
G1 X0.000 Y5.000
G1 X0.000 Y4.600
G1 X-0.859 Y4.600
G1 X-0.859 Y6.200
G1 X0.453 Y6.200
G1 X0.453 Y4.600
G1 X0.000 Y4.600
G1 X0.000 Y4.200
G1 X-1.259 Y4.200
G1 X-1.259 Y6.600
G1 X0.853 Y6.600
G1 X0.853 Y4.200
G1 X0.000 Y4.200
G1 X0.000 Y3.800
G1 X-1.659 Y3.800
G1 X-1.659 Y7.000
G1 X1.253 Y7.000
G1 X1.253 Y3.800
G1 X0.000 Y3.800
G1 X0.000 Y3.400
G1 X-2.059 Y3.400
G1 X-2.059 Y7.400
G1 X1.653 Y7.400
G1 X1.653 Y3.400
G1 X0.000 Y3.400
G1 X0.000 Y3.000
G1 X-2.459 Y3.000
G1 X-2.459 Y7.800
G1 X2.053 Y7.800
G1 X2.053 Y3.000
G1 X0.000 Y3.000
G1 X-0.000 Y2.600
G1 X-2.859 Y2.600
G1 X-2.859 Y8.200
G1 X2.453 Y8.200
G1 X2.453 Y2.600
G1 X0.000 Y2.600
G1 X0.000 Y2.200
G1 X-3.259 Y2.200
G1 X-3.259 Y8.600
G1 X2.853 Y8.600
G1 X2.853 Y2.200
G1 X0.000 Y2.200
G1 X-0.000 Y1.800
G1 X-3.659 Y1.800
G1 X-3.659 Y9.000
G1 X3.253 Y9.000
G1 X3.253 Y1.800
G1 X0.000 Y1.800
G1 X0.000 Y1.400
G1 X-4.059 Y1.400
G1 X-4.059 Y9.400
G1 X3.653 Y9.400
G1 X3.653 Y1.400
G1 X0.000 Y1.400
G1 X0.000 Y1.000
G1 X-4.459 Y1.000
G1 X-4.459 Y9.800
G1 X4.053 Y9.800
G1 X4.053 Y1.000
G1 X0.000 Y1.000 Z2.700
M9
G1 Z10.000
G1 X0.000 Y-1.000
G1 Z1.100
M7
G4 P150
G1 X0.000 Y-1.000 Z2.300
G1 X-4.760 Y-1.000
G1 X-4.760 Y-9.800
G1 X3.927 Y-9.800
G1 X3.927 Y-1.000
G1 X-0.000 Y-1.000
G1 X0.000 Y-1.400
G1 X-4.360 Y-1.400
G1 X-4.360 Y-9.400
G1 X3.527 Y-9.400
G1 X3.527 Y-1.400
G1 X0.000 Y-1.400
G1 X0.000 Y-1.800
G1 X-3.960 Y-1.800
G1 X-3.960 Y-9.000
G1 X3.127 Y-9.000
G1 X3.127 Y-1.800
G1 X-0.000 Y-1.800
G1 X0.000 Y-2.200
G1 X-3.560 Y-2.200
G1 X-3.560 Y-8.600
G1 X2.727 Y-8.600
G1 X2.727 Y-2.200
G1 X0.000 Y-2.200
G1 X0.000 Y-2.600
G1 X-3.160 Y-2.600
G1 X-3.160 Y-8.200
G1 X2.327 Y-8.200
G1 X2.327 Y-2.600
G1 X-0.000 Y-2.600
G1 X0.000 Y-3.000
G1 X-2.760 Y-3.000
G1 X-2.760 Y-7.800
G1 X1.927 Y-7.800
G1 X1.927 Y-3.000
G1 X0.000 Y-3.000
G1 X0.000 Y-3.400
G1 X-2.360 Y-3.400
G1 X-2.360 Y-7.400
G1 X1.527 Y-7.400
G1 X1.527 Y-3.400
G1 X0.000 Y-3.400
G1 X0.000 Y-3.800
G1 X-1.960 Y-3.800
G1 X-1.960 Y-7.000
G1 X1.127 Y-7.000
G1 X1.127 Y-3.800
G1 X0.000 Y-3.800
G1 X0.000 Y-4.200
G1 X-1.560 Y-4.200
G1 X-1.560 Y-6.600
G1 X0.727 Y-6.600
G1 X0.727 Y-4.200
G1 X0.000 Y-4.200
G1 X0.000 Y-4.600
G1 X-1.160 Y-4.600
G1 X-1.160 Y-6.200
G1 X0.327 Y-6.200
G1 X0.327 Y-4.600
G1 X0.000 Y-4.600
G1 X0.000 Y-5.000
G1 X0.000 Y-5.000 Z2.700
G1 X0.000 Y-5.000
G1 X0.000 Y-4.600
G1 X0.453 Y-4.600
G1 X0.453 Y-6.200
G1 X-0.859 Y-6.200
G1 X-0.859 Y-4.600
G1 X0.000 Y-4.600
G1 X0.000 Y-4.200
G1 X0.853 Y-4.200
G1 X0.853 Y-6.600
G1 X-1.259 Y-6.600
G1 X-1.259 Y-4.200
G1 X0.000 Y-4.200
G1 X0.000 Y-3.800
G1 X1.253 Y-3.800
G1 X1.253 Y-7.000
G1 X-1.659 Y-7.000
G1 X-1.659 Y-3.800
G1 X0.000 Y-3.800
G1 X0.000 Y-3.400
G1 X1.653 Y-3.400
G1 X1.653 Y-7.400
G1 X-2.059 Y-7.400
G1 X-2.059 Y-3.400
G1 X0.000 Y-3.400
G1 X-0.000 Y-3.000
G1 X2.053 Y-3.000
G1 X2.053 Y-7.800
G1 X-2.459 Y-7.800
G1 X-2.459 Y-3.000
G1 X0.000 Y-3.000
G1 X0.000 Y-2.600
G1 X2.453 Y-2.600
G1 X2.453 Y-8.200
G1 X-2.859 Y-8.200
G1 X-2.859 Y-2.600
G1 X0.000 Y-2.600
G1 X-0.000 Y-2.200
G1 X2.853 Y-2.200
G1 X2.853 Y-8.600
G1 X-3.259 Y-8.600
G1 X-3.259 Y-2.200
G1 X0.000 Y-2.200
G1 X0.000 Y-1.800
G1 X3.253 Y-1.800
G1 X3.253 Y-9.000
G1 X-3.659 Y-9.000
G1 X-3.659 Y-1.800
G1 X0.000 Y-1.800
G1 X-0.000 Y-1.400
G1 X3.653 Y-1.400
G1 X3.653 Y-9.400
G1 X-4.059 Y-9.400
G1 X-4.059 Y-1.400
G1 X0.000 Y-1.400
G1 X0.000 Y-1.000
G1 X4.053 Y-1.000
G1 X4.053 Y-9.800
G1 X-4.459 Y-9.800
G1 X-4.459 Y-1.000
G1 X0.000 Y-1.000 Z2.700

;Finish
M9
G1 Z10.000
G28 X-100 Y-100;Home