;layer_height = 0.4
;line_width = 0.4
;layer_count = 10
;mesh = base_double_together_thin
G21 ;start of the code
G1 Z15 F300
G28 X0 Y0 ;Home
G92 X0 Y0 ;Consider this as current
G0 X50 Y50 F3000 ;Go-to Offset
G92 X0 Y0 ;Reset

G0 F3600 X-17.000 Y0.000 Z0.300 ;Go to start position
M7
G4 P150


G1 X-16.800 Y0.000 Z0.300 F1800
G1 X-16.800 Y-9.800
G1 X-5.750 Y-9.800
G1 X-5.750 Y9.800
G1 X-16.800 Y9.800
G1 X-16.800 Y0.000
G1 X-16.400 Y0.000
G1 X-16.400 Y-9.400
G1 X-6.150 Y-9.400
G1 X-6.150 Y9.400
G1 X-16.400 Y9.400
G1 X-16.400 Y0.000
G1 X-16.000 Y0.000
G1 X-16.000 Y-9.000
G1 X-6.550 Y-9.000
G1 X-6.550 Y9.000
G1 X-16.000 Y9.000
G1 X-16.000 Y0.000
G1 X-15.600 Y0.000
G1 X-15.600 Y-8.600
G1 X-6.950 Y-8.600
G1 X-6.950 Y8.600
G1 X-15.600 Y8.600
G1 X-15.600 Y0.000
G1 X-15.200 Y0.000
G1 X-15.200 Y-8.200
G1 X-7.350 Y-8.200
G1 X-7.350 Y8.200
G1 X-15.200 Y8.200
G1 X-15.200 Y0.000
G1 X-14.800 Y0.000
G1 X-14.800 Y-7.800
G1 X-7.750 Y-7.800
G1 X-7.750 Y7.800
G1 X-14.800 Y7.800
G1 X-14.800 Y0.000
G1 X-14.400 Y0.000
G1 X-14.400 Y-7.400
G1 X-8.150 Y-7.400
G1 X-8.150 Y7.400
G1 X-14.400 Y7.400
G1 X-14.400 Y0.000
G1 X-14.000 Y0.000
G1 X-14.000 Y-7.000
G1 X-8.550 Y-7.000
G1 X-8.550 Y7.000
G1 X-14.000 Y7.000
G1 X-14.000 Y0.000
G1 X-13.600 Y0.000
G1 X-13.600 Y-6.600
G1 X-8.950 Y-6.600
G1 X-8.950 Y6.600
G1 X-13.600 Y6.600
G1 X-13.600 Y0.000
G1 X-13.200 Y0.000
G1 X-13.200 Y-6.200
G1 X-9.350 Y-6.200
G1 X-9.350 Y6.200
G1 X-13.200 Y6.200
G1 X-13.200 Y0.000
G1 X-12.800 Y0.000
G1 X-12.800 Y-5.800
G1 X-9.750 Y-5.800
G1 X-9.750 Y5.800
G1 X-12.800 Y5.800
G1 X-12.800 Y0.000
G1 X-12.400 Y0.000
G1 X-12.400 Y-5.400
G1 X-10.150 Y-5.400
G1 X-10.150 Y5.400
G1 X-12.400 Y5.400
G1 X-12.400 Y0.000
G1 X-12.000 Y0.000
G1 X-12.000 Y-5.000
G1 X-10.550 Y-5.000
G1 X-10.550 Y5.000
G1 X-12.000 Y5.000
G1 X-12.000 Y0.000
G1 X-11.600 Y0.000
G1 X-11.600 Y-4.600
G1 X-10.950 Y-4.600
G1 X-10.950 Y4.600
G1 X-11.600 Y4.600
G1 X-11.600 Y0.000
G1 X-11.200 Y0.000
M9
G1 Z10.000
G1 X-4.600 Y0.000
G1 Z0.300
M7
G4 P150
G1 X-4.850 Y0.000 Z0.300
G1 X-4.850 Y-9.800
G1 X4.850 Y-9.800
G1 X4.850 Y9.800
G1 X-4.850 Y9.800
G1 X-4.850 Y0.000
G1 X-4.450 Y0.000
G1 X-4.450 Y-9.400
G1 X4.450 Y-9.400
G1 X4.450 Y9.400
G1 X-4.450 Y9.400
G1 X-4.450 Y0.000
G1 X-4.050 Y0.000
G1 X-4.050 Y-9.000
G1 X4.050 Y-9.000
G1 X4.050 Y9.000
G1 X-4.050 Y9.000
G1 X-4.050 Y0.000
G1 X-3.650 Y0.000
G1 X-3.650 Y-8.600
G1 X3.650 Y-8.600
G1 X3.650 Y8.600
G1 X-3.650 Y8.600
G1 X-3.650 Y0.000
G1 X-3.250 Y0.000
G1 X-3.250 Y-8.200
G1 X3.250 Y-8.200
G1 X3.250 Y8.200
G1 X-3.250 Y8.200
G1 X-3.250 Y0.000
G1 X-2.850 Y0.000
G1 X-2.850 Y-7.800
G1 X2.850 Y-7.800
G1 X2.850 Y7.800
G1 X-2.850 Y7.800
G1 X-2.850 Y0.000
G1 X-2.450 Y0.000
G1 X-2.450 Y-7.400
G1 X2.450 Y-7.400
G1 X2.450 Y7.400
G1 X-2.450 Y7.400
G1 X-2.450 Y0.000
G1 X-2.050 Y0.000
G1 X-2.050 Y-7.000
G1 X2.050 Y-7.000
G1 X2.050 Y7.000
G1 X-2.050 Y7.000
G1 X-2.050 Y0.000
G1 X-1.650 Y0.000
G1 X-1.650 Y-6.600
G1 X1.650 Y-6.600
G1 X1.650 Y6.600
G1 X-1.650 Y6.600
G1 X-1.650 Y0.000
G1 X-1.250 Y0.000
G1 X-1.250 Y-6.200
G1 X1.250 Y-6.200
G1 X1.250 Y6.200
G1 X-1.250 Y6.200
G1 X-1.250 Y0.000
G1 X-0.850 Y0.000
G1 X-0.850 Y-5.800
G1 X0.850 Y-5.800
G1 X0.850 Y5.800
G1 X-0.850 Y5.800
G1 X-0.850 Y0.000
G1 X-0.450 Y0.000
G1 X-0.450 Y-5.400
G1 X0.450 Y-5.400
G1 X0.450 Y5.400
G1 X-0.450 Y5.400
G1 X-0.450 Y0.000
G1 X-0.050 Y0.000
G1 X-0.050 Y-5.000
G1 X0.050 Y-5.000
G1 X0.050 Y5.000
G1 X-0.050 Y5.000
G1 X-0.050 Y0.000
G1 X0.350 Y0.000
M9
G1 Z10.000
G1 X17.000 Y0.000
G1 Z0.300
M7
G4 P150
G1 X16.800 Y0.000 Z0.300
G1 X16.800 Y9.800
G1 X5.750 Y9.800
G1 X5.750 Y-9.800
G1 X16.800 Y-9.800
G1 X16.800 Y0.000
G1 X16.400 Y0.000
G1 X16.400 Y9.400
G1 X6.150 Y9.400
G1 X6.150 Y-9.400
G1 X16.400 Y-9.400
G1 X16.400 Y0.000
G1 X16.000 Y0.000
G1 X16.000 Y9.000
G1 X6.550 Y9.000
G1 X6.550 Y-9.000
G1 X16.000 Y-9.000
G1 X16.000 Y0.000
G1 X15.600 Y0.000
G1 X15.600 Y8.600
G1 X6.950 Y8.600
G1 X6.950 Y-8.600
G1 X15.600 Y-8.600
G1 X15.600 Y0.000
G1 X15.200 Y0.000
G1 X15.200 Y8.200
G1 X7.350 Y8.200
G1 X7.350 Y-8.200
G1 X15.200 Y-8.200
G1 X15.200 Y0.000
G1 X14.800 Y0.000
G1 X14.800 Y7.800
G1 X7.750 Y7.800
G1 X7.750 Y-7.800
G1 X14.800 Y-7.800
G1 X14.800 Y0.000
G1 X14.400 Y0.000
G1 X14.400 Y7.400
G1 X8.150 Y7.400
G1 X8.150 Y-7.400
G1 X14.400 Y-7.400
G1 X14.400 Y0.000
G1 X14.000 Y0.000
G1 X14.000 Y7.000
G1 X8.550 Y7.000
G1 X8.550 Y-7.000
G1 X14.000 Y-7.000
G1 X14.000 Y0.000
G1 X13.600 Y0.000
G1 X13.600 Y6.600
G1 X8.950 Y6.600
G1 X8.950 Y-6.600
G1 X13.600 Y-6.600
G1 X13.600 Y0.000
G1 X13.200 Y0.000
G1 X13.200 Y6.200
G1 X9.350 Y6.200
G1 X9.350 Y-6.200
G1 X13.200 Y-6.200
G1 X13.200 Y0.000
G1 X12.800 Y0.000
G1 X12.800 Y5.800
G1 X9.750 Y5.800
G1 X9.750 Y-5.800
G1 X12.800 Y-5.800
G1 X12.800 Y0.000
G1 X12.400 Y0.000
G1 X12.400 Y5.400
G1 X10.150 Y5.400
G1 X10.150 Y-5.400
G1 X12.400 Y-5.400
G1 X12.400 Y0.000
G1 X12.000 Y0.000
G1 X12.000 Y5.000
G1 X10.550 Y5.000
G1 X10.550 Y-5.000
G1 X12.000 Y-5.000
G1 X12.000 Y0.000
G1 X11.600 Y0.000
G1 X11.600 Y4.600
G1 X10.950 Y4.600
G1 X10.950 Y-4.600
G1 X11.600 Y-4.600
G1 X11.600 Y0.000
G1 X11.200 Y0.000
M9
G1 Z10.000
G1 X-17.000 Y-10.000
G1 Z0.700
M7
G4 P150
G1 X16.800 Y-9.800
G1 X16.800 Y-9.400
G4 P5
G1 X-16.800 Y-9.400
G4 P5
G1 X-16.800 Y-9.000
G4 P5
G1 X16.800 Y-9.000
G4 P5
G1 X16.800 Y-8.600
G4 P5
G1 X-16.800 Y-8.600
G4 P5
G1 X-16.800 Y-8.200
G4 P5
G1 X16.800 Y-8.200
G4 P5
G1 X16.800 Y-7.800
G4 P5
G1 X-16.800 Y-7.800
G4 P5
G1 X-16.800 Y-7.400
G4 P5
G1 X16.800 Y-7.400
G4 P5
G1 X16.800 Y-7.000
G4 P5
G1 X-16.800 Y-7.000
G4 P5
G1 X-16.800 Y-6.600
G4 P5
G1 X16.800 Y-6.600
G4 P5
G1 X16.800 Y-6.200
G4 P5
G1 X-16.800 Y-6.200
G4 P5
G1 X-16.800 Y-5.800
G4 P5
G1 X16.800 Y-5.800
G4 P5
G1 X16.800 Y-5.400
G4 P5
G1 X-16.800 Y-5.400
G4 P5
G1 X-16.800 Y-5.000
G4 P5
G1 X16.800 Y-5.000
G4 P5
G1 X16.800 Y-4.600
G4 P5
G1 X-16.800 Y-4.600
G4 P5
G1 X-16.800 Y-4.200
G4 P5
G1 X16.800 Y-4.200
G4 P5
G1 X16.800 Y-3.800
G4 P5
G1 X-16.800 Y-3.800
G4 P5
G1 X-16.800 Y-3.400
G4 P5
G1 X16.800 Y-3.400
G4 P5
G1 X16.800 Y-3.000
G4 P5
G1 X-16.800 Y-3.000
G4 P5
G1 X-16.800 Y-2.600
G4 P5
G1 X16.800 Y-2.600
G4 P5
G1 X16.800 Y-2.200
G4 P5
G1 X-16.800 Y-2.200
G4 P5
G1 X-16.800 Y-1.800
G4 P5
G1 X16.800 Y-1.800
G4 P5
G1 X16.800 Y-1.400
G4 P5
G1 X-16.800 Y-1.400
G4 P5
G1 X-16.800 Y-1.000
G4 P5
G1 X16.800 Y-1.000
G4 P5
G1 X16.800 Y-0.600
G4 P5
G1 X-16.800 Y-0.600
G4 P5
G1 X-16.800 Y-0.200
G4 P5
G1 X16.800 Y-0.200
G4 P5
G1 X16.800 Y0.200
G4 P5
G1 X-16.800 Y0.200
G4 P5
G1 X-16.800 Y0.600
G4 P5
G1 X16.800 Y0.600
G4 P5
G1 X16.800 Y1.000
G4 P5
G1 X-16.800 Y1.000
G4 P5
G1 X-16.800 Y1.400
G4 P5
G1 X16.800 Y1.400
G4 P5
G1 X16.800 Y1.800
G4 P5
G1 X-16.800 Y1.800
G4 P5
G1 X-16.800 Y2.200
G4 P5
G1 X16.800 Y2.200
G4 P5
G1 X16.800 Y2.600
G4 P5
G1 X-16.800 Y2.600
G4 P5
G1 X-16.800 Y3.000
G4 P5
G1 X16.800 Y3.000
G4 P5
G1 X16.800 Y3.400
G4 P5
G1 X-16.800 Y3.400
G4 P5
G1 X-16.800 Y3.800
G4 P5
G1 X16.800 Y3.800
G4 P5
G1 X16.800 Y4.200
G4 P5
G1 X-16.800 Y4.200
G4 P5
G1 X-16.800 Y4.600
G4 P5
G1 X16.800 Y4.600
G4 P5
G1 X16.800 Y5.000
G4 P5
G1 X-16.800 Y5.000
G4 P5
G1 X-16.800 Y5.400
G4 P5
G1 X16.800 Y5.400
G4 P5
G1 X16.800 Y5.800
G4 P5
G1 X-16.800 Y5.800
G4 P5
G1 X-16.800 Y6.200
G4 P5
G1 X16.800 Y6.200
G4 P5
G1 X16.800 Y6.600
G4 P5
G1 X-16.800 Y6.600
G4 P5
G1 X-16.800 Y7.000
G4 P5
G1 X16.800 Y7.000
G4 P5
G1 X16.800 Y7.400
G4 P5
G1 X-16.800 Y7.400
G4 P5
G1 X-16.800 Y7.800
G4 P5
G1 X16.800 Y7.800
G4 P5
G1 X16.800 Y8.200
G4 P5
G1 X-16.800 Y8.200
G4 P5
G1 X-16.800 Y8.600
G4 P5
G1 X16.800 Y8.600
G4 P5
G1 X16.800 Y9.000
G4 P5
G1 X-16.800 Y9.000
G4 P5
G1 X-16.800 Y9.400
G4 P5
G1 X16.800 Y9.400
G4 P5
G1 X16.800 Y9.800
G4 P5
G1 X-16.800 Y9.800
G4 P5
M9
G1 Z10.000
G1 X-17.000 Y0.000
M0
G1 Z1.100
M7
G4 P150
G1 X-16.800 Y0.000 Z1.100 
G1 X-16.800 Y-9.800
G1 X-7.249 Y-9.800
G1 X-7.249 Y9.800
G1 X-16.800 Y9.800
G1 X-16.800 Y0.000
G1 X-16.400 Y0.000
G1 X-16.400 Y-9.400
G1 X-7.649 Y-9.400
G1 X-7.649 Y9.400
G1 X-16.400 Y9.400
G1 X-16.400 Y0.000
G1 X-16.000 Y0.000
G1 X-16.000 Y-9.000
G1 X-8.049 Y-9.000
G1 X-8.049 Y9.000
G1 X-16.000 Y9.000
G1 X-16.000 Y0.000
G1 X-15.600 Y0.000
G1 X-15.600 Y-8.600
G1 X-8.449 Y-8.600
G1 X-8.449 Y8.600
G1 X-15.600 Y8.600
G1 X-15.600 Y0.000
G1 X-15.200 Y0.000
G1 X-15.200 Y-8.200
G1 X-8.849 Y-8.200
G1 X-8.849 Y8.200
G1 X-15.200 Y8.200
G1 X-15.200 Y0.000
G1 X-14.800 Y0.000
G1 X-14.800 Y-7.800
G1 X-9.249 Y-7.800
G1 X-9.249 Y7.800
G1 X-14.800 Y7.800
G1 X-14.800 Y0.000
G1 X-14.400 Y0.000
G1 X-14.400 Y-7.400
G1 X-9.649 Y-7.400
G1 X-9.649 Y7.400
G1 X-14.400 Y7.400
G1 X-14.400 Y0.000
G1 X-14.000 Y0.000
G1 X-14.000 Y-7.000
G1 X-10.049 Y-7.000
G1 X-10.049 Y7.000
G1 X-14.000 Y7.000
G1 X-14.000 Y0.000
G1 X-13.600 Y0.000
G1 X-13.600 Y-6.600
G1 X-10.449 Y-6.600
G1 X-10.449 Y6.600
G1 X-13.600 Y6.600
G1 X-13.600 Y0.000
G1 X-13.200 Y0.000
G1 X-13.200 Y-6.200
G1 X-10.849 Y-6.200
G1 X-10.849 Y6.200
G1 X-13.200 Y6.200
G1 X-13.200 Y0.000
G1 X-12.800 Y0.000
G1 X-12.800 Y-5.800
G1 X-11.249 Y-5.800
G1 X-11.249 Y5.800
G1 X-12.800 Y5.800
G1 X-12.800 Y0.000
G1 X-12.400 Y0.000
G1 X-12.400 Y-5.400
G1 X-11.649 Y-5.400
G1 X-11.649 Y5.400
G1 X-12.400 Y5.400
G1 X-12.400 Y0.000
G1 X-12.000 Y0.000
G1 X-12.400 Y0.000 Z1.500
G1 X-12.400 Y0.000
G1 X-12.800 Y0.000
G1 X-12.800 Y5.800
G1 X-12.107 Y5.800
G1 X-12.107 Y-5.800
G1 X-12.800 Y-5.800
G1 X-12.800 Y0.000
G1 X-13.200 Y0.000
G1 X-13.200 Y6.200
G1 X-11.707 Y6.200
G1 X-11.707 Y-6.200
G1 X-13.200 Y-6.200
G1 X-13.200 Y0.000
G1 X-13.600 Y0.000
G1 X-13.600 Y6.600
G1 X-11.307 Y6.600
G1 X-11.307 Y-6.600
G1 X-13.600 Y-6.600
G1 X-13.600 Y0.000
G1 X-14.000 Y0.000
G1 X-14.000 Y7.000
G1 X-10.907 Y7.000
G1 X-10.907 Y-7.000
G1 X-14.000 Y-7.000
G1 X-14.000 Y0.000
G1 X-14.400 Y0.000
G1 X-14.400 Y7.400
G1 X-10.507 Y7.400
G1 X-10.507 Y-7.400
G1 X-14.400 Y-7.400
G1 X-14.400 Y0.000
G1 X-14.800 Y0.000
G1 X-14.800 Y7.800
G1 X-10.107 Y7.800
G1 X-10.107 Y-7.800
G1 X-14.800 Y-7.800
G1 X-14.800 Y0.000
G1 X-15.200 Y0.000
G1 X-15.200 Y8.200
G1 X-9.707 Y8.200
G1 X-9.707 Y-8.200
G1 X-15.200 Y-8.200
G1 X-15.200 Y0.000
G1 X-15.600 Y0.000
G1 X-15.600 Y8.600
G1 X-9.307 Y8.600
G1 X-9.307 Y-8.600
G1 X-15.600 Y-8.600
G1 X-15.600 Y0.000
G1 X-16.000 Y0.000
G1 X-16.000 Y9.000
G1 X-8.907 Y9.000
G1 X-8.907 Y-9.000
G1 X-16.000 Y-9.000
G1 X-16.000 Y0.000
G1 X-16.400 Y0.000
G1 X-16.400 Y9.400
G1 X-8.507 Y9.400
G1 X-8.507 Y-9.400
G1 X-16.400 Y-9.400
G1 X-16.400 Y0.000
G1 X-16.800 Y0.000
G1 X-16.800 Y9.800
G1 X-8.107 Y9.800
G1 X-8.107 Y-9.800
G1 X-16.800 Y-9.800
G1 X-16.800 Y0.000 Z1.500
G1 X-16.800 Y0.000 Z1.900
G1 X-16.800 Y-9.800
G1 X-8.646 Y-9.800
G1 X-8.646 Y9.800
G1 X-16.800 Y9.800
G1 X-16.800 Y0.000
G1 X-16.400 Y0.000
G1 X-16.400 Y-9.400
G1 X-9.046 Y-9.400
G1 X-9.046 Y9.400
G1 X-16.400 Y9.400
G1 X-16.400 Y0.000
G1 X-16.000 Y0.000
G1 X-16.000 Y-9.000
G1 X-9.446 Y-9.000
G1 X-9.446 Y9.000
G1 X-16.000 Y9.000
G1 X-16.000 Y0.000
G1 X-15.600 Y0.000
G1 X-15.600 Y-8.600
G1 X-9.846 Y-8.600
G1 X-9.846 Y8.600
G1 X-15.600 Y8.600
G1 X-15.600 Y0.000
G1 X-15.200 Y0.000
G1 X-15.200 Y-8.200
G1 X-10.246 Y-8.200
G1 X-10.246 Y8.200
G1 X-15.200 Y8.200
G1 X-15.200 Y0.000
G1 X-14.800 Y0.000
G1 X-14.800 Y-7.800
G1 X-10.646 Y-7.800
G1 X-10.646 Y7.800
G1 X-14.800 Y7.800
G1 X-14.800 Y0.000
G1 X-14.400 Y0.000
G1 X-14.400 Y-7.400
G1 X-11.046 Y-7.400
G1 X-11.046 Y7.400
G1 X-14.400 Y7.400
G1 X-14.400 Y0.000
G1 X-14.000 Y0.000
G1 X-14.000 Y-7.000
G1 X-11.446 Y-7.000
G1 X-11.446 Y7.000
G1 X-14.000 Y7.000
G1 X-14.000 Y0.000
G1 X-13.600 Y0.000
G1 X-13.600 Y-6.600
G1 X-11.846 Y-6.600
G1 X-11.846 Y6.600
G1 X-13.600 Y6.600
G1 X-13.600 Y0.000
G1 X-13.200 Y0.000
G1 X-13.200 Y-6.200
G1 X-12.246 Y-6.200
G1 X-12.246 Y6.200
G1 X-13.200 Y6.200
G1 X-13.200 Y0.000
G1 X-12.800 Y0.000
G1 X-12.800 Y-5.800
G1 X-12.646 Y-5.800
G1 X-12.646 Y5.800
G1 X-12.800 Y5.800
G1 X-12.800 Y0.000
G1 X-12.400 Y0.000
G1 X-12.800 Y0.000 Z2.300
G1 X-12.800 Y0.000
G1 X-13.200 Y0.000
G1 X-13.200 Y6.200
G1 X-12.640 Y6.200
G1 X-12.640 Y-6.200
G1 X-13.200 Y-6.200
G1 X-13.200 Y0.000
G1 X-13.600 Y0.000
G1 X-13.600 Y6.600
G1 X-12.240 Y6.600
G1 X-12.240 Y-6.600
G1 X-13.600 Y-6.600
G1 X-13.600 Y0.000
G1 X-14.000 Y0.000
G1 X-14.000 Y7.000
G1 X-11.840 Y7.000
G1 X-11.840 Y-7.000
G1 X-14.000 Y-7.000
G1 X-14.000 Y0.000
G1 X-14.400 Y0.000
G1 X-14.400 Y7.400
G1 X-11.440 Y7.400
G1 X-11.440 Y-7.400
G1 X-14.400 Y-7.400
G1 X-14.400 Y0.000
G1 X-14.800 Y0.000
G1 X-14.800 Y7.800
G1 X-11.040 Y7.800
G1 X-11.040 Y-7.800
G1 X-14.800 Y-7.800
G1 X-14.800 Y0.000
G1 X-15.200 Y0.000
G1 X-15.200 Y8.200
G1 X-10.640 Y8.200
G1 X-10.640 Y-8.200
G1 X-15.200 Y-8.200
G1 X-15.200 Y0.000
G1 X-15.600 Y0.000
G1 X-15.600 Y8.600
G1 X-10.240 Y8.600
G1 X-10.240 Y-8.600
G1 X-15.600 Y-8.600
G1 X-15.600 Y0.000
G1 X-16.000 Y0.000
G1 X-16.000 Y9.000
G1 X-9.840 Y9.000
G1 X-9.840 Y-9.000
G1 X-16.000 Y-9.000
G1 X-16.000 Y0.000
G1 X-16.400 Y0.000
G1 X-16.400 Y9.400
G1 X-9.440 Y9.400
G1 X-9.440 Y-9.400
G1 X-16.400 Y-9.400
G1 X-16.400 Y0.000
G1 X-16.800 Y0.000
G1 X-16.800 Y9.800
G1 X-9.040 Y9.800
G1 X-9.040 Y-9.800
G1 X-16.800 Y-9.800
G1 X-16.800 Y0.000 Z2.300
G1 X-16.800 Y0.000 Z2.700
G1 X-16.800 Y-9.800
G1 X-9.341 Y-9.800
G1 X-9.341 Y9.800
G1 X-16.800 Y9.800
G1 X-16.800 Y0.000
G1 X-16.400 Y0.000
G1 X-16.400 Y-9.400
G1 X-9.741 Y-9.400
G1 X-9.741 Y9.400
G1 X-16.400 Y9.400
G1 X-16.400 Y0.000
G1 X-16.000 Y0.000
G1 X-16.000 Y-9.000
G1 X-10.141 Y-9.000
G1 X-10.141 Y9.000
G1 X-16.000 Y9.000
G1 X-16.000 Y0.000
G1 X-15.600 Y0.000
G1 X-15.600 Y-8.600
G1 X-10.541 Y-8.600
G1 X-10.541 Y8.600
G1 X-15.600 Y8.600
G1 X-15.600 Y0.000
G1 X-15.200 Y0.000
G1 X-15.200 Y-8.200
G1 X-10.941 Y-8.200
G1 X-10.941 Y8.200
G1 X-15.200 Y8.200
G1 X-15.200 Y0.000
G1 X-14.800 Y0.000
G1 X-14.800 Y-7.800
G1 X-11.341 Y-7.800
G1 X-11.341 Y7.800
G1 X-14.800 Y7.800
G1 X-14.800 Y0.000
G1 X-14.400 Y0.000
G1 X-14.400 Y-7.400
G1 X-11.741 Y-7.400
G1 X-11.741 Y7.400
G1 X-14.400 Y7.400
G1 X-14.400 Y0.000
G1 X-14.000 Y0.000
G1 X-14.000 Y-7.000
G1 X-12.141 Y-7.000
G1 X-12.141 Y7.000
G1 X-14.000 Y7.000
G1 X-14.000 Y0.000
G1 X-13.600 Y0.000
G1 X-13.600 Y-6.600
G1 X-12.541 Y-6.600
G1 X-12.541 Y6.600
G1 X-13.600 Y6.600
G1 X-13.600 Y0.000
G1 X-13.200 Y0.000
G1 X-13.200 Y-6.200
G1 X-12.941 Y-6.200
G1 X-12.941 Y6.200
G1 X-13.200 Y6.200
G1 X-13.200 Y0.000
G1 X-12.800 Y0.000
G1 X-12.800 Y0.000 Z3.100
G1 X-12.800 Y0.000
G1 X-13.200 Y0.000
G1 X-13.200 Y6.200
G1 X-13.172 Y6.200
G1 X-13.172 Y-6.200
G1 X-13.200 Y-6.200
G1 X-13.200 Y0.000
G1 X-13.600 Y0.000
G1 X-13.600 Y6.600
G1 X-12.772 Y6.600
G1 X-12.772 Y-6.600
G1 X-13.600 Y-6.600
G1 X-13.600 Y0.000
G1 X-14.000 Y0.000
G1 X-14.000 Y7.000
G1 X-12.372 Y7.000
G1 X-12.372 Y-7.000
G1 X-14.000 Y-7.000
G1 X-14.000 Y0.000
G1 X-14.400 Y0.000
G1 X-14.400 Y7.400
G1 X-11.972 Y7.400
G1 X-11.972 Y-7.400
G1 X-14.400 Y-7.400
G1 X-14.400 Y0.000
G1 X-14.800 Y0.000
G1 X-14.800 Y7.800
G1 X-11.572 Y7.800
G1 X-11.572 Y-7.800
G1 X-14.800 Y-7.800
G1 X-14.800 Y0.000
G1 X-15.200 Y0.000
G1 X-15.200 Y8.200
G1 X-11.172 Y8.200
G1 X-11.172 Y-8.200
G1 X-15.200 Y-8.200
G1 X-15.200 Y0.000
G1 X-15.600 Y0.000
G1 X-15.600 Y8.600
G1 X-10.772 Y8.600
G1 X-10.772 Y-8.600
G1 X-15.600 Y-8.600
G1 X-15.600 Y0.000
G1 X-16.000 Y0.000
G1 X-16.000 Y9.000
G1 X-10.372 Y9.000
G1 X-10.372 Y-9.000
G1 X-16.000 Y-9.000
G1 X-16.000 Y0.000
G1 X-16.400 Y0.000
G1 X-16.400 Y9.400
G1 X-9.972 Y9.400
G1 X-9.972 Y-9.400
G1 X-16.400 Y-9.400
G1 X-16.400 Y0.000
G1 X-16.800 Y0.000
G1 X-16.800 Y9.800
G1 X-9.572 Y9.800
G1 X-9.572 Y-9.800
G1 X-16.800 Y-9.800
G1 X-16.800 Y0.000 Z3.100
G1 X-16.800 Y0.000 Z3.500
G1 X-16.800 Y-9.800
G1 X-9.747 Y-9.800
G1 X-9.747 Y9.800
G1 X-16.800 Y9.800
G1 X-16.800 Y0.000
G1 X-16.400 Y0.000
G1 X-16.400 Y-9.400
G1 X-10.147 Y-9.400
G1 X-10.147 Y9.400
G1 X-16.400 Y9.400
G1 X-16.400 Y0.000
G1 X-16.000 Y0.000
G1 X-16.000 Y-9.000
G1 X-10.547 Y-9.000
G1 X-10.547 Y9.000
G1 X-16.000 Y9.000
G1 X-16.000 Y0.000
G1 X-15.600 Y0.000
G1 X-15.600 Y-8.600
G1 X-10.947 Y-8.600
G1 X-10.947 Y8.600
G1 X-15.600 Y8.600
G1 X-15.600 Y0.000
G1 X-15.200 Y0.000
G1 X-15.200 Y-8.200
G1 X-11.347 Y-8.200
G1 X-11.347 Y8.200
G1 X-15.200 Y8.200
G1 X-15.200 Y0.000
G1 X-14.800 Y0.000
G1 X-14.800 Y-7.800
G1 X-11.747 Y-7.800
G1 X-11.747 Y7.800
G1 X-14.800 Y7.800
G1 X-14.800 Y0.000
G1 X-14.400 Y0.000
G1 X-14.400 Y-7.400
G1 X-12.147 Y-7.400
G1 X-12.147 Y7.400
G1 X-14.400 Y7.400
G1 X-14.400 Y0.000
G1 X-14.000 Y0.000
G1 X-14.000 Y-7.000
G1 X-12.547 Y-7.000
G1 X-12.547 Y7.000
G1 X-14.000 Y7.000
G1 X-14.000 Y0.000
G1 X-13.600 Y0.000
G1 X-13.600 Y-6.600
G1 X-12.947 Y-6.600
G1 X-12.947 Y6.600
G1 X-13.600 Y6.600
G1 X-13.600 Y0.000
G1 X-13.200 Y0.000
G1 X-13.200 Y0.000 Z3.900
G1 X-13.200 Y0.000
G1 X-13.600 Y0.000
G1 X-13.600 Y6.600
G1 X-13.073 Y6.600
G1 X-13.073 Y-6.600
G1 X-13.600 Y-6.600
G1 X-13.600 Y0.000
G1 X-14.000 Y0.000
G1 X-14.000 Y7.000
G1 X-12.673 Y7.000
G1 X-12.673 Y-7.000
G1 X-14.000 Y-7.000
G1 X-14.000 Y0.000
G1 X-14.400 Y0.000
G1 X-14.400 Y7.400
G1 X-12.273 Y7.400
G1 X-12.273 Y-7.400
G1 X-14.400 Y-7.400
G1 X-14.400 Y0.000
G1 X-14.800 Y0.000
G1 X-14.800 Y7.800
G1 X-11.873 Y7.800
G1 X-11.873 Y-7.800
G1 X-14.800 Y-7.800
G1 X-14.800 Y0.000
G1 X-15.200 Y0.000
G1 X-15.200 Y8.200
G1 X-11.473 Y8.200
G1 X-11.473 Y-8.200
G1 X-15.200 Y-8.200
G1 X-15.200 Y0.000
G1 X-15.600 Y0.000
G1 X-15.600 Y8.600
G1 X-11.073 Y8.600
G1 X-11.073 Y-8.600
G1 X-15.600 Y-8.600
G1 X-15.600 Y0.000
G1 X-16.000 Y0.000
G1 X-16.000 Y9.000
G1 X-10.673 Y9.000
G1 X-10.673 Y-9.000
G1 X-16.000 Y-9.000
G1 X-16.000 Y0.000
G1 X-16.400 Y0.000
G1 X-16.400 Y9.400
G1 X-10.273 Y9.400
G1 X-10.273 Y-9.400
G1 X-16.400 Y-9.400
G1 X-16.400 Y0.000
G1 X-16.800 Y0.000
G1 X-16.800 Y9.800
G1 X-9.873 Y9.800
G1 X-9.873 Y-9.800
G1 X-16.800 Y-9.800
G1 X-16.800 Y0.000 Z3.900
G1 X-16.800 Y0.000 Z4.300
G1 X-16.800 Y-9.800
G1 X-9.955 Y-9.800
G1 X-9.955 Y9.800
G1 X-16.800 Y9.800
G1 X-16.800 Y0.000
G1 X-16.400 Y0.000
G1 X-16.400 Y-9.400
G1 X-10.355 Y-9.400
G1 X-10.355 Y9.400
G1 X-16.400 Y9.400
G1 X-16.400 Y0.000
G1 X-16.000 Y0.000
G1 X-16.000 Y-9.000
G1 X-10.755 Y-9.000
G1 X-10.755 Y9.000
G1 X-16.000 Y9.000
G1 X-16.000 Y0.000
G1 X-15.600 Y0.000
G1 X-15.600 Y-8.600
G1 X-11.155 Y-8.600
G1 X-11.155 Y8.600
G1 X-15.600 Y8.600
G1 X-15.600 Y0.000
G1 X-15.200 Y0.000
G1 X-15.200 Y-8.200
G1 X-11.555 Y-8.200
G1 X-11.555 Y8.200
G1 X-15.200 Y8.200
G1 X-15.200 Y0.000
G1 X-14.800 Y0.000
G1 X-14.800 Y-7.800
G1 X-11.955 Y-7.800
G1 X-11.955 Y7.800
G1 X-14.800 Y7.800
G1 X-14.800 Y0.000
G1 X-14.400 Y0.000
G1 X-14.400 Y-7.400
G1 X-12.355 Y-7.400
G1 X-12.355 Y7.400
G1 X-14.400 Y7.400
G1 X-14.400 Y0.000
G1 X-14.000 Y0.000
G1 X-14.000 Y-7.000
G1 X-12.755 Y-7.000
G1 X-12.755 Y7.000
G1 X-14.000 Y7.000
G1 X-14.000 Y0.000
G1 X-13.600 Y0.000
G1 X-13.600 Y-6.600
G1 X-13.155 Y-6.600
G1 X-13.155 Y6.600
G1 X-13.600 Y6.600
G1 X-13.600 Y0.000
G1 X-13.200 Y0.000
G1 X-13.200 Y0.000 Z4.700
G1 X-13.200 Y0.000
G1 X-13.600 Y0.000
G1 X-13.600 Y6.600
G1 X-13.195 Y6.600
G1 X-13.195 Y-6.600
G1 X-13.600 Y-6.600
G1 X-13.600 Y0.000
G1 X-14.000 Y0.000
G1 X-14.000 Y7.000
G1 X-12.795 Y7.000
G1 X-12.795 Y-7.000
G1 X-14.000 Y-7.000
G1 X-14.000 Y0.000
G1 X-14.400 Y0.000
G1 X-14.400 Y7.400
G1 X-12.395 Y7.400
G1 X-12.395 Y-7.400
G1 X-14.400 Y-7.400
G1 X-14.400 Y0.000
G1 X-14.800 Y0.000
G1 X-14.800 Y7.800
G1 X-11.995 Y7.800
G1 X-11.995 Y-7.800
G1 X-14.800 Y-7.800
G1 X-14.800 Y0.000
G1 X-15.200 Y0.000
G1 X-15.200 Y8.200
G1 X-11.595 Y8.200
G1 X-11.595 Y-8.200
G1 X-15.200 Y-8.200
G1 X-15.200 Y0.000
G1 X-15.600 Y0.000
G1 X-15.600 Y8.600
G1 X-11.195 Y8.600
G1 X-11.195 Y-8.600
G1 X-15.600 Y-8.600
G1 X-15.600 Y0.000
G1 X-16.000 Y0.000
G1 X-16.000 Y9.000
G1 X-10.795 Y9.000
G1 X-10.795 Y-9.000
G1 X-16.000 Y-9.000
G1 X-16.000 Y0.000
G1 X-16.400 Y0.000
G1 X-16.400 Y9.400
G1 X-10.395 Y9.400
G1 X-10.395 Y-9.400
G1 X-16.400 Y-9.400
G1 X-16.400 Y0.000
G1 X-16.800 Y0.000
G1 X-16.800 Y9.800
G1 X-9.995 Y9.800
G1 X-9.995 Y-9.800
G1 X-16.800 Y-9.800
G1 X-16.800 Y0.000 Z4.700
M9
G1 Z10.000
G1 X17.000 Y0.000
G1 Z1.100
M7
G4 P150
G1 X16.800 Y0.000 Z1.100
G1 X16.800 Y9.800
G1 X7.249 Y9.800
G1 X7.249 Y-9.800
G1 X16.800 Y-9.800
G1 X16.800 Y0.000
G1 X16.400 Y0.000
G1 X16.400 Y9.400
G1 X7.649 Y9.400
G1 X7.649 Y-9.400
G1 X16.400 Y-9.400
G1 X16.400 Y0.000
G1 X16.000 Y0.000
G1 X16.000 Y9.000
G1 X8.049 Y9.000
G1 X8.049 Y-9.000
G1 X16.000 Y-9.000
G1 X16.000 Y0.000
G1 X15.600 Y0.000
G1 X15.600 Y8.600
G1 X8.449 Y8.600
G1 X8.449 Y-8.600
G1 X15.600 Y-8.600
G1 X15.600 Y0.000
G1 X15.200 Y0.000
G1 X15.200 Y8.200
G1 X8.849 Y8.200
G1 X8.849 Y-8.200
G1 X15.200 Y-8.200
G1 X15.200 Y0.000
G1 X14.800 Y0.000
G1 X14.800 Y7.800
G1 X9.249 Y7.800
G1 X9.249 Y-7.800
G1 X14.800 Y-7.800
G1 X14.800 Y0.000
G1 X14.400 Y0.000
G1 X14.400 Y7.400
G1 X9.649 Y7.400
G1 X9.649 Y-7.400
G1 X14.400 Y-7.400
G1 X14.400 Y0.000
G1 X14.000 Y0.000
G1 X14.000 Y7.000
G1 X10.049 Y7.000
G1 X10.049 Y-7.000
G1 X14.000 Y-7.000
G1 X14.000 Y0.000
G1 X13.600 Y0.000
G1 X13.600 Y6.600
G1 X10.449 Y6.600
G1 X10.449 Y-6.600
G1 X13.600 Y-6.600
G1 X13.600 Y0.000
G1 X13.200 Y0.000
G1 X13.200 Y6.200
G1 X10.849 Y6.200
G1 X10.849 Y-6.200
G1 X13.200 Y-6.200
G1 X13.200 Y0.000
G1 X12.800 Y0.000
G1 X12.800 Y5.800
G1 X11.249 Y5.800
G1 X11.249 Y-5.800
G1 X12.800 Y-5.800
G1 X12.800 Y0.000
G1 X12.400 Y0.000
G1 X12.400 Y5.400
G1 X11.649 Y5.400
G1 X11.649 Y-5.400
G1 X12.400 Y-5.400
G1 X12.400 Y0.000
G1 X12.000 Y0.000
G1 X12.400 Y0.000 Z1.500
G1 X12.400 Y0.000
G1 X12.800 Y0.000
G1 X12.800 Y-5.800
G1 X12.107 Y-5.800
G1 X12.107 Y5.800
G1 X12.800 Y5.800
G1 X12.800 Y0.000
G1 X13.200 Y0.000
G1 X13.200 Y-6.200
G1 X11.707 Y-6.200
G1 X11.707 Y6.200
G1 X13.200 Y6.200
G1 X13.200 Y0.000
G1 X13.600 Y0.000
G1 X13.600 Y-6.600
G1 X11.307 Y-6.600
G1 X11.307 Y6.600
G1 X13.600 Y6.600
G1 X13.600 Y0.000
G1 X14.000 Y0.000
G1 X14.000 Y-7.000
G1 X10.907 Y-7.000
G1 X10.907 Y7.000
G1 X14.000 Y7.000
G1 X14.000 Y0.000
G1 X14.400 Y0.000
G1 X14.400 Y-7.400
G1 X10.507 Y-7.400
G1 X10.507 Y7.400
G1 X14.400 Y7.400
G1 X14.400 Y0.000
G1 X14.800 Y0.000
G1 X14.800 Y-7.800
G1 X10.107 Y-7.800
G1 X10.107 Y7.800
G1 X14.800 Y7.800
G1 X14.800 Y0.000
G1 X15.200 Y0.000
G1 X15.200 Y-8.200
G1 X9.707 Y-8.200
G1 X9.707 Y8.200
G1 X15.200 Y8.200
G1 X15.200 Y0.000
G1 X15.600 Y0.000
G1 X15.600 Y-8.600
G1 X9.307 Y-8.600
G1 X9.307 Y8.600
G1 X15.600 Y8.600
G1 X15.600 Y0.000
G1 X16.000 Y0.000
G1 X16.000 Y-9.000
G1 X8.907 Y-9.000
G1 X8.907 Y9.000
G1 X16.000 Y9.000
G1 X16.000 Y0.000
G1 X16.400 Y0.000
G1 X16.400 Y-9.400
G1 X8.507 Y-9.400
G1 X8.507 Y9.400
G1 X16.400 Y9.400
G1 X16.400 Y0.000
G1 X16.800 Y0.000
G1 X16.800 Y-9.800
G1 X8.107 Y-9.800
G1 X8.107 Y9.800
G1 X16.800 Y9.800
G1 X16.800 Y0.000 Z1.500
G1 X16.800 Y0.000 Z1.900
G1 X16.800 Y9.800
G1 X8.646 Y9.800
G1 X8.646 Y-9.800
G1 X16.800 Y-9.800
G1 X16.800 Y0.000
G1 X16.400 Y0.000
G1 X16.400 Y9.400
G1 X9.046 Y9.400
G1 X9.046 Y-9.400
G1 X16.400 Y-9.400
G1 X16.400 Y0.000
G1 X16.000 Y0.000
G1 X16.000 Y9.000
G1 X9.446 Y9.000
G1 X9.446 Y-9.000
G1 X16.000 Y-9.000
G1 X16.000 Y0.000
G1 X15.600 Y0.000
G1 X15.600 Y8.600
G1 X9.846 Y8.600
G1 X9.846 Y-8.600
G1 X15.600 Y-8.600
G1 X15.600 Y0.000
G1 X15.200 Y0.000
G1 X15.200 Y8.200
G1 X10.246 Y8.200
G1 X10.246 Y-8.200
G1 X15.200 Y-8.200
G1 X15.200 Y0.000
G1 X14.800 Y0.000
G1 X14.800 Y7.800
G1 X10.646 Y7.800
G1 X10.646 Y-7.800
G1 X14.800 Y-7.800
G1 X14.800 Y0.000
G1 X14.400 Y0.000
G1 X14.400 Y7.400
G1 X11.046 Y7.400
G1 X11.046 Y-7.400
G1 X14.400 Y-7.400
G1 X14.400 Y0.000
G1 X14.000 Y0.000
G1 X14.000 Y7.000
G1 X11.446 Y7.000
G1 X11.446 Y-7.000
G1 X14.000 Y-7.000
G1 X14.000 Y0.000
G1 X13.600 Y0.000
G1 X13.600 Y6.600
G1 X11.846 Y6.600
G1 X11.846 Y-6.600
G1 X13.600 Y-6.600
G1 X13.600 Y0.000
G1 X13.200 Y0.000
G1 X13.200 Y6.200
G1 X12.246 Y6.200
G1 X12.246 Y-6.200
G1 X13.200 Y-6.200
G1 X13.200 Y0.000
G1 X12.800 Y0.000
G1 X12.800 Y5.800
G1 X12.646 Y5.800
G1 X12.646 Y-5.800
G1 X12.800 Y-5.800
G1 X12.800 Y0.000
G1 X12.400 Y0.000
G1 X12.800 Y0.000 Z2.300
G1 X12.800 Y0.000
G1 X13.200 Y0.000
G1 X13.200 Y-6.200
G1 X12.640 Y-6.200
G1 X12.640 Y6.200
G1 X13.200 Y6.200
G1 X13.200 Y0.000
G1 X13.600 Y0.000
G1 X13.600 Y-6.600
G1 X12.240 Y-6.600
G1 X12.240 Y6.600
G1 X13.600 Y6.600
G1 X13.600 Y0.000
G1 X14.000 Y0.000
G1 X14.000 Y-7.000
G1 X11.840 Y-7.000
G1 X11.840 Y7.000
G1 X14.000 Y7.000
G1 X14.000 Y0.000
G1 X14.400 Y0.000
G1 X14.400 Y-7.400
G1 X11.440 Y-7.400
G1 X11.440 Y7.400
G1 X14.400 Y7.400
G1 X14.400 Y0.000
G1 X14.800 Y0.000
G1 X14.800 Y-7.800
G1 X11.040 Y-7.800
G1 X11.040 Y7.800
G1 X14.800 Y7.800
G1 X14.800 Y0.000
G1 X15.200 Y0.000
G1 X15.200 Y-8.200
G1 X10.640 Y-8.200
G1 X10.640 Y8.200
G1 X15.200 Y8.200
G1 X15.200 Y0.000
G1 X15.600 Y0.000
G1 X15.600 Y-8.600
G1 X10.240 Y-8.600
G1 X10.240 Y8.600
G1 X15.600 Y8.600
G1 X15.600 Y0.000
G1 X16.000 Y0.000
G1 X16.000 Y-9.000
G1 X9.840 Y-9.000
G1 X9.840 Y9.000
G1 X16.000 Y9.000
G1 X16.000 Y0.000
G1 X16.400 Y0.000
G1 X16.400 Y-9.400
G1 X9.440 Y-9.400
G1 X9.440 Y9.400
G1 X16.400 Y9.400
G1 X16.400 Y0.000
G1 X16.800 Y0.000
G1 X16.800 Y-9.800
G1 X9.040 Y-9.800
G1 X9.040 Y9.800
G1 X16.800 Y9.800
G1 X16.800 Y0.000 Z2.300
G1 X16.800 Y0.000 Z2.700
G1 X16.800 Y9.800
G1 X9.341 Y9.800
G1 X9.341 Y-9.800
G1 X16.800 Y-9.800
G1 X16.800 Y0.000
G1 X16.400 Y0.000
G1 X16.400 Y9.400
G1 X9.741 Y9.400
G1 X9.741 Y-9.400
G1 X16.400 Y-9.400
G1 X16.400 Y0.000
G1 X16.000 Y0.000
G1 X16.000 Y9.000
G1 X10.141 Y9.000
G1 X10.141 Y-9.000
G1 X16.000 Y-9.000
G1 X16.000 Y0.000
G1 X15.600 Y0.000
G1 X15.600 Y8.600
G1 X10.541 Y8.600
G1 X10.541 Y-8.600
G1 X15.600 Y-8.600
G1 X15.600 Y0.000
G1 X15.200 Y0.000
G1 X15.200 Y8.200
G1 X10.941 Y8.200
G1 X10.941 Y-8.200
G1 X15.200 Y-8.200
G1 X15.200 Y0.000
G1 X14.800 Y0.000
G1 X14.800 Y7.800
G1 X11.341 Y7.800
G1 X11.341 Y-7.800
G1 X14.800 Y-7.800
G1 X14.800 Y0.000
G1 X14.400 Y0.000
G1 X14.400 Y7.400
G1 X11.741 Y7.400
G1 X11.741 Y-7.400
G1 X14.400 Y-7.400
G1 X14.400 Y0.000
G1 X14.000 Y0.000
G1 X14.000 Y7.000
G1 X12.141 Y7.000
G1 X12.141 Y-7.000
G1 X14.000 Y-7.000
G1 X14.000 Y0.000
G1 X13.600 Y0.000
G1 X13.600 Y6.600
G1 X12.541 Y6.600
G1 X12.541 Y-6.600
G1 X13.600 Y-6.600
G1 X13.600 Y0.000
G1 X13.200 Y0.000
G1 X13.200 Y6.200
G1 X12.941 Y6.200
G1 X12.941 Y-6.200
G1 X13.200 Y-6.200
G1 X13.200 Y0.000
G1 X12.800 Y0.000
G1 X12.800 Y0.000 Z3.100
G1 X12.800 Y0.000
G1 X13.200 Y0.000
G1 X13.200 Y-6.200
G1 X13.172 Y-6.200
G1 X13.172 Y6.200
G1 X13.200 Y6.200
G1 X13.200 Y0.000
G1 X13.600 Y0.000
G1 X13.600 Y-6.600
G1 X12.772 Y-6.600
G1 X12.772 Y6.600
G1 X13.600 Y6.600
G1 X13.600 Y0.000
G1 X14.000 Y0.000
G1 X14.000 Y-7.000
G1 X12.372 Y-7.000
G1 X12.372 Y7.000
G1 X14.000 Y7.000
G1 X14.000 Y0.000
G1 X14.400 Y0.000
G1 X14.400 Y-7.400
G1 X11.972 Y-7.400
G1 X11.972 Y7.400
G1 X14.400 Y7.400
G1 X14.400 Y0.000
G1 X14.800 Y0.000
G1 X14.800 Y-7.800
G1 X11.572 Y-7.800
G1 X11.572 Y7.800
G1 X14.800 Y7.800
G1 X14.800 Y0.000
G1 X15.200 Y0.000
G1 X15.200 Y-8.200
G1 X11.172 Y-8.200
G1 X11.172 Y8.200
G1 X15.200 Y8.200
G1 X15.200 Y0.000
G1 X15.600 Y0.000
G1 X15.600 Y-8.600
G1 X10.772 Y-8.600
G1 X10.772 Y8.600
G1 X15.600 Y8.600
G1 X15.600 Y0.000
G1 X16.000 Y0.000
G1 X16.000 Y-9.000
G1 X10.372 Y-9.000
G1 X10.372 Y9.000
G1 X16.000 Y9.000
G1 X16.000 Y0.000
G1 X16.400 Y0.000
G1 X16.400 Y-9.400
G1 X9.972 Y-9.400
G1 X9.972 Y9.400
G1 X16.400 Y9.400
G1 X16.400 Y0.000
G1 X16.800 Y0.000
G1 X16.800 Y-9.800
G1 X9.572 Y-9.800
G1 X9.572 Y9.800
G1 X16.800 Y9.800
G1 X16.800 Y0.000 Z3.100
G1 X16.800 Y0.000 Z3.500
G1 X16.800 Y9.800
G1 X9.747 Y9.800
G1 X9.747 Y-9.800
G1 X16.800 Y-9.800
G1 X16.800 Y0.000
G1 X16.400 Y0.000
G1 X16.400 Y9.400
G1 X10.147 Y9.400
G1 X10.147 Y-9.400
G1 X16.400 Y-9.400
G1 X16.400 Y0.000
G1 X16.000 Y0.000
G1 X16.000 Y9.000
G1 X10.547 Y9.000
G1 X10.547 Y-9.000
G1 X16.000 Y-9.000
G1 X16.000 Y0.000
G1 X15.600 Y0.000
G1 X15.600 Y8.600
G1 X10.947 Y8.600
G1 X10.947 Y-8.600
G1 X15.600 Y-8.600
G1 X15.600 Y0.000
G1 X15.200 Y0.000
G1 X15.200 Y8.200
G1 X11.347 Y8.200
G1 X11.347 Y-8.200
G1 X15.200 Y-8.200
G1 X15.200 Y0.000
G1 X14.800 Y0.000
G1 X14.800 Y7.800
G1 X11.747 Y7.800
G1 X11.747 Y-7.800
G1 X14.800 Y-7.800
G1 X14.800 Y0.000
G1 X14.400 Y0.000
G1 X14.400 Y7.400
G1 X12.147 Y7.400
G1 X12.147 Y-7.400
G1 X14.400 Y-7.400
G1 X14.400 Y0.000
G1 X14.000 Y0.000
G1 X14.000 Y7.000
G1 X12.547 Y7.000
G1 X12.547 Y-7.000
G1 X14.000 Y-7.000
G1 X14.000 Y0.000
G1 X13.600 Y0.000
G1 X13.600 Y6.600
G1 X12.947 Y6.600
G1 X12.947 Y-6.600
G1 X13.600 Y-6.600
G1 X13.600 Y0.000
G1 X13.200 Y0.000
G1 X13.200 Y0.000 Z3.900
G1 X13.200 Y0.000
G1 X13.600 Y0.000
G1 X13.600 Y-6.600
G1 X13.073 Y-6.600
G1 X13.073 Y6.600
G1 X13.600 Y6.600
G1 X13.600 Y0.000
G1 X14.000 Y0.000
G1 X14.000 Y-7.000
G1 X12.673 Y-7.000
G1 X12.673 Y7.000
G1 X14.000 Y7.000
G1 X14.000 Y0.000
G1 X14.400 Y0.000
G1 X14.400 Y-7.400
G1 X12.273 Y-7.400
G1 X12.273 Y7.400
G1 X14.400 Y7.400
G1 X14.400 Y0.000
G1 X14.800 Y0.000
G1 X14.800 Y-7.800
G1 X11.873 Y-7.800
G1 X11.873 Y7.800
G1 X14.800 Y7.800
G1 X14.800 Y0.000
G1 X15.200 Y0.000
G1 X15.200 Y-8.200
G1 X11.473 Y-8.200
G1 X11.473 Y8.200
G1 X15.200 Y8.200
G1 X15.200 Y0.000
G1 X15.600 Y0.000
G1 X15.600 Y-8.600
G1 X11.073 Y-8.600
G1 X11.073 Y8.600
G1 X15.600 Y8.600
G1 X15.600 Y0.000
G1 X16.000 Y0.000
G1 X16.000 Y-9.000
G1 X10.673 Y-9.000
G1 X10.673 Y9.000
G1 X16.000 Y9.000
G1 X16.000 Y0.000
G1 X16.400 Y0.000
G1 X16.400 Y-9.400
G1 X10.273 Y-9.400
G1 X10.273 Y9.400
G1 X16.400 Y9.400
G1 X16.400 Y0.000
G1 X16.800 Y0.000
G1 X16.800 Y-9.800
G1 X9.873 Y-9.800
G1 X9.873 Y9.800
G1 X16.800 Y9.800
G1 X16.800 Y0.000 Z3.900
G1 X16.800 Y0.000 Z4.300
G1 X16.800 Y9.800
G1 X9.955 Y9.800
G1 X9.955 Y-9.800
G1 X16.800 Y-9.800
G1 X16.800 Y0.000
G1 X16.400 Y0.000
G1 X16.400 Y9.400
G1 X10.355 Y9.400
G1 X10.355 Y-9.400
G1 X16.400 Y-9.400
G1 X16.400 Y0.000
G1 X16.000 Y0.000
G1 X16.000 Y9.000
G1 X10.755 Y9.000
G1 X10.755 Y-9.000
G1 X16.000 Y-9.000
G1 X16.000 Y0.000
G1 X15.600 Y0.000
G1 X15.600 Y8.600
G1 X11.155 Y8.600
G1 X11.155 Y-8.600
G1 X15.600 Y-8.600
G1 X15.600 Y0.000
G1 X15.200 Y0.000
G1 X15.200 Y8.200
G1 X11.555 Y8.200
G1 X11.555 Y-8.200
G1 X15.200 Y-8.200
G1 X15.200 Y0.000
G1 X14.800 Y0.000
G1 X14.800 Y7.800
G1 X11.955 Y7.800
G1 X11.955 Y-7.800
G1 X14.800 Y-7.800
G1 X14.800 Y0.000
G1 X14.400 Y0.000
G1 X14.400 Y7.400
G1 X12.355 Y7.400
G1 X12.355 Y-7.400
G1 X14.400 Y-7.400
G1 X14.400 Y0.000
G1 X14.000 Y0.000
G1 X14.000 Y7.000
G1 X12.755 Y7.000
G1 X12.755 Y-7.000
G1 X14.000 Y-7.000
G1 X14.000 Y0.000
G1 X13.600 Y0.000
G1 X13.600 Y6.600
G1 X13.155 Y6.600
G1 X13.155 Y-6.600
G1 X13.600 Y-6.600
G1 X13.600 Y0.000
G1 X13.200 Y0.000
G1 X13.200 Y0.000 Z4.700
G1 X13.200 Y0.000
G1 X13.600 Y0.000
G1 X13.600 Y-6.600
G1 X13.195 Y-6.600
G1 X13.195 Y6.600
G1 X13.600 Y6.600
G1 X13.600 Y0.000
G1 X14.000 Y0.000
G1 X14.000 Y-7.000
G1 X12.795 Y-7.000
G1 X12.795 Y7.000
G1 X14.000 Y7.000
G1 X14.000 Y0.000
G1 X14.400 Y0.000
G1 X14.400 Y-7.400
G1 X12.395 Y-7.400
G1 X12.395 Y7.400
G1 X14.400 Y7.400
G1 X14.400 Y0.000
G1 X14.800 Y0.000
G1 X14.800 Y-7.800
G1 X11.995 Y-7.800
G1 X11.995 Y7.800
G1 X14.800 Y7.800
G1 X14.800 Y0.000
G1 X15.200 Y0.000
G1 X15.200 Y-8.200
G1 X11.595 Y-8.200
G1 X11.595 Y8.200
G1 X15.200 Y8.200
G1 X15.200 Y0.000
G1 X15.600 Y0.000
G1 X15.600 Y-8.600
G1 X11.195 Y-8.600
G1 X11.195 Y8.600
G1 X15.600 Y8.600
G1 X15.600 Y0.000
G1 X16.000 Y0.000
G1 X16.000 Y-9.000
G1 X10.795 Y-9.000
G1 X10.795 Y9.000
G1 X16.000 Y9.000
G1 X16.000 Y0.000
G1 X16.400 Y0.000
G1 X16.400 Y-9.400
G1 X10.395 Y-9.400
G1 X10.395 Y9.400
G1 X16.400 Y9.400
G1 X16.400 Y0.000
G1 X16.800 Y0.000
G1 X16.800 Y-9.800
G1 X9.995 Y-9.800
G1 X9.995 Y9.800
G1 X16.800 Y9.800
G1 X16.800 Y0.000 Z4.700
M9
G1 Z10.000
G1 X4.800 Y-0.100
M0
G1 Z1.100
M7
G4 P150
G1 X3.351 Y-0.300 Z1.100 F600
G1 X-3.351 Y-0.300
G1 X-3.351 Y-9.800
G1 X3.351 Y-9.800
G1 X3.351 Y-0.300
G1 X2.951 Y-0.700
G1 X-2.951 Y-0.700
G1 X-2.951 Y-9.400
G1 X2.951 Y-9.400
G1 X2.951 Y-0.700
G1 X2.551 Y-1.100
G1 X-2.551 Y-1.100
G1 X-2.551 Y-9.000
G1 X2.551 Y-9.000
G1 X2.551 Y-1.100
G1 X2.151 Y-1.500
G1 X-2.151 Y-1.500
G1 X-2.151 Y-8.600
G1 X2.151 Y-8.600
G1 X2.151 Y-1.500
G1 X1.751 Y-1.900
G1 X-1.751 Y-1.900
G1 X-1.751 Y-8.200
G1 X1.751 Y-8.200
G1 X1.751 Y-1.900
G1 X1.351 Y-2.300
G1 X-1.351 Y-2.300
G1 X-1.351 Y-7.800
G1 X1.351 Y-7.800
G1 X1.351 Y-2.300
G1 X0.951 Y-2.700
G1 X-0.951 Y-2.700
G1 X-0.951 Y-7.400
G1 X0.951 Y-7.400
G1 X0.951 Y-2.700
G1 X0.551 Y-3.100
G1 X-0.551 Y-3.100
G1 X-0.551 Y-7.000
G1 X0.551 Y-7.000
G1 X0.551 Y-3.100
G1 X0.151 Y-3.500
G1 X-0.151 Y-3.500
G1 X-0.151 Y-6.600
G1 X-0.093 Y-7.400 Z1.500
G1 X-0.093 Y-7.400
G1 X-0.093 Y-2.700
G1 X0.093 Y-2.700
G1 X0.493 Y-2.300
G1 X0.493 Y-7.800
G1 X-0.493 Y-7.800
G1 X-0.493 Y-2.300
G1 X0.493 Y-2.300
G1 X0.893 Y-1.900
G1 X0.893 Y-8.200
G1 X-0.893 Y-8.200
G1 X-0.893 Y-1.900
G1 X0.893 Y-1.900
G1 X1.293 Y-1.500
G1 X1.293 Y-8.600
G1 X-1.293 Y-8.600
G1 X-1.293 Y-1.500
G1 X1.293 Y-1.500
G1 X1.693 Y-1.100
G1 X1.693 Y-9.000
G1 X-1.693 Y-9.000
G1 X-1.693 Y-1.100
G1 X1.693 Y-1.100
G1 X2.093 Y-0.700
G1 X2.093 Y-9.400
G1 X-2.093 Y-9.400
G1 X-2.093 Y-0.700
G1 X2.093 Y-0.700
G1 X2.493 Y-0.300
G1 X2.493 Y-9.800
G1 X-2.493 Y-9.800
G1 X-2.493 Y-0.300
G1 X2.493 Y-0.300 Z1.500
G1 X1.954 Y-0.300 Z1.900
G1 X-1.954 Y-0.300
G1 X-1.954 Y-9.800
G1 X1.954 Y-9.800
G1 X1.954 Y-0.300
G1 X1.554 Y-0.700
G1 X-1.554 Y-0.700
G1 X-1.554 Y-9.400
G1 X1.554 Y-9.400
G1 X1.554 Y-0.700
G1 X1.154 Y-1.100
G1 X-1.154 Y-1.100
G1 X-1.154 Y-9.000
G1 X1.154 Y-9.000
G1 X1.154 Y-1.100
G1 X0.754 Y-1.500
G1 X-0.754 Y-1.500
G1 X-0.754 Y-8.600
G1 X0.754 Y-8.600
G1 X0.754 Y-1.500
G1 X0.354 Y-1.900
G1 X-0.354 Y-1.900
G1 X-0.354 Y-8.200
G1 X0.354 Y-8.200
G1 X0.354 Y-1.900
G1 X-0.046 Y-2.300
G1 X-0.040 Y-1.900 Z2.300
G1 X-0.040 Y-1.900
G1 X0.360 Y-1.500
G1 X0.360 Y-8.600
G1 X-0.360 Y-8.600
G1 X-0.360 Y-1.500
G1 X0.360 Y-1.500
G1 X0.760 Y-1.100
G1 X0.760 Y-9.000
G1 X-0.760 Y-9.000
G1 X-0.760 Y-1.100
G1 X0.760 Y-1.100
G1 X1.160 Y-0.700
G1 X1.160 Y-9.400
G1 X-1.160 Y-9.400
G1 X-1.160 Y-0.700
G1 X1.160 Y-0.700
G1 X1.560 Y-0.300
G1 X1.560 Y-9.800
G1 X-1.560 Y-9.800
G1 X-1.560 Y-0.300
G1 X1.560 Y-0.300 Z2.300
G1 X1.259 Y-0.300 Z2.700
G1 X-1.259 Y-0.300
G1 X-1.259 Y-9.800
G1 X1.259 Y-9.800
G1 X1.259 Y-0.300
G1 X0.859 Y-0.700
G1 X-0.859 Y-0.700
G1 X-0.859 Y-9.400
G1 X0.859 Y-9.400
G1 X0.859 Y-0.700
G1 X0.459 Y-1.100
G1 X-0.459 Y-1.100
G1 X-0.459 Y-9.000
G1 X0.459 Y-9.000
G1 X0.459 Y-1.100
G1 X0.059 Y-1.500
G1 X-0.059 Y-1.500
G1 X-0.059 Y-8.600
G1 X-0.172 Y-1.500 Z3.100
G1 X-0.172 Y-1.500
G1 X0.228 Y-1.100
G1 X0.228 Y-9.000
G1 X-0.228 Y-9.000
G1 X-0.228 Y-1.100
G1 X0.228 Y-1.100
G1 X0.628 Y-0.700
G1 X0.628 Y-9.400
G1 X-0.628 Y-9.400
G1 X-0.628 Y-0.700
G1 X0.628 Y-0.700
G1 X1.028 Y-0.300
G1 X1.028 Y-9.800
G1 X-1.028 Y-9.800
G1 X-1.028 Y-0.300
G1 X1.028 Y-0.300 Z3.100
G1 X0.853 Y-0.300 Z3.500
G1 X-0.853 Y-0.300
G1 X-0.853 Y-9.800
G1 X0.853 Y-9.800
G1 X0.853 Y-0.300
G1 X0.453 Y-0.700
G1 X-0.453 Y-0.700
G1 X-0.453 Y-9.400
G1 X0.453 Y-9.400
G1 X0.453 Y-0.700
G1 X0.053 Y-1.100
G1 X-0.053 Y-1.100
G1 X-0.053 Y-9.000
G1 X-0.073 Y-1.100 Z3.900
G1 X-0.073 Y-1.100
G1 X0.327 Y-0.700
G1 X0.327 Y-9.400
G1 X-0.327 Y-9.400
G1 X-0.327 Y-0.700
G1 X0.327 Y-0.700
G1 X0.727 Y-0.300
G1 X0.727 Y-9.800
G1 X-0.727 Y-9.800
G1 X-0.727 Y-0.300
G1 X0.727 Y-0.300 Z3.900
G1 X0.645 Y-0.300 Z4.300
G1 X-0.645 Y-0.300
G1 X-0.645 Y-9.800
G1 X0.645 Y-9.800
G1 X0.645 Y-0.300
G1 X0.245 Y-0.700
G1 X-0.245 Y-0.700
G1 X-0.245 Y-9.400
G1 X0.245 Y-9.400
G1 X0.245 Y-0.700
G1 X-0.155 Y-1.100
G1 X-0.195 Y-1.100 Z4.700
G1 X-0.195 Y-1.100
G1 X0.205 Y-0.700
G1 X0.205 Y-9.400
G1 X-0.205 Y-9.400
G1 X-0.205 Y-0.700
G1 X0.205 Y-0.700
G1 X0.605 Y-0.300
G1 X0.605 Y-9.800
G1 X-0.605 Y-9.800
G1 X-0.605 Y-0.300
G1 X0.605 Y-0.300 Z4.700
M9
G1 Z10.000
G1 X-4.800 Y0.100
G1 Z1.100
M7
G4 P150
G1 X-3.351 Y0.300 Z1.100
G1 X3.351 Y0.300
G1 X3.351 Y9.800
G1 X-3.351 Y9.800
G1 X-3.351 Y0.300
G1 X-2.951 Y0.700
G1 X2.951 Y0.700
G1 X2.951 Y9.400
G1 X-2.951 Y9.400
G1 X-2.951 Y0.700
G1 X-2.551 Y1.100
G1 X2.551 Y1.100
G1 X2.551 Y9.000
G1 X-2.551 Y9.000
G1 X-2.551 Y1.100
G1 X-2.151 Y1.500
G1 X2.151 Y1.500
G1 X2.151 Y8.600
G1 X-2.151 Y8.600
G1 X-2.151 Y1.500
G1 X-1.751 Y1.900
G1 X1.751 Y1.900
G1 X1.751 Y8.200
G1 X-1.751 Y8.200
G1 X-1.751 Y1.900
G1 X-1.351 Y2.300
G1 X1.351 Y2.300
G1 X1.351 Y7.800
G1 X-1.351 Y7.800
G1 X-1.351 Y2.300
G1 X-0.951 Y2.700
G1 X0.951 Y2.700
G1 X0.951 Y7.400
G1 X-0.951 Y7.400
G1 X-0.951 Y2.700
G1 X-0.551 Y3.100
G1 X0.551 Y3.100
G1 X0.551 Y7.000
G1 X-0.551 Y7.000
G1 X-0.551 Y3.100
G1 X-0.151 Y3.500
G1 X0.151 Y3.500
G1 X0.151 Y6.600
G1 X0.093 Y7.400 Z1.500
G1 X0.093 Y7.400
G1 X0.093 Y2.700
G1 X-0.093 Y2.700
G1 X-0.493 Y2.300
G1 X-0.493 Y7.800
G1 X0.493 Y7.800
G1 X0.493 Y2.300
G1 X-0.493 Y2.300
G1 X-0.893 Y1.900
G1 X-0.893 Y8.200
G1 X0.893 Y8.200
G1 X0.893 Y1.900
G1 X-0.893 Y1.900
G1 X-1.293 Y1.500
G1 X-1.293 Y8.600
G1 X1.293 Y8.600
G1 X1.293 Y1.500
G1 X-1.293 Y1.500
G1 X-1.693 Y1.100
G1 X-1.693 Y9.000
G1 X1.693 Y9.000
G1 X1.693 Y1.100
G1 X-1.693 Y1.100
G1 X-2.093 Y0.700
G1 X-2.093 Y9.400
G1 X2.093 Y9.400
G1 X2.093 Y0.700
G1 X-2.093 Y0.700
G1 X-2.493 Y0.300
G1 X-2.493 Y9.800
G1 X2.493 Y9.800
G1 X2.493 Y0.300
G1 X-2.493 Y0.300 Z1.500
G1 X-1.954 Y0.300 Z1.900
G1 X1.954 Y0.300
G1 X1.954 Y9.800
G1 X-1.954 Y9.800
G1 X-1.954 Y0.300
G1 X-1.554 Y0.700
G1 X1.554 Y0.700
G1 X1.554 Y9.400
G1 X-1.554 Y9.400
G1 X-1.554 Y0.700
G1 X-1.154 Y1.100
G1 X1.154 Y1.100
G1 X1.154 Y9.000
G1 X-1.154 Y9.000
G1 X-1.154 Y1.100
G1 X-0.754 Y1.500
G1 X0.754 Y1.500
G1 X0.754 Y8.600
G1 X-0.754 Y8.600
G1 X-0.754 Y1.500
G1 X-0.354 Y1.900
G1 X0.354 Y1.900
G1 X0.354 Y8.200
G1 X-0.354 Y8.200
G1 X-0.354 Y1.900
G1 X0.046 Y2.300
G1 X0.040 Y1.900 Z2.300
G1 X0.040 Y1.900
G1 X-0.360 Y1.500
G1 X-0.360 Y8.600
G1 X0.360 Y8.600
G1 X0.360 Y1.500
G1 X-0.360 Y1.500
G1 X-0.760 Y1.100
G1 X-0.760 Y9.000
G1 X0.760 Y9.000
G1 X0.760 Y1.100
G1 X-0.760 Y1.100
G1 X-1.160 Y0.700
G1 X-1.160 Y9.400
G1 X1.160 Y9.400
G1 X1.160 Y0.700
G1 X-1.160 Y0.700
G1 X-1.560 Y0.300
G1 X-1.560 Y9.800
G1 X1.560 Y9.800
G1 X1.560 Y0.300
G1 X-1.560 Y0.300 Z2.300
G1 X-1.259 Y0.300 Z2.700
G1 X1.259 Y0.300
G1 X1.259 Y9.800
G1 X-1.259 Y9.800
G1 X-1.259 Y0.300
G1 X-0.859 Y0.700
G1 X0.859 Y0.700
G1 X0.859 Y9.400
G1 X-0.859 Y9.400
G1 X-0.859 Y0.700
G1 X-0.459 Y1.100
G1 X0.459 Y1.100
G1 X0.459 Y9.000
G1 X-0.459 Y9.000
G1 X-0.459 Y1.100
G1 X-0.059 Y1.500
G1 X0.059 Y1.500
G1 X0.059 Y8.600
G1 X0.172 Y1.500 Z3.100
G1 X0.172 Y1.500
G1 X-0.228 Y1.100
G1 X-0.228 Y9.000
G1 X0.228 Y9.000
G1 X0.228 Y1.100
G1 X-0.228 Y1.100
G1 X-0.628 Y0.700
G1 X-0.628 Y9.400
G1 X0.628 Y9.400
G1 X0.628 Y0.700
G1 X-0.628 Y0.700
G1 X-1.028 Y0.300
G1 X-1.028 Y9.800
G1 X1.028 Y9.800
G1 X1.028 Y0.300
G1 X-1.028 Y0.300 Z3.100
G1 X-0.853 Y0.300 Z3.500
G1 X0.853 Y0.300
G1 X0.853 Y9.800
G1 X-0.853 Y9.800
G1 X-0.853 Y0.300
G1 X-0.453 Y0.700
G1 X0.453 Y0.700
G1 X0.453 Y9.400
G1 X-0.453 Y9.400
G1 X-0.453 Y0.700
G1 X-0.053 Y1.100
G1 X0.053 Y1.100
G1 X0.053 Y9.000
G1 X0.073 Y1.100 Z3.900
G1 X0.073 Y1.100
G1 X-0.327 Y0.700
G1 X-0.327 Y9.400
G1 X0.327 Y9.400
G1 X0.327 Y0.700
G1 X-0.327 Y0.700
G1 X-0.727 Y0.300
G1 X-0.727 Y9.800
G1 X0.727 Y9.800
G1 X0.727 Y0.300
G1 X-0.727 Y0.300 Z3.900
G1 X-0.645 Y0.300 Z4.300
G1 X0.645 Y0.300
G1 X0.645 Y9.800
G1 X-0.645 Y9.800
G1 X-0.645 Y0.300
G1 X-0.245 Y0.700
G1 X0.245 Y0.700
G1 X0.245 Y9.400
G1 X-0.245 Y9.400
G1 X-0.245 Y0.700
G1 X0.155 Y1.100
G1 X0.195 Y1.100 Z4.700
G1 X0.195 Y1.100
G1 X-0.205 Y0.700
G1 X-0.205 Y9.400
G1 X0.205 Y9.400
G1 X0.205 Y0.700
G1 X-0.205 Y0.700
G1 X-0.605 Y0.300
G1 X-0.605 Y9.800
G1 X0.605 Y9.800
G1 X0.605 Y0.300
G1 X-0.605 Y0.300 Z4.700

;Finish
M9
G1 Z10.000
G28 X-100 Y-100;Home