;layer_height = 0.4
;line_width = 0.4
;layer_count = 10
;mesh = base_double_with_wall
G21 ;start of the code
G1 Z15 F300
G28 X0 Y0 ;Home
G92 X0 Y0 ;Consider this as current
G0 X50 Y50 F3000 ;Go-to Offset
G92 X0 Y0 ;Reset

G0 F3600 X-19.800 Y0.000 Z0.300 ;Go to start position
M7
G4 P150


G1 X-19.800 Y0.000 Z0.300
G1 X-19.800 Y-9.800
G1 X-5.800 Y-9.800
G1 X-5.800 Y9.800
G1 X-19.800 Y9.800
G1 X-19.800 Y0.000
G1 X-19.400 Y0.000
G1 X-19.400 Y-9.400
G1 X-6.200 Y-9.400
G1 X-6.200 Y9.400
G1 X-19.400 Y9.400
G1 X-19.400 Y0.000
G1 X-19.000 Y0.000
G1 X-19.000 Y-9.000
G1 X-6.600 Y-9.000
G1 X-6.600 Y9.000
G1 X-19.000 Y9.000
G1 X-19.000 Y0.000
G1 X-18.600 Y0.000
G1 X-18.600 Y-8.600
G1 X-7.000 Y-8.600
G1 X-7.000 Y8.600
G1 X-18.600 Y8.600
G1 X-18.600 Y0.000
G1 X-18.200 Y0.000
G1 X-18.200 Y-8.200
G1 X-7.400 Y-8.200
G1 X-7.400 Y8.200
G1 X-18.200 Y8.200
G1 X-18.200 Y0.000
G1 X-17.800 Y0.000
G1 X-17.800 Y-7.800
G1 X-7.800 Y-7.800
G1 X-7.800 Y7.800
G1 X-17.800 Y7.800
G1 X-17.800 Y0.000
G1 X-17.400 Y0.000
G1 X-17.400 Y-7.400
G1 X-8.200 Y-7.400
G1 X-8.200 Y7.400
G1 X-17.400 Y7.400
G1 X-17.400 Y0.000
G1 X-17.000 Y0.000
G1 X-17.000 Y-7.000
G1 X-8.600 Y-7.000
G1 X-8.600 Y7.000
G1 X-17.000 Y7.000
G1 X-17.000 Y0.000
G1 X-16.600 Y0.000
G1 X-16.600 Y-6.600
G1 X-9.000 Y-6.600
G1 X-9.000 Y6.600
G1 X-16.600 Y6.600
G1 X-16.600 Y0.000
G1 X-16.200 Y0.000
G1 X-16.200 Y-6.200
G1 X-9.400 Y-6.200
G1 X-9.400 Y6.200
G1 X-16.200 Y6.200
G1 X-16.200 Y0.000
G1 X-15.800 Y0.000
G1 X-15.800 Y-5.800
G1 X-9.800 Y-5.800
G1 X-9.800 Y5.800
G1 X-15.800 Y5.800
G1 X-15.800 Y0.000
G1 X-15.400 Y0.000
G1 X-15.400 Y-5.400
G1 X-10.200 Y-5.400
G1 X-10.200 Y5.400
G1 X-15.400 Y5.400
G1 X-15.400 Y0.000
G1 X-15.000 Y0.000
G1 X-15.000 Y-5.000
G1 X-10.600 Y-5.000
G1 X-10.600 Y5.000
G1 X-15.000 Y5.000
G1 X-15.000 Y0.000
G1 X-14.600 Y0.000
G1 X-14.600 Y-4.600
G1 X-11.000 Y-4.600
G1 X-11.000 Y4.600
G1 X-14.600 Y4.600
G1 X-14.600 Y0.000
G1 X-14.200 Y0.000
G1 X-14.200 Y-4.200
G1 X-11.400 Y-4.200
G1 X-11.400 Y4.200
G1 X-14.200 Y4.200
G1 X-14.200 Y0.000
G1 X-13.800 Y0.000
G1 X-13.800 Y-3.800
G1 X-11.800 Y-3.800
G1 X-11.800 Y3.800
G1 X-13.800 Y3.800
G1 X-13.800 Y0.000
G1 X-13.400 Y0.000
G1 X-13.400 Y-3.400
G1 X-12.200 Y-3.400
G1 X-12.200 Y3.400
G1 X-13.400 Y3.400
G1 X-13.400 Y0.000
G1 X-13.000 Y0.000
G1 X-13.000 Y-3.000
G1 X-12.600 Y-3.000
G1 X-12.600 Y3.000
G1 X-13.000 Y3.000
G1 X-13.000 Y0.000
G1 X-12.600 Y0.000
G1 X-12.600 Y0.000 Z0.700
G1 X-12.600 Y0.000
G1 X-13.000 Y0.000
G1 X-13.000 Y3.000
G1 X-12.600 Y3.000
G1 X-12.600 Y-3.000
G1 X-13.000 Y-3.000
G1 X-13.000 Y0.000
G1 X-13.400 Y0.000
G1 X-13.400 Y3.400
G1 X-12.200 Y3.400
G1 X-12.200 Y-3.400
G1 X-13.400 Y-3.400
G1 X-13.400 Y0.000
G1 X-13.800 Y0.000
G1 X-13.800 Y3.800
G1 X-11.800 Y3.800
G1 X-11.800 Y-3.800
G1 X-13.800 Y-3.800
G1 X-13.800 Y0.000
G1 X-14.200 Y0.000
G1 X-14.200 Y4.200
G1 X-11.400 Y4.200
G1 X-11.400 Y-4.200
G1 X-14.200 Y-4.200
G1 X-14.200 Y0.000
G1 X-14.600 Y0.000
G1 X-14.600 Y4.600
G1 X-11.000 Y4.600
G1 X-11.000 Y-4.600
G1 X-14.600 Y-4.600
G1 X-14.600 Y0.000
G1 X-15.000 Y0.000
G1 X-15.000 Y5.000
G1 X-10.600 Y5.000
G1 X-10.600 Y-5.000
G1 X-15.000 Y-5.000
G1 X-15.000 Y0.000
G1 X-15.400 Y0.000
G1 X-15.400 Y5.400
G1 X-10.200 Y5.400
G1 X-10.200 Y-5.400
G1 X-15.400 Y-5.400
G1 X-15.400 Y0.000
G1 X-15.800 Y0.000
G1 X-15.800 Y5.800
G1 X-9.800 Y5.800
G1 X-9.800 Y-5.800
G1 X-15.800 Y-5.800
G1 X-15.800 Y0.000
G1 X-16.200 Y0.000
G1 X-16.200 Y6.200
G1 X-9.400 Y6.200
G1 X-9.400 Y-6.200
G1 X-16.200 Y-6.200
G1 X-16.200 Y0.000
G1 X-16.600 Y0.000
G1 X-16.600 Y6.600
G1 X-9.000 Y6.600
G1 X-9.000 Y-6.600
G1 X-16.600 Y-6.600
G1 X-16.600 Y0.000
G1 X-17.000 Y0.000
G1 X-17.000 Y7.000
G1 X-8.600 Y7.000
G1 X-8.600 Y-7.000
G1 X-17.000 Y-7.000
G1 X-17.000 Y0.000
G1 X-17.400 Y0.000
G1 X-17.400 Y7.400
G1 X-8.200 Y7.400
G1 X-8.200 Y-7.400
G1 X-17.400 Y-7.400
G1 X-17.400 Y0.000
G1 X-17.800 Y0.000
G1 X-17.800 Y7.800
G1 X-7.800 Y7.800
G1 X-7.800 Y-7.800
G1 X-17.800 Y-7.800
G1 X-17.800 Y0.000
G1 X-18.200 Y0.000
G1 X-18.200 Y8.200
G1 X-7.400 Y8.200
G1 X-7.400 Y-8.200
G1 X-18.200 Y-8.200
G1 X-18.200 Y0.000
G1 X-18.600 Y0.000
G1 X-18.600 Y8.600
G1 X-7.000 Y8.600
G1 X-7.000 Y-8.600
G1 X-18.600 Y-8.600
G1 X-18.600 Y0.000
G1 X-19.000 Y0.000
G1 X-19.000 Y9.000
G1 X-6.600 Y9.000
G1 X-6.600 Y-9.000
G1 X-19.000 Y-9.000
G1 X-19.000 Y0.000
G1 X-19.400 Y0.000
G1 X-19.400 Y9.400
G1 X-6.200 Y9.400
G1 X-6.200 Y-9.400
G1 X-19.400 Y-9.400
G1 X-19.400 Y0.000
G1 X-19.800 Y0.000
G1 X-19.800 Y9.800
G1 X-5.800 Y9.800
G1 X-5.800 Y-9.800
G1 X-19.800 Y-9.800
G1 X-19.800 Y0.000 Z0.700
M9
G1 Z10.000
G1 X-4.600 Y0.000
G1 Z0.300
M7
G4 P150
G1 X-4.600 Y0.000 Z0.300
G1 X-4.600 Y-9.800
G1 X4.600 Y-9.800
G1 X4.600 Y9.800
G1 X-4.600 Y9.800
G1 X-4.600 Y0.000
G1 X-4.200 Y0.000
G1 X-4.200 Y-9.400
G1 X4.200 Y-9.400
G1 X4.200 Y9.400
G1 X-4.200 Y9.400
G1 X-4.200 Y0.000
G1 X-3.800 Y0.000
G1 X-3.800 Y-9.000
G1 X3.800 Y-9.000
G1 X3.800 Y9.000
G1 X-3.800 Y9.000
G1 X-3.800 Y0.000
G1 X-3.400 Y0.000
G1 X-3.400 Y-8.600
G1 X3.400 Y-8.600
G1 X3.400 Y8.600
G1 X-3.400 Y8.600
G1 X-3.400 Y0.000
G1 X-3.000 Y0.000
G1 X-3.000 Y-8.200
G1 X3.000 Y-8.200
G1 X3.000 Y8.200
G1 X-3.000 Y8.200
G1 X-3.000 Y0.000
G1 X-2.600 Y0.000
G1 X-2.600 Y-7.800
G1 X2.600 Y-7.800
G1 X2.600 Y7.800
G1 X-2.600 Y7.800
G1 X-2.600 Y0.000
G1 X-2.200 Y0.000
G1 X-2.200 Y-7.400
G1 X2.200 Y-7.400
G1 X2.200 Y7.400
G1 X-2.200 Y7.400
G1 X-2.200 Y0.000
G1 X-1.800 Y0.000
G1 X-1.800 Y-7.000
G1 X1.800 Y-7.000
G1 X1.800 Y7.000
G1 X-1.800 Y7.000
G1 X-1.800 Y0.000
G1 X-1.400 Y0.000
G1 X-1.400 Y-6.600
G1 X1.400 Y-6.600
G1 X1.400 Y6.600
G1 X-1.400 Y6.600
G1 X-1.400 Y0.000
G1 X-1.000 Y0.000
G1 X-1.000 Y-6.200
G1 X1.000 Y-6.200
G1 X1.000 Y6.200
G1 X-1.000 Y6.200
G1 X-1.000 Y0.000
G1 X-0.600 Y0.000
G1 X-0.600 Y-5.800
G1 X0.600 Y-5.800
G1 X0.600 Y5.800
G1 X-0.600 Y5.800
G1 X-0.600 Y0.000
G1 X-0.200 Y0.000
G1 X-0.200 Y-5.400
G1 X0.200 Y-5.400
G1 X0.200 Y5.400
G1 X-0.200 Y5.400
G1 X-0.200 Y0.000
G1 X0.200 Y0.000
G1 X0.200 Y0.000 Z0.700
G1 X0.200 Y0.000
G1 X-0.200 Y0.000
G1 X-0.200 Y5.400
G1 X0.200 Y5.400
G1 X0.200 Y-5.400
G1 X-0.200 Y-5.400
G1 X-0.200 Y0.000
G1 X-0.600 Y0.000
G1 X-0.600 Y5.800
G1 X0.600 Y5.800
G1 X0.600 Y-5.800
G1 X-0.600 Y-5.800
G1 X-0.600 Y0.000
G1 X-1.000 Y0.000
G1 X-1.000 Y6.200
G1 X1.000 Y6.200
G1 X1.000 Y-6.200
G1 X-1.000 Y-6.200
G1 X-1.000 Y0.000
G1 X-1.400 Y0.000
G1 X-1.400 Y6.600
G1 X1.400 Y6.600
G1 X1.400 Y-6.600
G1 X-1.400 Y-6.600
G1 X-1.400 Y0.000
G1 X-1.800 Y0.000
G1 X-1.800 Y7.000
G1 X1.800 Y7.000
G1 X1.800 Y-7.000
G1 X-1.800 Y-7.000
G1 X-1.800 Y0.000
G1 X-2.200 Y0.000
G1 X-2.200 Y7.400
G1 X2.200 Y7.400
G1 X2.200 Y-7.400
G1 X-2.200 Y-7.400
G1 X-2.200 Y0.000
G1 X-2.600 Y0.000
G1 X-2.600 Y7.800
G1 X2.600 Y7.800
G1 X2.600 Y-7.800
G1 X-2.600 Y-7.800
G1 X-2.600 Y0.000
G1 X-3.000 Y0.000
G1 X-3.000 Y8.200
G1 X3.000 Y8.200
G1 X3.000 Y-8.200
G1 X-3.000 Y-8.200
G1 X-3.000 Y0.000
G1 X-3.400 Y0.000
G1 X-3.400 Y8.600
G1 X3.400 Y8.600
G1 X3.400 Y-8.600
G1 X-3.400 Y-8.600
G1 X-3.400 Y0.000
G1 X-3.800 Y0.000
G1 X-3.800 Y9.000
G1 X3.800 Y9.000
G1 X3.800 Y-9.000
G1 X-3.800 Y-9.000
G1 X-3.800 Y0.000
G1 X-4.200 Y0.000
G1 X-4.200 Y9.400
G1 X4.200 Y9.400
G1 X4.200 Y-9.400
G1 X-4.200 Y-9.400
G1 X-4.200 Y0.000
G1 X-4.600 Y0.000
G1 X-4.600 Y9.800
G1 X4.600 Y9.800
G1 X4.600 Y-9.800
G1 X-4.600 Y-9.800
G1 X-4.600 Y0.000 Z0.700
M9
G1 Z10.000
G1 X19.800 Y0.000
G1 Z0.300
M7
G4 P150
G1 X19.800 Y0.000 Z0.300
G1 X19.800 Y9.800
G1 X5.800 Y9.800
G1 X5.800 Y-9.800
G1 X19.800 Y-9.800
G1 X19.800 Y0.000
G1 X19.400 Y0.000
G1 X19.400 Y9.400
G1 X6.200 Y9.400
G1 X6.200 Y-9.400
G1 X19.400 Y-9.400
G1 X19.400 Y0.000
G1 X19.000 Y0.000
G1 X19.000 Y9.000
G1 X6.600 Y9.000
G1 X6.600 Y-9.000
G1 X19.000 Y-9.000
G1 X19.000 Y0.000
G1 X18.600 Y0.000
G1 X18.600 Y8.600
G1 X7.000 Y8.600
G1 X7.000 Y-8.600
G1 X18.600 Y-8.600
G1 X18.600 Y0.000
G1 X18.200 Y0.000
G1 X18.200 Y8.200
G1 X7.400 Y8.200
G1 X7.400 Y-8.200
G1 X18.200 Y-8.200
G1 X18.200 Y0.000
G1 X17.800 Y0.000
G1 X17.800 Y7.800
G1 X7.800 Y7.800
G1 X7.800 Y-7.800
G1 X17.800 Y-7.800
G1 X17.800 Y0.000
G1 X17.400 Y0.000
G1 X17.400 Y7.400
G1 X8.200 Y7.400
G1 X8.200 Y-7.400
G1 X17.400 Y-7.400
G1 X17.400 Y0.000
G1 X17.000 Y0.000
G1 X17.000 Y7.000
G1 X8.600 Y7.000
G1 X8.600 Y-7.000
G1 X17.000 Y-7.000
G1 X17.000 Y0.000
G1 X16.600 Y0.000
G1 X16.600 Y6.600
G1 X9.000 Y6.600
G1 X9.000 Y-6.600
G1 X16.600 Y-6.600
G1 X16.600 Y0.000
G1 X16.200 Y0.000
G1 X16.200 Y6.200
G1 X9.400 Y6.200
G1 X9.400 Y-6.200
G1 X16.200 Y-6.200
G1 X16.200 Y0.000
G1 X15.800 Y0.000
G1 X15.800 Y5.800
G1 X9.800 Y5.800
G1 X9.800 Y-5.800
G1 X15.800 Y-5.800
G1 X15.800 Y0.000
G1 X15.400 Y0.000
G1 X15.400 Y5.400
G1 X10.200 Y5.400
G1 X10.200 Y-5.400
G1 X15.400 Y-5.400
G1 X15.400 Y0.000
G1 X15.000 Y0.000
G1 X15.000 Y5.000
G1 X10.600 Y5.000
G1 X10.600 Y-5.000
G1 X15.000 Y-5.000
G1 X15.000 Y0.000
G1 X14.600 Y0.000
G1 X14.600 Y4.600
G1 X11.000 Y4.600
G1 X11.000 Y-4.600
G1 X14.600 Y-4.600
G1 X14.600 Y0.000
G1 X14.200 Y0.000
G1 X14.200 Y4.200
G1 X11.400 Y4.200
G1 X11.400 Y-4.200
G1 X14.200 Y-4.200
G1 X14.200 Y0.000
G1 X13.800 Y0.000
G1 X13.800 Y3.800
G1 X11.800 Y3.800
G1 X11.800 Y-3.800
G1 X13.800 Y-3.800
G1 X13.800 Y0.000
G1 X13.400 Y0.000
G1 X13.400 Y3.400
G1 X12.200 Y3.400
G1 X12.200 Y-3.400
G1 X13.400 Y-3.400
G1 X13.400 Y0.000
G1 X13.000 Y0.000
G1 X13.000 Y3.000
G1 X12.600 Y3.000
G1 X12.600 Y-3.000
G1 X13.000 Y-3.000
G1 X13.000 Y0.000
G1 X12.600 Y0.000
G1 X12.600 Y0.000 Z0.700
G1 X12.600 Y0.000
G1 X13.000 Y0.000
G1 X13.000 Y-3.000
G1 X12.600 Y-3.000
G1 X12.600 Y3.000
G1 X13.000 Y3.000
G1 X13.000 Y0.000
G1 X13.400 Y0.000
G1 X13.400 Y-3.400
G1 X12.200 Y-3.400
G1 X12.200 Y3.400
G1 X13.400 Y3.400
G1 X13.400 Y0.000
G1 X13.800 Y0.000
G1 X13.800 Y-3.800
G1 X11.800 Y-3.800
G1 X11.800 Y3.800
G1 X13.800 Y3.800
G1 X13.800 Y0.000
G1 X14.200 Y0.000
G1 X14.200 Y-4.200
G1 X11.400 Y-4.200
G1 X11.400 Y4.200
G1 X14.200 Y4.200
G1 X14.200 Y0.000
G1 X14.600 Y0.000
G1 X14.600 Y-4.600
G1 X11.000 Y-4.600
G1 X11.000 Y4.600
G1 X14.600 Y4.600
G1 X14.600 Y0.000
G1 X15.000 Y0.000
G1 X15.000 Y-5.000
G1 X10.600 Y-5.000
G1 X10.600 Y5.000
G1 X15.000 Y5.000
G1 X15.000 Y0.000
G1 X15.400 Y0.000
G1 X15.400 Y-5.400
G1 X10.200 Y-5.400
G1 X10.200 Y5.400
G1 X15.400 Y5.400
G1 X15.400 Y0.000
G1 X15.800 Y0.000
G1 X15.800 Y-5.800
G1 X9.800 Y-5.800
G1 X9.800 Y5.800
G1 X15.800 Y5.800
G1 X15.800 Y0.000
G1 X16.200 Y0.000
G1 X16.200 Y-6.200
G1 X9.400 Y-6.200
G1 X9.400 Y6.200
G1 X16.200 Y6.200
G1 X16.200 Y0.000
G1 X16.600 Y0.000
G1 X16.600 Y-6.600
G1 X9.000 Y-6.600
G1 X9.000 Y6.600
G1 X16.600 Y6.600
G1 X16.600 Y0.000
G1 X17.000 Y0.000
G1 X17.000 Y-7.000
G1 X8.600 Y-7.000
G1 X8.600 Y7.000
G1 X17.000 Y7.000
G1 X17.000 Y0.000
G1 X17.400 Y0.000
G1 X17.400 Y-7.400
G1 X8.200 Y-7.400
G1 X8.200 Y7.400
G1 X17.400 Y7.400
G1 X17.400 Y0.000
G1 X17.800 Y0.000
G1 X17.800 Y-7.800
G1 X7.800 Y-7.800
G1 X7.800 Y7.800
G1 X17.800 Y7.800
G1 X17.800 Y0.000
G1 X18.200 Y0.000
G1 X18.200 Y-8.200
G1 X7.400 Y-8.200
G1 X7.400 Y8.200
G1 X18.200 Y8.200
G1 X18.200 Y0.000
G1 X18.600 Y0.000
G1 X18.600 Y-8.600
G1 X7.000 Y-8.600
G1 X7.000 Y8.600
G1 X18.600 Y8.600
G1 X18.600 Y0.000
G1 X19.000 Y0.000
G1 X19.000 Y-9.000
G1 X6.600 Y-9.000
G1 X6.600 Y9.000
G1 X19.000 Y9.000
G1 X19.000 Y0.000
G1 X19.400 Y0.000
G1 X19.400 Y-9.400
G1 X6.200 Y-9.400
G1 X6.200 Y9.400
G1 X19.400 Y9.400
G1 X19.400 Y0.000
G1 X19.800 Y0.000
G1 X19.800 Y-9.800
G1 X5.800 Y-9.800
G1 X5.800 Y9.800
G1 X19.800 Y9.800
G1 X19.800 Y0.000 Z0.700
M9
G1 Z10.000
G1 X-19.800 Y-10.000
G1 Z1.100
M7
G4 P150
G1 X19.800 Y-10.000
G1 X19.800 Y-9.600
G4 P5
G1 X-19.800 Y-9.600
G4 P5
G1 X-19.800 Y-9.200
G4 P5
G1 X19.800 Y-9.200
G4 P5
G1 X19.800 Y-8.800
G4 P5
G1 X-19.800 Y-8.800
G4 P5
G1 X-19.800 Y-8.400
G4 P5
G1 X19.800 Y-8.400
G4 P5
G1 X19.800 Y-8.000
G4 P5
G1 X-19.800 Y-8.000
G4 P5
G1 X-19.800 Y-7.600
G4 P5
G1 X19.800 Y-7.600
G4 P5
G1 X19.800 Y-7.200
G4 P5
G1 X-19.800 Y-7.200
G4 P5
G1 X-19.800 Y-6.800
G4 P5
G1 X19.800 Y-6.800
G4 P5
G1 X19.800 Y-6.400
G4 P5
G1 X-19.800 Y-6.400
G4 P5
G1 X-19.800 Y-6.000
G4 P5
G1 X19.800 Y-6.000
G4 P5
G1 X19.800 Y-5.600
G4 P5
G1 X-19.800 Y-5.600
G4 P5
G1 X-19.800 Y-5.200
G4 P5
G1 X19.800 Y-5.200
G4 P5
G1 X19.800 Y-4.800
G4 P5
G1 X-19.800 Y-4.800
G4 P5
G1 X-19.800 Y-4.400
G4 P5
G1 X19.800 Y-4.400
G4 P5
G1 X19.800 Y-4.000
G4 P5
G1 X-19.800 Y-4.000
G4 P5
G1 X-19.800 Y-3.600
G4 P5
G1 X19.800 Y-3.600
G4 P5
G1 X19.800 Y-3.200
G4 P5
G1 X-19.800 Y-3.200
G4 P5
G1 X-19.800 Y-2.800
G4 P5
G1 X19.800 Y-2.800
G4 P5
G1 X19.800 Y-2.400
G4 P5
G1 X-19.800 Y-2.400
G4 P5
G1 X-19.800 Y-2.000
G4 P5
G1 X19.800 Y-2.000
G4 P5
G1 X19.800 Y-1.600
G4 P5
G1 X-19.800 Y-1.600
G4 P5
G1 X-19.800 Y-1.200
G4 P5
G1 X19.800 Y-1.200
G4 P5
G1 X19.800 Y-0.800
G4 P5
G1 X-19.800 Y-0.800
G4 P5
G1 X-19.800 Y-0.400
G4 P5
G1 X19.800 Y-0.400
G4 P5
G1 X19.800 Y0.000
G4 P5
G1 X-19.800 Y0.000
G4 P5
G1 X-19.800 Y0.400
G4 P5
G1 X19.800 Y0.400
G4 P5
G1 X19.800 Y0.800
G4 P5
G1 X-19.800 Y0.800
G4 P5
G1 X-19.800 Y1.200
G4 P5
G1 X19.800 Y1.200
G4 P5
G1 X19.800 Y1.600
G4 P5
G1 X-19.800 Y1.600
G4 P5
G1 X-19.800 Y2.000
G4 P5
G1 X19.800 Y2.000
G4 P5
G1 X19.800 Y2.400
G4 P5
G1 X-19.800 Y2.400
G4 P5
G1 X-19.800 Y2.800
G4 P5
G1 X19.800 Y2.800
G4 P5
G1 X19.800 Y3.200
G4 P5
G1 X-19.800 Y3.200
G4 P5
G1 X-19.800 Y3.600
G4 P5
G1 X19.800 Y3.600
G4 P5
G1 X19.800 Y4.000
G4 P5
G1 X-19.800 Y4.000
G4 P5
G1 X-19.800 Y4.400
G4 P5
G1 X19.800 Y4.400
G4 P5
G1 X19.800 Y4.800
G4 P5
G1 X-19.800 Y4.800
G4 P5
G1 X-19.800 Y5.200
G4 P5
G1 X19.800 Y5.200
G4 P5
G1 X19.800 Y5.600
G4 P5
G1 X-19.800 Y5.600
G4 P5
G1 X-19.800 Y6.000
G4 P5
G1 X19.800 Y6.000
G4 P5
G1 X19.800 Y6.400
G4 P5
G1 X-19.800 Y6.400
G4 P5
G1 X-19.800 Y6.800
G4 P5
G1 X19.800 Y6.800
G4 P5
G1 X19.800 Y7.200
G4 P5
G1 X-19.800 Y7.200
G4 P5
G1 X-19.800 Y7.600
G4 P5
G1 X19.800 Y7.600
G4 P5
G1 X19.800 Y8.000
G4 P5
G1 X-19.800 Y8.000
G4 P5
G1 X-19.800 Y8.400
G4 P5
G1 X19.800 Y8.400
G4 P5
G1 X19.800 Y8.800
G4 P5
G1 X-19.800 Y8.800
G4 P5
G1 X-19.800 Y9.200
G4 P5
G1 X19.800 Y9.200
G4 P5
G1 X19.800 Y9.600
G4 P5
G1 X-19.800 Y9.600
G4 P5
G1 X-19.800 Y10.000
G4 P5
G1 X19.800 Y10.000
G4 P5
M9
G1 Z10.000
G1 X-19.800 Y0.000
G1 Z1.500
M7
G4 P150
G1 X-19.800 Y0.000 Z1.500
G1 X-19.800 Y-9.800
G1 X-6.200 Y-9.800
G1 X-6.200 Y9.800
G1 X-19.800 Y9.800
G1 X-19.800 Y0.000
G1 X-19.400 Y0.000
G1 X-19.400 Y-9.400
G1 X-6.600 Y-9.400
G1 X-6.600 Y9.400
G1 X-19.400 Y9.400
G1 X-19.400 Y0.000
G1 X-19.000 Y0.000
G1 X-19.000 Y-9.000
G1 X-7.000 Y-9.000
G1 X-7.000 Y9.000
G1 X-19.000 Y9.000
G1 X-19.000 Y0.000
G1 X-18.600 Y0.000
G1 X-18.600 Y-8.600
G1 X-7.400 Y-8.600
G1 X-7.400 Y8.600
G1 X-18.600 Y8.600
G1 X-18.600 Y0.000
G1 X-18.200 Y0.000
G1 X-18.200 Y-8.200
G1 X-7.800 Y-8.200
G1 X-7.800 Y8.200
G1 X-18.200 Y8.200
G1 X-18.200 Y0.000
G1 X-17.800 Y0.000
G1 X-17.800 Y-7.800
G1 X-8.200 Y-7.800
G1 X-8.200 Y7.800
G1 X-17.800 Y7.800
G1 X-17.800 Y0.000
G1 X-17.400 Y0.000
G1 X-17.400 Y-7.400
G1 X-8.600 Y-7.400
G1 X-8.600 Y7.400
G1 X-17.400 Y7.400
G1 X-17.400 Y0.000
G1 X-17.000 Y0.000
G1 X-17.000 Y-7.000
G1 X-9.000 Y-7.000
G1 X-9.000 Y7.000
G1 X-17.000 Y7.000
G1 X-17.000 Y0.000
G1 X-16.600 Y0.000
G1 X-16.600 Y-6.600
G1 X-9.400 Y-6.600
G1 X-9.400 Y6.600
G1 X-16.600 Y6.600
G1 X-16.600 Y0.000
G1 X-16.200 Y0.000
G1 X-16.200 Y-6.200
G1 X-9.800 Y-6.200
G1 X-9.800 Y6.200
G1 X-16.200 Y6.200
G1 X-16.200 Y0.000
G1 X-15.800 Y0.000
G1 X-15.800 Y-5.800
G1 X-10.200 Y-5.800
G1 X-10.200 Y5.800
G1 X-15.800 Y5.800
G1 X-15.800 Y0.000
G1 X-15.400 Y0.000
G1 X-15.400 Y-5.400
G1 X-10.600 Y-5.400
G1 X-10.600 Y5.400
G1 X-15.400 Y5.400
G1 X-15.400 Y0.000
G1 X-15.000 Y0.000
G1 X-15.000 Y-5.000
G1 X-11.000 Y-5.000
G1 X-11.000 Y5.000
G1 X-15.000 Y5.000
G1 X-15.000 Y0.000
G1 X-14.600 Y0.000
G1 X-14.600 Y-4.600
G1 X-11.400 Y-4.600
G1 X-11.400 Y4.600
G1 X-14.600 Y4.600
G1 X-14.600 Y0.000
G1 X-14.200 Y0.000
G1 X-14.200 Y-4.200
G1 X-11.800 Y-4.200
G1 X-11.800 Y4.200
G1 X-14.200 Y4.200
G1 X-14.200 Y0.000
G1 X-13.800 Y0.000
G1 X-13.800 Y-3.800
G1 X-12.200 Y-3.800
G1 X-12.200 Y3.800
G1 X-13.800 Y3.800
G1 X-13.800 Y0.000
G1 X-13.400 Y0.000
G1 X-13.400 Y-3.400
G1 X-12.600 Y-3.400
G1 X-12.600 Y3.400
G1 X-13.400 Y3.400
G1 X-13.400 Y0.000
G1 X-13.000 Y0.000
G1 X-13.800 Y0.000 Z1.900
G1 X-13.800 Y0.000
G1 X-14.200 Y0.000
G1 X-14.200 Y4.200
G1 X-13.507 Y4.200
G1 X-13.507 Y-4.200
G1 X-14.200 Y-4.200
G1 X-14.200 Y0.000
G1 X-14.600 Y0.000
G1 X-14.600 Y4.600
G1 X-13.107 Y4.600
G1 X-13.107 Y-4.600
G1 X-14.600 Y-4.600
G1 X-14.600 Y0.000
G1 X-15.000 Y0.000
G1 X-15.000 Y5.000
G1 X-12.707 Y5.000
G1 X-12.707 Y-5.000
G1 X-15.000 Y-5.000
G1 X-15.000 Y0.000
G1 X-15.400 Y0.000
G1 X-15.400 Y5.400
G1 X-12.307 Y5.400
G1 X-12.307 Y-5.400
G1 X-15.400 Y-5.400
G1 X-15.400 Y0.000
G1 X-15.800 Y0.000
G1 X-15.800 Y5.800
G1 X-11.907 Y5.800
G1 X-11.907 Y-5.800
G1 X-15.800 Y-5.800
G1 X-15.800 Y0.000
G1 X-16.200 Y0.000
G1 X-16.200 Y6.200
G1 X-11.507 Y6.200
G1 X-11.507 Y-6.200
G1 X-16.200 Y-6.200
G1 X-16.200 Y0.000
G1 X-16.600 Y0.000
G1 X-16.600 Y6.600
G1 X-11.107 Y6.600
G1 X-11.107 Y-6.600
G1 X-16.600 Y-6.600
G1 X-16.600 Y0.000
G1 X-17.000 Y0.000
G1 X-17.000 Y7.000
G1 X-10.707 Y7.000
G1 X-10.707 Y-7.000
G1 X-17.000 Y-7.000
G1 X-17.000 Y0.000
G1 X-17.400 Y0.000
G1 X-17.400 Y7.400
G1 X-10.307 Y7.400
G1 X-10.307 Y-7.400
G1 X-17.400 Y-7.400
G1 X-17.400 Y0.000
G1 X-17.800 Y0.000
G1 X-17.800 Y7.800
G1 X-9.907 Y7.800
G1 X-9.907 Y-7.800
G1 X-17.800 Y-7.800
G1 X-17.800 Y0.000
G1 X-18.200 Y0.000
G1 X-18.200 Y8.200
G1 X-9.507 Y8.200
G1 X-9.507 Y-8.200
G1 X-18.200 Y-8.200
G1 X-18.200 Y0.000
G1 X-18.600 Y0.000
G1 X-18.600 Y8.600
G1 X-9.107 Y8.600
G1 X-9.107 Y-8.600
G1 X-18.600 Y-8.600
G1 X-18.600 Y0.000
G1 X-19.000 Y0.000
G1 X-19.000 Y9.000
G1 X-8.707 Y9.000
G1 X-8.707 Y-9.000
G1 X-19.000 Y-9.000
G1 X-19.000 Y0.000
G1 X-19.400 Y0.000
G1 X-19.400 Y9.400
G1 X-8.307 Y9.400
G1 X-8.307 Y-9.400
G1 X-19.400 Y-9.400
G1 X-19.400 Y0.000
G1 X-19.800 Y0.000
G1 X-19.800 Y9.800
G1 X-7.907 Y9.800
G1 X-7.907 Y-9.800
G1 X-19.800 Y-9.800
G1 X-19.800 Y0.000 Z1.900
G1 X-19.800 Y0.000 Z2.300
G1 X-19.800 Y-9.800
G1 X-8.446 Y-9.800
G1 X-8.446 Y9.800
G1 X-19.800 Y9.800
G1 X-19.800 Y0.000
G1 X-19.400 Y0.000
G1 X-19.400 Y-9.400
G1 X-8.846 Y-9.400
G1 X-8.846 Y9.400
G1 X-19.400 Y9.400
G1 X-19.400 Y0.000
G1 X-19.000 Y0.000
G1 X-19.000 Y-9.000
G1 X-9.246 Y-9.000
G1 X-9.246 Y9.000
G1 X-19.000 Y9.000
G1 X-19.000 Y0.000
G1 X-18.600 Y0.000
G1 X-18.600 Y-8.600
G1 X-9.646 Y-8.600
G1 X-9.646 Y8.600
G1 X-18.600 Y8.600
G1 X-18.600 Y0.000
G1 X-18.200 Y0.000
G1 X-18.200 Y-8.200
G1 X-10.046 Y-8.200
G1 X-10.046 Y8.200
G1 X-18.200 Y8.200
G1 X-18.200 Y0.000
G1 X-17.800 Y0.000
G1 X-17.800 Y-7.800
G1 X-10.446 Y-7.800
G1 X-10.446 Y7.800
G1 X-17.800 Y7.800
G1 X-17.800 Y0.000
G1 X-17.400 Y0.000
G1 X-17.400 Y-7.400
G1 X-10.846 Y-7.400
G1 X-10.846 Y7.400
G1 X-17.400 Y7.400
G1 X-17.400 Y0.000
G1 X-17.000 Y0.000
G1 X-17.000 Y-7.000
G1 X-11.246 Y-7.000
G1 X-11.246 Y7.000
G1 X-17.000 Y7.000
G1 X-17.000 Y0.000
G1 X-16.600 Y0.000
G1 X-16.600 Y-6.600
G1 X-11.646 Y-6.600
G1 X-11.646 Y6.600
G1 X-16.600 Y6.600
G1 X-16.600 Y0.000
G1 X-16.200 Y0.000
G1 X-16.200 Y-6.200
G1 X-12.046 Y-6.200
G1 X-12.046 Y6.200
G1 X-16.200 Y6.200
G1 X-16.200 Y0.000
G1 X-15.800 Y0.000
G1 X-15.800 Y-5.800
G1 X-12.446 Y-5.800
G1 X-12.446 Y5.800
G1 X-15.800 Y5.800
G1 X-15.800 Y0.000
G1 X-15.400 Y0.000
G1 X-15.400 Y-5.400
G1 X-12.846 Y-5.400
G1 X-12.846 Y5.400
G1 X-15.400 Y5.400
G1 X-15.400 Y0.000
G1 X-15.000 Y0.000
G1 X-15.000 Y-5.000
G1 X-13.246 Y-5.000
G1 X-13.246 Y5.000
G1 X-15.000 Y5.000
G1 X-15.000 Y0.000
G1 X-14.600 Y0.000
G1 X-14.600 Y-4.600
G1 X-13.646 Y-4.600
G1 X-13.646 Y4.600
G1 X-14.600 Y4.600
G1 X-14.600 Y0.000
G1 X-14.200 Y0.000
G1 X-14.200 Y0.000 Z2.700
G1 X-14.200 Y0.000
G1 X-14.600 Y0.000
G1 X-14.600 Y4.600
G1 X-14.040 Y4.600
G1 X-14.040 Y-4.600
G1 X-14.600 Y-4.600
G1 X-14.600 Y0.000
G1 X-15.000 Y0.000
G1 X-15.000 Y5.000
G1 X-13.640 Y5.000
G1 X-13.640 Y-5.000
G1 X-15.000 Y-5.000
G1 X-15.000 Y0.000
G1 X-15.400 Y0.000
G1 X-15.400 Y5.400
G1 X-13.240 Y5.400
G1 X-13.240 Y-5.400
G1 X-15.400 Y-5.400
G1 X-15.400 Y0.000
G1 X-15.800 Y0.000
G1 X-15.800 Y5.800
G1 X-12.840 Y5.800
G1 X-12.840 Y-5.800
G1 X-15.800 Y-5.800
G1 X-15.800 Y0.000
G1 X-16.200 Y0.000
G1 X-16.200 Y6.200
G1 X-12.440 Y6.200
G1 X-12.440 Y-6.200
G1 X-16.200 Y-6.200
G1 X-16.200 Y0.000
G1 X-16.600 Y0.000
G1 X-16.600 Y6.600
G1 X-12.040 Y6.600
G1 X-12.040 Y-6.600
G1 X-16.600 Y-6.600
G1 X-16.600 Y0.000
G1 X-17.000 Y0.000
G1 X-17.000 Y7.000
G1 X-11.640 Y7.000
G1 X-11.640 Y-7.000
G1 X-17.000 Y-7.000
G1 X-17.000 Y0.000
G1 X-17.400 Y0.000
G1 X-17.400 Y7.400
G1 X-11.240 Y7.400
G1 X-11.240 Y-7.400
G1 X-17.400 Y-7.400
G1 X-17.400 Y0.000
G1 X-17.800 Y0.000
G1 X-17.800 Y7.800
G1 X-10.840 Y7.800
G1 X-10.840 Y-7.800
G1 X-17.800 Y-7.800
G1 X-17.800 Y0.000
G1 X-18.200 Y0.000
G1 X-18.200 Y8.200
G1 X-10.440 Y8.200
G1 X-10.440 Y-8.200
G1 X-18.200 Y-8.200
G1 X-18.200 Y0.000
G1 X-18.600 Y0.000
G1 X-18.600 Y8.600
G1 X-10.040 Y8.600
G1 X-10.040 Y-8.600
G1 X-18.600 Y-8.600
G1 X-18.600 Y0.000
G1 X-19.000 Y0.000
G1 X-19.000 Y9.000
G1 X-9.640 Y9.000
G1 X-9.640 Y-9.000
G1 X-19.000 Y-9.000
G1 X-19.000 Y0.000
G1 X-19.400 Y0.000
G1 X-19.400 Y9.400
G1 X-9.240 Y9.400
G1 X-9.240 Y-9.400
G1 X-19.400 Y-9.400
G1 X-19.400 Y0.000
G1 X-19.800 Y0.000
G1 X-19.800 Y9.800
G1 X-8.840 Y9.800
G1 X-8.840 Y-9.800
G1 X-19.800 Y-9.800
G1 X-19.800 Y0.000 Z2.700
G1 X-19.800 Y0.000 Z3.100
G1 X-19.800 Y-9.800
G1 X-9.141 Y-9.800
G1 X-9.141 Y9.800
G1 X-19.800 Y9.800
G1 X-19.800 Y0.000
G1 X-19.400 Y0.000
G1 X-19.400 Y-9.400
G1 X-9.541 Y-9.400
G1 X-9.541 Y9.400
G1 X-19.400 Y9.400
G1 X-19.400 Y0.000
G1 X-19.000 Y0.000
G1 X-19.000 Y-9.000
G1 X-9.941 Y-9.000
G1 X-9.941 Y9.000
G1 X-19.000 Y9.000
G1 X-19.000 Y0.000
G1 X-18.600 Y0.000
G1 X-18.600 Y-8.600
G1 X-10.341 Y-8.600
G1 X-10.341 Y8.600
G1 X-18.600 Y8.600
G1 X-18.600 Y0.000
G1 X-18.200 Y0.000
G1 X-18.200 Y-8.200
G1 X-10.741 Y-8.200
G1 X-10.741 Y8.200
G1 X-18.200 Y8.200
G1 X-18.200 Y0.000
G1 X-17.800 Y0.000
G1 X-17.800 Y-7.800
G1 X-11.141 Y-7.800
G1 X-11.141 Y7.800
G1 X-17.800 Y7.800
G1 X-17.800 Y0.000
G1 X-17.400 Y0.000
G1 X-17.400 Y-7.400
G1 X-11.541 Y-7.400
G1 X-11.541 Y7.400
G1 X-17.400 Y7.400
G1 X-17.400 Y0.000
G1 X-17.000 Y0.000
G1 X-17.000 Y-7.000
G1 X-11.941 Y-7.000
G1 X-11.941 Y7.000
G1 X-17.000 Y7.000
G1 X-17.000 Y0.000
G1 X-16.600 Y0.000
G1 X-16.600 Y-6.600
G1 X-12.341 Y-6.600
G1 X-12.341 Y6.600
G1 X-16.600 Y6.600
G1 X-16.600 Y0.000
G1 X-16.200 Y0.000
G1 X-16.200 Y-6.200
G1 X-12.741 Y-6.200
G1 X-12.741 Y6.200
G1 X-16.200 Y6.200
G1 X-16.200 Y0.000
G1 X-15.800 Y0.000
G1 X-15.800 Y-5.800
G1 X-13.141 Y-5.800
G1 X-13.141 Y5.800
G1 X-15.800 Y5.800
G1 X-15.800 Y0.000
G1 X-15.400 Y0.000
G1 X-15.400 Y-5.400
G1 X-13.541 Y-5.400
G1 X-13.541 Y5.400
G1 X-15.400 Y5.400
G1 X-15.400 Y0.000
G1 X-15.000 Y0.000
G1 X-15.000 Y-5.000
G1 X-13.941 Y-5.000
G1 X-13.941 Y5.000
G1 X-15.000 Y5.000
G1 X-15.000 Y0.000
G1 X-14.600 Y0.000
G1 X-14.600 Y0.000 Z3.500
G1 X-14.600 Y0.000
G1 X-15.000 Y0.000
G1 X-15.000 Y5.000
G1 X-14.172 Y5.000
G1 X-14.172 Y-5.000
G1 X-15.000 Y-5.000
G1 X-15.000 Y0.000
G1 X-15.400 Y0.000
G1 X-15.400 Y5.400
G1 X-13.772 Y5.400
G1 X-13.772 Y-5.400
G1 X-15.400 Y-5.400
G1 X-15.400 Y0.000
G1 X-15.800 Y0.000
G1 X-15.800 Y5.800
G1 X-13.372 Y5.800
G1 X-13.372 Y-5.800
G1 X-15.800 Y-5.800
G1 X-15.800 Y0.000
G1 X-16.200 Y0.000
G1 X-16.200 Y6.200
G1 X-12.972 Y6.200
G1 X-12.972 Y-6.200
G1 X-16.200 Y-6.200
G1 X-16.200 Y0.000
G1 X-16.600 Y0.000
G1 X-16.600 Y6.600
G1 X-12.572 Y6.600
G1 X-12.572 Y-6.600
G1 X-16.600 Y-6.600
G1 X-16.600 Y0.000
G1 X-17.000 Y0.000
G1 X-17.000 Y7.000
G1 X-12.172 Y7.000
G1 X-12.172 Y-7.000
G1 X-17.000 Y-7.000
G1 X-17.000 Y0.000
G1 X-17.400 Y0.000
G1 X-17.400 Y7.400
G1 X-11.772 Y7.400
G1 X-11.772 Y-7.400
G1 X-17.400 Y-7.400
G1 X-17.400 Y0.000
G1 X-17.800 Y0.000
G1 X-17.800 Y7.800
G1 X-11.372 Y7.800
G1 X-11.372 Y-7.800
G1 X-17.800 Y-7.800
G1 X-17.800 Y0.000
G1 X-18.200 Y0.000
G1 X-18.200 Y8.200
G1 X-10.972 Y8.200
G1 X-10.972 Y-8.200
G1 X-18.200 Y-8.200
G1 X-18.200 Y0.000
G1 X-18.600 Y0.000
G1 X-18.600 Y8.600
G1 X-10.572 Y8.600
G1 X-10.572 Y-8.600
G1 X-18.600 Y-8.600
G1 X-18.600 Y0.000
G1 X-19.000 Y0.000
G1 X-19.000 Y9.000
G1 X-10.172 Y9.000
G1 X-10.172 Y-9.000
G1 X-19.000 Y-9.000
G1 X-19.000 Y0.000
G1 X-19.400 Y0.000
G1 X-19.400 Y9.400
G1 X-9.772 Y9.400
G1 X-9.772 Y-9.400
G1 X-19.400 Y-9.400
G1 X-19.400 Y0.000
G1 X-19.800 Y0.000
G1 X-19.800 Y9.800
G1 X-9.372 Y9.800
G1 X-9.372 Y-9.800
G1 X-19.800 Y-9.800
G1 X-19.800 Y0.000 Z3.500
G1 X-19.800 Y0.000 Z3.900
G1 X-19.800 Y-9.800
G1 X-9.547 Y-9.800
G1 X-9.547 Y9.800
G1 X-19.800 Y9.800
G1 X-19.800 Y0.000
G1 X-19.400 Y0.000
G1 X-19.400 Y-9.400
G1 X-9.947 Y-9.400
G1 X-9.947 Y9.400
G1 X-19.400 Y9.400
G1 X-19.400 Y0.000
G1 X-19.000 Y0.000
G1 X-19.000 Y-9.000
G1 X-10.347 Y-9.000
G1 X-10.347 Y9.000
G1 X-19.000 Y9.000
G1 X-19.000 Y0.000
G1 X-18.600 Y0.000
G1 X-18.600 Y-8.600
G1 X-10.747 Y-8.600
G1 X-10.747 Y8.600
G1 X-18.600 Y8.600
G1 X-18.600 Y0.000
G1 X-18.200 Y0.000
G1 X-18.200 Y-8.200
G1 X-11.147 Y-8.200
G1 X-11.147 Y8.200
G1 X-18.200 Y8.200
G1 X-18.200 Y0.000
G1 X-17.800 Y0.000
G1 X-17.800 Y-7.800
G1 X-11.547 Y-7.800
G1 X-11.547 Y7.800
G1 X-17.800 Y7.800
G1 X-17.800 Y0.000
G1 X-17.400 Y0.000
G1 X-17.400 Y-7.400
G1 X-11.947 Y-7.400
G1 X-11.947 Y7.400
G1 X-17.400 Y7.400
G1 X-17.400 Y0.000
G1 X-17.000 Y0.000
G1 X-17.000 Y-7.000
G1 X-12.347 Y-7.000
G1 X-12.347 Y7.000
G1 X-17.000 Y7.000
G1 X-17.000 Y0.000
G1 X-16.600 Y0.000
G1 X-16.600 Y-6.600
G1 X-12.747 Y-6.600
G1 X-12.747 Y6.600
G1 X-16.600 Y6.600
G1 X-16.600 Y0.000
G1 X-16.200 Y0.000
G1 X-16.200 Y-6.200
G1 X-13.147 Y-6.200
G1 X-13.147 Y6.200
G1 X-16.200 Y6.200
G1 X-16.200 Y0.000
G1 X-15.800 Y0.000
G1 X-15.800 Y-5.800
G1 X-13.547 Y-5.800
G1 X-13.547 Y5.800
G1 X-15.800 Y5.800
G1 X-15.800 Y0.000
G1 X-15.400 Y0.000
G1 X-15.400 Y-5.400
G1 X-13.947 Y-5.400
G1 X-13.947 Y5.400
G1 X-15.400 Y5.400
G1 X-15.400 Y0.000
G1 X-15.000 Y0.000
G1 X-15.000 Y-5.000
G1 X-14.347 Y-5.000
G1 X-14.347 Y5.000
G1 X-15.000 Y5.000
G1 X-15.000 Y0.000
G1 X-14.600 Y0.000
G1 X-14.600 Y0.000 Z4.300
G1 X-14.600 Y0.000
G1 X-15.000 Y0.000
G1 X-15.000 Y5.000
G1 X-14.473 Y5.000
G1 X-14.473 Y-5.000
G1 X-15.000 Y-5.000
G1 X-15.000 Y0.000
G1 X-15.400 Y0.000
G1 X-15.400 Y5.400
G1 X-14.073 Y5.400
G1 X-14.073 Y-5.400
G1 X-15.400 Y-5.400
G1 X-15.400 Y0.000
G1 X-15.800 Y0.000
G1 X-15.800 Y5.800
G1 X-13.673 Y5.800
G1 X-13.673 Y-5.800
G1 X-15.800 Y-5.800
G1 X-15.800 Y0.000
G1 X-16.200 Y0.000
G1 X-16.200 Y6.200
G1 X-13.273 Y6.200
G1 X-13.273 Y-6.200
G1 X-16.200 Y-6.200
G1 X-16.200 Y0.000
G1 X-16.600 Y0.000
G1 X-16.600 Y6.600
G1 X-12.873 Y6.600
G1 X-12.873 Y-6.600
G1 X-16.600 Y-6.600
G1 X-16.600 Y0.000
G1 X-17.000 Y0.000
G1 X-17.000 Y7.000
G1 X-12.473 Y7.000
G1 X-12.473 Y-7.000
G1 X-17.000 Y-7.000
G1 X-17.000 Y0.000
G1 X-17.400 Y0.000
G1 X-17.400 Y7.400
G1 X-12.073 Y7.400
G1 X-12.073 Y-7.400
G1 X-17.400 Y-7.400
G1 X-17.400 Y0.000
G1 X-17.800 Y0.000
G1 X-17.800 Y7.800
G1 X-11.673 Y7.800
G1 X-11.673 Y-7.800
G1 X-17.800 Y-7.800
G1 X-17.800 Y0.000
G1 X-18.200 Y0.000
G1 X-18.200 Y8.200
G1 X-11.273 Y8.200
G1 X-11.273 Y-8.200
G1 X-18.200 Y-8.200
G1 X-18.200 Y0.000
G1 X-18.600 Y0.000
G1 X-18.600 Y8.600
G1 X-10.873 Y8.600
G1 X-10.873 Y-8.600
G1 X-18.600 Y-8.600
G1 X-18.600 Y0.000
G1 X-19.000 Y0.000
G1 X-19.000 Y9.000
G1 X-10.473 Y9.000
G1 X-10.473 Y-9.000
G1 X-19.000 Y-9.000
G1 X-19.000 Y0.000
G1 X-19.400 Y0.000
G1 X-19.400 Y9.400
G1 X-10.073 Y9.400
G1 X-10.073 Y-9.400
G1 X-19.400 Y-9.400
G1 X-19.400 Y0.000
G1 X-19.800 Y0.000
G1 X-19.800 Y9.800
G1 X-9.673 Y9.800
G1 X-9.673 Y-9.800
G1 X-19.800 Y-9.800
G1 X-19.800 Y0.000 Z4.300
G1 X-19.800 Y0.000 Z4.700
G1 X-19.800 Y-9.800
G1 X-9.755 Y-9.800
G1 X-9.755 Y9.800
G1 X-19.800 Y9.800
G1 X-19.800 Y0.000
G1 X-19.400 Y0.000
G1 X-19.400 Y-9.400
G1 X-10.155 Y-9.400
G1 X-10.155 Y9.400
G1 X-19.400 Y9.400
G1 X-19.400 Y0.000
G1 X-19.000 Y0.000
G1 X-19.000 Y-9.000
G1 X-10.555 Y-9.000
G1 X-10.555 Y9.000
G1 X-19.000 Y9.000
G1 X-19.000 Y0.000
G1 X-18.600 Y0.000
G1 X-18.600 Y-8.600
G1 X-10.955 Y-8.600
G1 X-10.955 Y8.600
G1 X-18.600 Y8.600
G1 X-18.600 Y0.000
G1 X-18.200 Y0.000
G1 X-18.200 Y-8.200
G1 X-11.355 Y-8.200
G1 X-11.355 Y8.200
G1 X-18.200 Y8.200
G1 X-18.200 Y0.000
G1 X-17.800 Y0.000
G1 X-17.800 Y-7.800
G1 X-11.755 Y-7.800
G1 X-11.755 Y7.800
G1 X-17.800 Y7.800
G1 X-17.800 Y0.000
G1 X-17.400 Y0.000
G1 X-17.400 Y-7.400
G1 X-12.155 Y-7.400
G1 X-12.155 Y7.400
G1 X-17.400 Y7.400
G1 X-17.400 Y0.000
G1 X-17.000 Y0.000
G1 X-17.000 Y-7.000
G1 X-12.555 Y-7.000
G1 X-12.555 Y7.000
G1 X-17.000 Y7.000
G1 X-17.000 Y0.000
G1 X-16.600 Y0.000
G1 X-16.600 Y-6.600
G1 X-12.955 Y-6.600
G1 X-12.955 Y6.600
G1 X-16.600 Y6.600
G1 X-16.600 Y0.000
G1 X-16.200 Y0.000
G1 X-16.200 Y-6.200
G1 X-13.355 Y-6.200
G1 X-13.355 Y6.200
G1 X-16.200 Y6.200
G1 X-16.200 Y0.000
G1 X-15.800 Y0.000
G1 X-15.800 Y-5.800
G1 X-13.755 Y-5.800
G1 X-13.755 Y5.800
G1 X-15.800 Y5.800
G1 X-15.800 Y0.000
G1 X-15.400 Y0.000
G1 X-15.400 Y-5.400
G1 X-14.155 Y-5.400
G1 X-14.155 Y5.400
G1 X-15.400 Y5.400
G1 X-15.400 Y0.000
G1 X-15.000 Y0.000
G1 X-15.000 Y-5.000
G1 X-14.555 Y-5.000
G1 X-14.555 Y5.000
G1 X-15.000 Y5.000
G1 X-15.000 Y0.000
G1 X-14.600 Y0.000
G1 X-14.600 Y0.000 Z5.100
G1 X-14.600 Y0.000
G1 X-15.000 Y0.000
G1 X-15.000 Y5.000
G1 X-14.595 Y5.000
G1 X-14.595 Y-5.000
G1 X-15.000 Y-5.000
G1 X-15.000 Y0.000
G1 X-15.400 Y0.000
G1 X-15.400 Y5.400
G1 X-14.195 Y5.400
G1 X-14.195 Y-5.400
G1 X-15.400 Y-5.400
G1 X-15.400 Y0.000
G1 X-15.800 Y0.000
G1 X-15.800 Y5.800
G1 X-13.795 Y5.800
G1 X-13.795 Y-5.800
G1 X-15.800 Y-5.800
G1 X-15.800 Y0.000
G1 X-16.200 Y0.000
G1 X-16.200 Y6.200
G1 X-13.395 Y6.200
G1 X-13.395 Y-6.200
G1 X-16.200 Y-6.200
G1 X-16.200 Y0.000
G1 X-16.600 Y0.000
G1 X-16.600 Y6.600
G1 X-12.995 Y6.600
G1 X-12.995 Y-6.600
G1 X-16.600 Y-6.600
G1 X-16.600 Y0.000
G1 X-17.000 Y0.000
G1 X-17.000 Y7.000
G1 X-12.595 Y7.000
G1 X-12.595 Y-7.000
G1 X-17.000 Y-7.000
G1 X-17.000 Y0.000
G1 X-17.400 Y0.000
G1 X-17.400 Y7.400
G1 X-12.195 Y7.400
G1 X-12.195 Y-7.400
G1 X-17.400 Y-7.400
G1 X-17.400 Y0.000
G1 X-17.800 Y0.000
G1 X-17.800 Y7.800
G1 X-11.795 Y7.800
G1 X-11.795 Y-7.800
G1 X-17.800 Y-7.800
G1 X-17.800 Y0.000
G1 X-18.200 Y0.000
G1 X-18.200 Y8.200
G1 X-11.395 Y8.200
G1 X-11.395 Y-8.200
G1 X-18.200 Y-8.200
G1 X-18.200 Y0.000
G1 X-18.600 Y0.000
G1 X-18.600 Y8.600
G1 X-10.995 Y8.600
G1 X-10.995 Y-8.600
G1 X-18.600 Y-8.600
G1 X-18.600 Y0.000
G1 X-19.000 Y0.000
G1 X-19.000 Y9.000
G1 X-10.595 Y9.000
G1 X-10.595 Y-9.000
G1 X-19.000 Y-9.000
G1 X-19.000 Y0.000
G1 X-19.400 Y0.000
G1 X-19.400 Y9.400
G1 X-10.195 Y9.400
G1 X-10.195 Y-9.400
G1 X-19.400 Y-9.400
G1 X-19.400 Y0.000
G1 X-19.800 Y0.000
G1 X-19.800 Y9.800
G1 X-9.795 Y9.800
G1 X-9.795 Y-9.800
G1 X-19.800 Y-9.800
G1 X-19.800 Y0.000 Z5.100
M9
G1 Z10.000
G1 X19.800 Y0.000
G1 Z1.500
M7
G4 P150
G1 X19.800 Y0.000 Z1.500
G1 X19.800 Y9.800
G1 X6.200 Y9.800
G1 X6.200 Y-9.800
G1 X19.800 Y-9.800
G1 X19.800 Y0.000
G1 X19.400 Y0.000
G1 X19.400 Y9.400
G1 X6.600 Y9.400
G1 X6.600 Y-9.400
G1 X19.400 Y-9.400
G1 X19.400 Y0.000
G1 X19.000 Y0.000
G1 X19.000 Y9.000
G1 X7.000 Y9.000
G1 X7.000 Y-9.000
G1 X19.000 Y-9.000
G1 X19.000 Y0.000
G1 X18.600 Y0.000
G1 X18.600 Y8.600
G1 X7.400 Y8.600
G1 X7.400 Y-8.600
G1 X18.600 Y-8.600
G1 X18.600 Y0.000
G1 X18.200 Y0.000
G1 X18.200 Y8.200
G1 X7.800 Y8.200
G1 X7.800 Y-8.200
G1 X18.200 Y-8.200
G1 X18.200 Y0.000
G1 X17.800 Y0.000
G1 X17.800 Y7.800
G1 X8.200 Y7.800
G1 X8.200 Y-7.800
G1 X17.800 Y-7.800
G1 X17.800 Y0.000
G1 X17.400 Y0.000
G1 X17.400 Y7.400
G1 X8.600 Y7.400
G1 X8.600 Y-7.400
G1 X17.400 Y-7.400
G1 X17.400 Y0.000
G1 X17.000 Y0.000
G1 X17.000 Y7.000
G1 X9.000 Y7.000
G1 X9.000 Y-7.000
G1 X17.000 Y-7.000
G1 X17.000 Y0.000
G1 X16.600 Y0.000
G1 X16.600 Y6.600
G1 X9.400 Y6.600
G1 X9.400 Y-6.600
G1 X16.600 Y-6.600
G1 X16.600 Y0.000
G1 X16.200 Y0.000
G1 X16.200 Y6.200
G1 X9.800 Y6.200
G1 X9.800 Y-6.200
G1 X16.200 Y-6.200
G1 X16.200 Y0.000
G1 X15.800 Y0.000
G1 X15.800 Y5.800
G1 X10.200 Y5.800
G1 X10.200 Y-5.800
G1 X15.800 Y-5.800
G1 X15.800 Y0.000
G1 X15.400 Y0.000
G1 X15.400 Y5.400
G1 X10.600 Y5.400
G1 X10.600 Y-5.400
G1 X15.400 Y-5.400
G1 X15.400 Y0.000
G1 X15.000 Y0.000
G1 X15.000 Y5.000
G1 X11.000 Y5.000
G1 X11.000 Y-5.000
G1 X15.000 Y-5.000
G1 X15.000 Y0.000
G1 X14.600 Y0.000
G1 X14.600 Y4.600
G1 X11.400 Y4.600
G1 X11.400 Y-4.600
G1 X14.600 Y-4.600
G1 X14.600 Y0.000
G1 X14.200 Y0.000
G1 X14.200 Y4.200
G1 X11.800 Y4.200
G1 X11.800 Y-4.200
G1 X14.200 Y-4.200
G1 X14.200 Y0.000
G1 X13.800 Y0.000
G1 X13.800 Y3.800
G1 X12.200 Y3.800
G1 X12.200 Y-3.800
G1 X13.800 Y-3.800
G1 X13.800 Y0.000
G1 X13.400 Y0.000
G1 X13.400 Y3.400
G1 X12.600 Y3.400
G1 X12.600 Y-3.400
G1 X13.400 Y-3.400
G1 X13.400 Y0.000
G1 X13.000 Y0.000
G1 X13.800 Y0.000 Z1.900
G1 X13.800 Y0.000
G1 X14.200 Y0.000
G1 X14.200 Y-4.200
G1 X13.507 Y-4.200
G1 X13.507 Y4.200
G1 X14.200 Y4.200
G1 X14.200 Y0.000
G1 X14.600 Y0.000
G1 X14.600 Y-4.600
G1 X13.107 Y-4.600
G1 X13.107 Y4.600
G1 X14.600 Y4.600
G1 X14.600 Y0.000
G1 X15.000 Y0.000
G1 X15.000 Y-5.000
G1 X12.707 Y-5.000
G1 X12.707 Y5.000
G1 X15.000 Y5.000
G1 X15.000 Y0.000
G1 X15.400 Y0.000
G1 X15.400 Y-5.400
G1 X12.307 Y-5.400
G1 X12.307 Y5.400
G1 X15.400 Y5.400
G1 X15.400 Y0.000
G1 X15.800 Y0.000
G1 X15.800 Y-5.800
G1 X11.907 Y-5.800
G1 X11.907 Y5.800
G1 X15.800 Y5.800
G1 X15.800 Y0.000
G1 X16.200 Y0.000
G1 X16.200 Y-6.200
G1 X11.507 Y-6.200
G1 X11.507 Y6.200
G1 X16.200 Y6.200
G1 X16.200 Y0.000
G1 X16.600 Y0.000
G1 X16.600 Y-6.600
G1 X11.107 Y-6.600
G1 X11.107 Y6.600
G1 X16.600 Y6.600
G1 X16.600 Y0.000
G1 X17.000 Y0.000
G1 X17.000 Y-7.000
G1 X10.707 Y-7.000
G1 X10.707 Y7.000
G1 X17.000 Y7.000
G1 X17.000 Y0.000
G1 X17.400 Y0.000
G1 X17.400 Y-7.400
G1 X10.307 Y-7.400
G1 X10.307 Y7.400
G1 X17.400 Y7.400
G1 X17.400 Y0.000
G1 X17.800 Y0.000
G1 X17.800 Y-7.800
G1 X9.907 Y-7.800
G1 X9.907 Y7.800
G1 X17.800 Y7.800
G1 X17.800 Y0.000
G1 X18.200 Y0.000
G1 X18.200 Y-8.200
G1 X9.507 Y-8.200
G1 X9.507 Y8.200
G1 X18.200 Y8.200
G1 X18.200 Y0.000
G1 X18.600 Y0.000
G1 X18.600 Y-8.600
G1 X9.107 Y-8.600
G1 X9.107 Y8.600
G1 X18.600 Y8.600
G1 X18.600 Y0.000
G1 X19.000 Y0.000
G1 X19.000 Y-9.000
G1 X8.707 Y-9.000
G1 X8.707 Y9.000
G1 X19.000 Y9.000
G1 X19.000 Y0.000
G1 X19.400 Y0.000
G1 X19.400 Y-9.400
G1 X8.307 Y-9.400
G1 X8.307 Y9.400
G1 X19.400 Y9.400
G1 X19.400 Y0.000
G1 X19.800 Y0.000
G1 X19.800 Y-9.800
G1 X7.907 Y-9.800
G1 X7.907 Y9.800
G1 X19.800 Y9.800
G1 X19.800 Y0.000 Z1.900
G1 X19.800 Y0.000 Z2.300
G1 X19.800 Y9.800
G1 X8.446 Y9.800
G1 X8.446 Y-9.800
G1 X19.800 Y-9.800
G1 X19.800 Y0.000
G1 X19.400 Y0.000
G1 X19.400 Y9.400
G1 X8.846 Y9.400
G1 X8.846 Y-9.400
G1 X19.400 Y-9.400
G1 X19.400 Y0.000
G1 X19.000 Y0.000
G1 X19.000 Y9.000
G1 X9.246 Y9.000
G1 X9.246 Y-9.000
G1 X19.000 Y-9.000
G1 X19.000 Y0.000
G1 X18.600 Y0.000
G1 X18.600 Y8.600
G1 X9.646 Y8.600
G1 X9.646 Y-8.600
G1 X18.600 Y-8.600
G1 X18.600 Y0.000
G1 X18.200 Y0.000
G1 X18.200 Y8.200
G1 X10.046 Y8.200
G1 X10.046 Y-8.200
G1 X18.200 Y-8.200
G1 X18.200 Y0.000
G1 X17.800 Y0.000
G1 X17.800 Y7.800
G1 X10.446 Y7.800
G1 X10.446 Y-7.800
G1 X17.800 Y-7.800
G1 X17.800 Y0.000
G1 X17.400 Y0.000
G1 X17.400 Y7.400
G1 X10.846 Y7.400
G1 X10.846 Y-7.400
G1 X17.400 Y-7.400
G1 X17.400 Y0.000
G1 X17.000 Y0.000
G1 X17.000 Y7.000
G1 X11.246 Y7.000
G1 X11.246 Y-7.000
G1 X17.000 Y-7.000
G1 X17.000 Y0.000
G1 X16.600 Y0.000
G1 X16.600 Y6.600
G1 X11.646 Y6.600
G1 X11.646 Y-6.600
G1 X16.600 Y-6.600
G1 X16.600 Y0.000
G1 X16.200 Y0.000
G1 X16.200 Y6.200
G1 X12.046 Y6.200
G1 X12.046 Y-6.200
G1 X16.200 Y-6.200
G1 X16.200 Y0.000
G1 X15.800 Y0.000
G1 X15.800 Y5.800
G1 X12.446 Y5.800
G1 X12.446 Y-5.800
G1 X15.800 Y-5.800
G1 X15.800 Y0.000
G1 X15.400 Y0.000
G1 X15.400 Y5.400
G1 X12.846 Y5.400
G1 X12.846 Y-5.400
G1 X15.400 Y-5.400
G1 X15.400 Y0.000
G1 X15.000 Y0.000
G1 X15.000 Y5.000
G1 X13.246 Y5.000
G1 X13.246 Y-5.000
G1 X15.000 Y-5.000
G1 X15.000 Y0.000
G1 X14.600 Y0.000
G1 X14.600 Y4.600
G1 X13.646 Y4.600
G1 X13.646 Y-4.600
G1 X14.600 Y-4.600
G1 X14.600 Y0.000
G1 X14.200 Y0.000
G1 X14.200 Y0.000 Z2.700
G1 X14.200 Y0.000
G1 X14.600 Y0.000
G1 X14.600 Y-4.600
G1 X14.040 Y-4.600
G1 X14.040 Y4.600
G1 X14.600 Y4.600
G1 X14.600 Y0.000
G1 X15.000 Y0.000
G1 X15.000 Y-5.000
G1 X13.640 Y-5.000
G1 X13.640 Y5.000
G1 X15.000 Y5.000
G1 X15.000 Y0.000
G1 X15.400 Y0.000
G1 X15.400 Y-5.400
G1 X13.240 Y-5.400
G1 X13.240 Y5.400
G1 X15.400 Y5.400
G1 X15.400 Y0.000
G1 X15.800 Y0.000
G1 X15.800 Y-5.800
G1 X12.840 Y-5.800
G1 X12.840 Y5.800
G1 X15.800 Y5.800
G1 X15.800 Y0.000
G1 X16.200 Y0.000
G1 X16.200 Y-6.200
G1 X12.440 Y-6.200
G1 X12.440 Y6.200
G1 X16.200 Y6.200
G1 X16.200 Y0.000
G1 X16.600 Y0.000
G1 X16.600 Y-6.600
G1 X12.040 Y-6.600
G1 X12.040 Y6.600
G1 X16.600 Y6.600
G1 X16.600 Y0.000
G1 X17.000 Y0.000
G1 X17.000 Y-7.000
G1 X11.640 Y-7.000
G1 X11.640 Y7.000
G1 X17.000 Y7.000
G1 X17.000 Y0.000
G1 X17.400 Y0.000
G1 X17.400 Y-7.400
G1 X11.240 Y-7.400
G1 X11.240 Y7.400
G1 X17.400 Y7.400
G1 X17.400 Y0.000
G1 X17.800 Y0.000
G1 X17.800 Y-7.800
G1 X10.840 Y-7.800
G1 X10.840 Y7.800
G1 X17.800 Y7.800
G1 X17.800 Y0.000
G1 X18.200 Y0.000
G1 X18.200 Y-8.200
G1 X10.440 Y-8.200
G1 X10.440 Y8.200
G1 X18.200 Y8.200
G1 X18.200 Y0.000
G1 X18.600 Y0.000
G1 X18.600 Y-8.600
G1 X10.040 Y-8.600
G1 X10.040 Y8.600
G1 X18.600 Y8.600
G1 X18.600 Y0.000
G1 X19.000 Y0.000
G1 X19.000 Y-9.000
G1 X9.640 Y-9.000
G1 X9.640 Y9.000
G1 X19.000 Y9.000
G1 X19.000 Y0.000
G1 X19.400 Y0.000
G1 X19.400 Y-9.400
G1 X9.240 Y-9.400
G1 X9.240 Y9.400
G1 X19.400 Y9.400
G1 X19.400 Y0.000
G1 X19.800 Y0.000
G1 X19.800 Y-9.800
G1 X8.840 Y-9.800
G1 X8.840 Y9.800
G1 X19.800 Y9.800
G1 X19.800 Y0.000 Z2.700
G1 X19.800 Y0.000 Z3.100
G1 X19.800 Y9.800
G1 X9.141 Y9.800
G1 X9.141 Y-9.800
G1 X19.800 Y-9.800
G1 X19.800 Y0.000
G1 X19.400 Y0.000
G1 X19.400 Y9.400
G1 X9.541 Y9.400
G1 X9.541 Y-9.400
G1 X19.400 Y-9.400
G1 X19.400 Y0.000
G1 X19.000 Y0.000
G1 X19.000 Y9.000
G1 X9.941 Y9.000
G1 X9.941 Y-9.000
G1 X19.000 Y-9.000
G1 X19.000 Y0.000
G1 X18.600 Y0.000
G1 X18.600 Y8.600
G1 X10.341 Y8.600
G1 X10.341 Y-8.600
G1 X18.600 Y-8.600
G1 X18.600 Y0.000
G1 X18.200 Y0.000
G1 X18.200 Y8.200
G1 X10.741 Y8.200
G1 X10.741 Y-8.200
G1 X18.200 Y-8.200
G1 X18.200 Y0.000
G1 X17.800 Y0.000
G1 X17.800 Y7.800
G1 X11.141 Y7.800
G1 X11.141 Y-7.800
G1 X17.800 Y-7.800
G1 X17.800 Y0.000
G1 X17.400 Y0.000
G1 X17.400 Y7.400
G1 X11.541 Y7.400
G1 X11.541 Y-7.400
G1 X17.400 Y-7.400
G1 X17.400 Y0.000
G1 X17.000 Y0.000
G1 X17.000 Y7.000
G1 X11.941 Y7.000
G1 X11.941 Y-7.000
G1 X17.000 Y-7.000
G1 X17.000 Y0.000
G1 X16.600 Y0.000
G1 X16.600 Y6.600
G1 X12.341 Y6.600
G1 X12.341 Y-6.600
G1 X16.600 Y-6.600
G1 X16.600 Y0.000
G1 X16.200 Y0.000
G1 X16.200 Y6.200
G1 X12.741 Y6.200
G1 X12.741 Y-6.200
G1 X16.200 Y-6.200
G1 X16.200 Y0.000
G1 X15.800 Y0.000
G1 X15.800 Y5.800
G1 X13.141 Y5.800
G1 X13.141 Y-5.800
G1 X15.800 Y-5.800
G1 X15.800 Y0.000
G1 X15.400 Y0.000
G1 X15.400 Y5.400
G1 X13.541 Y5.400
G1 X13.541 Y-5.400
G1 X15.400 Y-5.400
G1 X15.400 Y0.000
G1 X15.000 Y0.000
G1 X15.000 Y5.000
G1 X13.941 Y5.000
G1 X13.941 Y-5.000
G1 X15.000 Y-5.000
G1 X15.000 Y0.000
G1 X14.600 Y0.000
G1 X14.600 Y0.000 Z3.500
G1 X14.600 Y0.000
G1 X15.000 Y0.000
G1 X15.000 Y-5.000
G1 X14.172 Y-5.000
G1 X14.172 Y5.000
G1 X15.000 Y5.000
G1 X15.000 Y0.000
G1 X15.400 Y0.000
G1 X15.400 Y-5.400
G1 X13.772 Y-5.400
G1 X13.772 Y5.400
G1 X15.400 Y5.400
G1 X15.400 Y0.000
G1 X15.800 Y0.000
G1 X15.800 Y-5.800
G1 X13.372 Y-5.800
G1 X13.372 Y5.800
G1 X15.800 Y5.800
G1 X15.800 Y0.000
G1 X16.200 Y0.000
G1 X16.200 Y-6.200
G1 X12.972 Y-6.200
G1 X12.972 Y6.200
G1 X16.200 Y6.200
G1 X16.200 Y0.000
G1 X16.600 Y0.000
G1 X16.600 Y-6.600
G1 X12.572 Y-6.600
G1 X12.572 Y6.600
G1 X16.600 Y6.600
G1 X16.600 Y0.000
G1 X17.000 Y0.000
G1 X17.000 Y-7.000
G1 X12.172 Y-7.000
G1 X12.172 Y7.000
G1 X17.000 Y7.000
G1 X17.000 Y0.000
G1 X17.400 Y0.000
G1 X17.400 Y-7.400
G1 X11.772 Y-7.400
G1 X11.772 Y7.400
G1 X17.400 Y7.400
G1 X17.400 Y0.000
G1 X17.800 Y0.000
G1 X17.800 Y-7.800
G1 X11.372 Y-7.800
G1 X11.372 Y7.800
G1 X17.800 Y7.800
G1 X17.800 Y0.000
G1 X18.200 Y0.000
G1 X18.200 Y-8.200
G1 X10.972 Y-8.200
G1 X10.972 Y8.200
G1 X18.200 Y8.200
G1 X18.200 Y0.000
G1 X18.600 Y0.000
G1 X18.600 Y-8.600
G1 X10.572 Y-8.600
G1 X10.572 Y8.600
G1 X18.600 Y8.600
G1 X18.600 Y0.000
G1 X19.000 Y0.000
G1 X19.000 Y-9.000
G1 X10.172 Y-9.000
G1 X10.172 Y9.000
G1 X19.000 Y9.000
G1 X19.000 Y0.000
G1 X19.400 Y0.000
G1 X19.400 Y-9.400
G1 X9.772 Y-9.400
G1 X9.772 Y9.400
G1 X19.400 Y9.400
G1 X19.400 Y0.000
G1 X19.800 Y0.000
G1 X19.800 Y-9.800
G1 X9.372 Y-9.800
G1 X9.372 Y9.800
G1 X19.800 Y9.800
G1 X19.800 Y0.000 Z3.500
G1 X19.800 Y0.000 Z3.900
G1 X19.800 Y9.800
G1 X9.547 Y9.800
G1 X9.547 Y-9.800
G1 X19.800 Y-9.800
G1 X19.800 Y0.000
G1 X19.400 Y0.000
G1 X19.400 Y9.400
G1 X9.947 Y9.400
G1 X9.947 Y-9.400
G1 X19.400 Y-9.400
G1 X19.400 Y0.000
G1 X19.000 Y0.000
G1 X19.000 Y9.000
G1 X10.347 Y9.000
G1 X10.347 Y-9.000
G1 X19.000 Y-9.000
G1 X19.000 Y0.000
G1 X18.600 Y0.000
G1 X18.600 Y8.600
G1 X10.747 Y8.600
G1 X10.747 Y-8.600
G1 X18.600 Y-8.600
G1 X18.600 Y0.000
G1 X18.200 Y0.000
G1 X18.200 Y8.200
G1 X11.147 Y8.200
G1 X11.147 Y-8.200
G1 X18.200 Y-8.200
G1 X18.200 Y0.000
G1 X17.800 Y0.000
G1 X17.800 Y7.800
G1 X11.547 Y7.800
G1 X11.547 Y-7.800
G1 X17.800 Y-7.800
G1 X17.800 Y0.000
G1 X17.400 Y0.000
G1 X17.400 Y7.400
G1 X11.947 Y7.400
G1 X11.947 Y-7.400
G1 X17.400 Y-7.400
G1 X17.400 Y0.000
G1 X17.000 Y0.000
G1 X17.000 Y7.000
G1 X12.347 Y7.000
G1 X12.347 Y-7.000
G1 X17.000 Y-7.000
G1 X17.000 Y0.000
G1 X16.600 Y0.000
G1 X16.600 Y6.600
G1 X12.747 Y6.600
G1 X12.747 Y-6.600
G1 X16.600 Y-6.600
G1 X16.600 Y0.000
G1 X16.200 Y0.000
G1 X16.200 Y6.200
G1 X13.147 Y6.200
G1 X13.147 Y-6.200
G1 X16.200 Y-6.200
G1 X16.200 Y0.000
G1 X15.800 Y0.000
G1 X15.800 Y5.800
G1 X13.547 Y5.800
G1 X13.547 Y-5.800
G1 X15.800 Y-5.800
G1 X15.800 Y0.000
G1 X15.400 Y0.000
G1 X15.400 Y5.400
G1 X13.947 Y5.400
G1 X13.947 Y-5.400
G1 X15.400 Y-5.400
G1 X15.400 Y0.000
G1 X15.000 Y0.000
G1 X15.000 Y5.000
G1 X14.347 Y5.000
G1 X14.347 Y-5.000
G1 X15.000 Y-5.000
G1 X15.000 Y0.000
G1 X14.600 Y0.000
G1 X14.600 Y0.000 Z4.300
G1 X14.600 Y0.000
G1 X15.000 Y0.000
G1 X15.000 Y-5.000
G1 X14.473 Y-5.000
G1 X14.473 Y5.000
G1 X15.000 Y5.000
G1 X15.000 Y0.000
G1 X15.400 Y0.000
G1 X15.400 Y-5.400
G1 X14.073 Y-5.400
G1 X14.073 Y5.400
G1 X15.400 Y5.400
G1 X15.400 Y0.000
G1 X15.800 Y0.000
G1 X15.800 Y-5.800
G1 X13.673 Y-5.800
G1 X13.673 Y5.800
G1 X15.800 Y5.800
G1 X15.800 Y0.000
G1 X16.200 Y0.000
G1 X16.200 Y-6.200
G1 X13.273 Y-6.200
G1 X13.273 Y6.200
G1 X16.200 Y6.200
G1 X16.200 Y0.000
G1 X16.600 Y0.000
G1 X16.600 Y-6.600
G1 X12.873 Y-6.600
G1 X12.873 Y6.600
G1 X16.600 Y6.600
G1 X16.600 Y0.000
G1 X17.000 Y0.000
G1 X17.000 Y-7.000
G1 X12.473 Y-7.000
G1 X12.473 Y7.000
G1 X17.000 Y7.000
G1 X17.000 Y0.000
G1 X17.400 Y0.000
G1 X17.400 Y-7.400
G1 X12.073 Y-7.400
G1 X12.073 Y7.400
G1 X17.400 Y7.400
G1 X17.400 Y0.000
G1 X17.800 Y0.000
G1 X17.800 Y-7.800
G1 X11.673 Y-7.800
G1 X11.673 Y7.800
G1 X17.800 Y7.800
G1 X17.800 Y0.000
G1 X18.200 Y0.000
G1 X18.200 Y-8.200
G1 X11.273 Y-8.200
G1 X11.273 Y8.200
G1 X18.200 Y8.200
G1 X18.200 Y0.000
G1 X18.600 Y0.000
G1 X18.600 Y-8.600
G1 X10.873 Y-8.600
G1 X10.873 Y8.600
G1 X18.600 Y8.600
G1 X18.600 Y0.000
G1 X19.000 Y0.000
G1 X19.000 Y-9.000
G1 X10.473 Y-9.000
G1 X10.473 Y9.000
G1 X19.000 Y9.000
G1 X19.000 Y0.000
G1 X19.400 Y0.000
G1 X19.400 Y-9.400
G1 X10.073 Y-9.400
G1 X10.073 Y9.400
G1 X19.400 Y9.400
G1 X19.400 Y0.000
G1 X19.800 Y0.000
G1 X19.800 Y-9.800
G1 X9.673 Y-9.800
G1 X9.673 Y9.800
G1 X19.800 Y9.800
G1 X19.800 Y0.000 Z4.300
G1 X19.800 Y0.000 Z4.700
G1 X19.800 Y9.800
G1 X9.755 Y9.800
G1 X9.755 Y-9.800
G1 X19.800 Y-9.800
G1 X19.800 Y0.000
G1 X19.400 Y0.000
G1 X19.400 Y9.400
G1 X10.155 Y9.400
G1 X10.155 Y-9.400
G1 X19.400 Y-9.400
G1 X19.400 Y0.000
G1 X19.000 Y0.000
G1 X19.000 Y9.000
G1 X10.555 Y9.000
G1 X10.555 Y-9.000
G1 X19.000 Y-9.000
G1 X19.000 Y0.000
G1 X18.600 Y0.000
G1 X18.600 Y8.600
G1 X10.955 Y8.600
G1 X10.955 Y-8.600
G1 X18.600 Y-8.600
G1 X18.600 Y0.000
G1 X18.200 Y0.000
G1 X18.200 Y8.200
G1 X11.355 Y8.200
G1 X11.355 Y-8.200
G1 X18.200 Y-8.200
G1 X18.200 Y0.000
G1 X17.800 Y0.000
G1 X17.800 Y7.800
G1 X11.755 Y7.800
G1 X11.755 Y-7.800
G1 X17.800 Y-7.800
G1 X17.800 Y0.000
G1 X17.400 Y0.000
G1 X17.400 Y7.400
G1 X12.155 Y7.400
G1 X12.155 Y-7.400
G1 X17.400 Y-7.400
G1 X17.400 Y0.000
G1 X17.000 Y0.000
G1 X17.000 Y7.000
G1 X12.555 Y7.000
G1 X12.555 Y-7.000
G1 X17.000 Y-7.000
G1 X17.000 Y0.000
G1 X16.600 Y0.000
G1 X16.600 Y6.600
G1 X12.955 Y6.600
G1 X12.955 Y-6.600
G1 X16.600 Y-6.600
G1 X16.600 Y0.000
G1 X16.200 Y0.000
G1 X16.200 Y6.200
G1 X13.355 Y6.200
G1 X13.355 Y-6.200
G1 X16.200 Y-6.200
G1 X16.200 Y0.000
G1 X15.800 Y0.000
G1 X15.800 Y5.800
G1 X13.755 Y5.800
G1 X13.755 Y-5.800
G1 X15.800 Y-5.800
G1 X15.800 Y0.000
G1 X15.400 Y0.000
G1 X15.400 Y5.400
G1 X14.155 Y5.400
G1 X14.155 Y-5.400
G1 X15.400 Y-5.400
G1 X15.400 Y0.000
G1 X15.000 Y0.000
G1 X15.000 Y5.000
G1 X14.555 Y5.000
G1 X14.555 Y-5.000
G1 X15.000 Y-5.000
G1 X15.000 Y0.000
G1 X14.600 Y0.000
G1 X14.600 Y0.000 Z5.100
G1 X14.600 Y0.000
G1 X15.000 Y0.000
G1 X15.000 Y-5.000
G1 X14.595 Y-5.000
G1 X14.595 Y5.000
G1 X15.000 Y5.000
G1 X15.000 Y0.000
G1 X15.400 Y0.000
G1 X15.400 Y-5.400
G1 X14.195 Y-5.400
G1 X14.195 Y5.400
G1 X15.400 Y5.400
G1 X15.400 Y0.000
G1 X15.800 Y0.000
G1 X15.800 Y-5.800
G1 X13.795 Y-5.800
G1 X13.795 Y5.800
G1 X15.800 Y5.800
G1 X15.800 Y0.000
G1 X16.200 Y0.000
G1 X16.200 Y-6.200
G1 X13.395 Y-6.200
G1 X13.395 Y6.200
G1 X16.200 Y6.200
G1 X16.200 Y0.000
G1 X16.600 Y0.000
G1 X16.600 Y-6.600
G1 X12.995 Y-6.600
G1 X12.995 Y6.600
G1 X16.600 Y6.600
G1 X16.600 Y0.000
G1 X17.000 Y0.000
G1 X17.000 Y-7.000
G1 X12.595 Y-7.000
G1 X12.595 Y7.000
G1 X17.000 Y7.000
G1 X17.000 Y0.000
G1 X17.400 Y0.000
G1 X17.400 Y-7.400
G1 X12.195 Y-7.400
G1 X12.195 Y7.400
G1 X17.400 Y7.400
G1 X17.400 Y0.000
G1 X17.800 Y0.000
G1 X17.800 Y-7.800
G1 X11.795 Y-7.800
G1 X11.795 Y7.800
G1 X17.800 Y7.800
G1 X17.800 Y0.000
G1 X18.200 Y0.000
G1 X18.200 Y-8.200
G1 X11.395 Y-8.200
G1 X11.395 Y8.200
G1 X18.200 Y8.200
G1 X18.200 Y0.000
G1 X18.600 Y0.000
G1 X18.600 Y-8.600
G1 X10.995 Y-8.600
G1 X10.995 Y8.600
G1 X18.600 Y8.600
G1 X18.600 Y0.000
G1 X19.000 Y0.000
G1 X19.000 Y-9.000
G1 X10.595 Y-9.000
G1 X10.595 Y9.000
G1 X19.000 Y9.000
G1 X19.000 Y0.000
G1 X19.400 Y0.000
G1 X19.400 Y-9.400
G1 X10.195 Y-9.400
G1 X10.195 Y9.400
G1 X19.400 Y9.400
G1 X19.400 Y0.000
G1 X19.800 Y0.000
G1 X19.800 Y-9.800
G1 X9.795 Y-9.800
G1 X9.795 Y9.800
G1 X19.800 Y9.800
G1 X19.800 Y0.000 Z5.100
M9
G1 Z10.000
G1 X-4.600 Y-0.100
G1 Z1.500
M7
G4 P150
G1 X-4.200 Y0.000 Z1.500
G1 X-4.200 Y-9.800
G1 X4.200 Y-9.800
G1 X4.200 Y9.800
G1 X-4.200 Y9.800
G1 X-4.200 Y0.000
G1 X-3.800 Y0.000
G1 X-3.800 Y-9.400
G1 X3.800 Y-9.400
G1 X3.800 Y9.400
G1 X-3.800 Y9.400
G1 X-3.800 Y0.000
G1 X-3.400 Y0.000
G1 X-3.400 Y-9.000
G1 X3.400 Y-9.000
G1 X3.400 Y9.000
G1 X-3.400 Y9.000
G1 X-3.400 Y0.000
G1 X-3.000 Y0.000
G1 X-3.000 Y-8.600
G1 X3.000 Y-8.600
G1 X3.000 Y8.600
G1 X-3.000 Y8.600
G1 X-3.000 Y0.000
G1 X-2.600 Y0.000
G1 X-2.600 Y-8.200
G1 X2.600 Y-8.200
G1 X2.600 Y8.200
G1 X-2.600 Y8.200
G1 X-2.600 Y0.000
G1 X-2.200 Y0.000
G1 X-2.200 Y-7.800
G1 X2.200 Y-7.800
G1 X2.200 Y7.800
G1 X-2.200 Y7.800
G1 X-2.200 Y0.000
G1 X-1.800 Y0.000
G1 X-1.800 Y-7.400
G1 X1.800 Y-7.400
G1 X1.800 Y7.400
G1 X-1.800 Y7.400
G1 X-1.800 Y0.000
G1 X-1.400 Y0.000
G1 X-1.400 Y-7.000
G1 X1.400 Y-7.000
G1 X1.400 Y7.000
G1 X-1.400 Y7.000
G1 X-1.400 Y0.000
G1 X-1.000 Y0.000
G1 X-1.000 Y-6.600
G1 X1.000 Y-6.600
G1 X1.000 Y6.600
G1 X-1.000 Y6.600
G1 X-1.000 Y0.000
G1 X-0.600 Y0.000
G1 X-0.600 Y-6.200
G1 X0.600 Y-6.200
G1 X0.600 Y6.200
G1 X-0.600 Y6.200
G1 X-0.600 Y0.000
G1 X-0.200 Y0.000
G1 X-0.200 Y-5.800
G1 X0.200 Y-5.800
G1 X0.200 Y5.800
G1 X-0.200 Y5.800
G1 X-0.200 Y0.000
G1 X0.200 Y0.000
G1 X0.200 Y-5.400
G1 X-0.200 Y-5.400
G1 X-0.200 Y5.400
G1 X0.200 Y5.400
G1 X0.200 Y0.000
G1 X0.600 Y0.000
G1 X-0.093 Y0.000 Z1.900
G1 X-0.093 Y0.000
G1 X-0.493 Y0.000
G1 X-0.493 Y7.800
G1 X0.493 Y7.800
G1 X0.493 Y-7.800
G1 X-0.493 Y-7.800
G1 X-0.493 Y0.000
G1 X-0.893 Y0.000
G1 X-0.893 Y8.200
G1 X0.893 Y8.200
G1 X0.893 Y-8.200
G1 X-0.893 Y-8.200
G1 X-0.893 Y0.000
G1 X-1.293 Y0.000
G1 X-1.293 Y8.600
G1 X1.293 Y8.600
G1 X1.293 Y-8.600
G1 X-1.293 Y-8.600
G1 X-1.293 Y0.000
G1 X-1.693 Y0.000
G1 X-1.693 Y9.000
G1 X1.693 Y9.000
G1 X1.693 Y-9.000
G1 X-1.693 Y-9.000
G1 X-1.693 Y0.000
G1 X-2.093 Y0.000
G1 X-2.093 Y9.400
G1 X2.093 Y9.400
G1 X2.093 Y-9.400
G1 X-2.093 Y-9.400
G1 X-2.093 Y0.000
G1 X-2.493 Y0.000
G1 X-2.493 Y9.800
G1 X2.493 Y9.800
G1 X2.493 Y-9.800
G1 X-2.493 Y-9.800
G1 X-2.493 Y0.000 Z1.900
G1 X-1.954 Y0.000 Z2.300
G1 X-1.954 Y-9.800
G1 X1.954 Y-9.800
G1 X1.954 Y9.800
G1 X-1.954 Y9.800
G1 X-1.954 Y0.000
G1 X-1.554 Y0.000
G1 X-1.554 Y-9.400
G1 X1.554 Y-9.400
G1 X1.554 Y9.400
G1 X-1.554 Y9.400
G1 X-1.554 Y0.000
G1 X-1.154 Y0.000
G1 X-1.154 Y-9.000
G1 X1.154 Y-9.000
G1 X1.154 Y9.000
G1 X-1.154 Y9.000
G1 X-1.154 Y0.000
G1 X-0.754 Y0.000
G1 X-0.754 Y-8.600
G1 X0.754 Y-8.600
G1 X0.754 Y8.600
G1 X-0.754 Y8.600
G1 X-0.754 Y0.000
G1 X-0.354 Y0.000
G1 X-0.354 Y-8.200
G1 X0.354 Y-8.200
G1 X0.354 Y8.200
G1 X-0.354 Y8.200
G1 X-0.354 Y0.000
G1 X0.046 Y0.000
G1 X0.046 Y-7.800
G1 X-0.046 Y-7.800
G1 X-0.046 Y7.800
G1 X0.046 Y7.800
G1 X0.046 Y0.000
G1 X0.446 Y0.000
M9
G1 Z10.000
G1 X0.000 Y1.000
G1 Z1.500
M7
G4 P150
G1 X0.000 Y1.000 Z2.700
G1 X1.560 Y1.000
G1 X1.560 Y9.800
G1 X-1.560 Y9.800
G1 X-1.560 Y1.000
G1 X0.000 Y1.000
G1 X0.000 Y1.400
G1 X1.160 Y1.400
G1 X1.160 Y9.400
G1 X-1.160 Y9.400
G1 X-1.160 Y1.400
G1 X0.000 Y1.400
G1 X0.000 Y1.800
G1 X0.760 Y1.800
G1 X0.760 Y9.000
G1 X-0.760 Y9.000
G1 X-0.760 Y1.800
G1 X0.000 Y1.800
G1 X0.000 Y2.200
G1 X0.360 Y2.200
G1 X0.360 Y8.600
G1 X-0.360 Y8.600
G1 X-0.360 Y2.200
G1 X0.000 Y2.200
G1 X0.000 Y2.600
G1 X0.000 Y2.200 Z3.100
G1 X0.000 Y2.200
G1 X0.000 Y1.800
G1 X-0.459 Y1.800
G1 X-0.459 Y9.000
G1 X0.459 Y9.000
G1 X0.459 Y1.800
G1 X0.000 Y1.800
G1 X0.000 Y1.400
G1 X-0.859 Y1.400
G1 X-0.859 Y9.400
G1 X0.859 Y9.400
G1 X0.859 Y1.400
G1 X0.000 Y1.400
G1 X0.000 Y1.000
G1 X-1.259 Y1.000
G1 X-1.259 Y9.800
G1 X1.259 Y9.800
G1 X1.259 Y1.000
G1 X0.000 Y1.000 Z3.100
G1 X0.000 Y1.000 Z3.500
G1 X1.028 Y1.000
G1 X1.028 Y9.800
G1 X-1.028 Y9.800
G1 X-1.028 Y1.000
G1 X0.000 Y1.000
G1 X0.000 Y1.400
G1 X0.628 Y1.400
G1 X0.628 Y9.400
G1 X-0.628 Y9.400
G1 X-0.628 Y1.400
G1 X0.000 Y1.400
G1 X0.000 Y1.800
G1 X0.228 Y1.800
G1 X0.228 Y9.000
G1 X-0.228 Y9.000
G1 X-0.228 Y1.800
G1 X0.000 Y1.800
G1 X0.000 Y2.200
G1 X0.000 Y1.800 Z3.900
G1 X0.000 Y1.800
G1 X0.000 Y1.400
G1 X-0.453 Y1.400
G1 X-0.453 Y9.400
G1 X0.453 Y9.400
G1 X0.453 Y1.400
G1 X0.000 Y1.400
G1 X0.000 Y1.000
G1 X-0.853 Y1.000
G1 X-0.853 Y9.800
G1 X0.853 Y9.800
G1 X0.853 Y1.000
G1 X0.000 Y1.000 Z3.900
M9
G1 Z10.000
G1 X0.000 Y-1.000
G1 Z2.700
M7
G4 P150
G1 X0.000 Y-1.000 Z2.700
G1 X-1.560 Y-1.000
G1 X-1.560 Y-9.800
G1 X1.560 Y-9.800
G1 X1.560 Y-1.000
G1 X0.000 Y-1.000
G1 X0.000 Y-1.400
G1 X-1.160 Y-1.400
G1 X-1.160 Y-9.400
G1 X1.160 Y-9.400
G1 X1.160 Y-1.400
G1 X0.000 Y-1.400
G1 X0.000 Y-1.800
G1 X-0.760 Y-1.800
G1 X-0.760 Y-9.000
G1 X0.760 Y-9.000
G1 X0.760 Y-1.800
G1 X0.000 Y-1.800
G1 X0.000 Y-2.200
G1 X-0.360 Y-2.200
G1 X-0.360 Y-8.600
G1 X0.360 Y-8.600
G1 X0.360 Y-2.200
G1 X0.000 Y-2.200
G1 X0.000 Y-2.600
G1 X0.000 Y-2.200 Z3.100
G1 X0.000 Y-2.200
G1 X0.000 Y-1.800
G1 X0.459 Y-1.800
G1 X0.459 Y-9.000
G1 X-0.459 Y-9.000
G1 X-0.459 Y-1.800
G1 X0.000 Y-1.800
G1 X0.000 Y-1.400
G1 X0.859 Y-1.400
G1 X0.859 Y-9.400
G1 X-0.859 Y-9.400
G1 X-0.859 Y-1.400
G1 X0.000 Y-1.400
G1 X0.000 Y-1.000
G1 X1.259 Y-1.000
G1 X1.259 Y-9.800
G1 X-1.259 Y-9.800
G1 X-1.259 Y-1.000
G1 X0.000 Y-1.000 Z3.100
G1 X0.000 Y-1.000 Z3.500
G1 X-1.028 Y-1.000
G1 X-1.028 Y-9.800
G1 X1.028 Y-9.800
G1 X1.028 Y-1.000
G1 X0.000 Y-1.000
G1 X0.000 Y-1.400
G1 X-0.628 Y-1.400
G1 X-0.628 Y-9.400
G1 X0.628 Y-9.400
G1 X0.628 Y-1.400
G1 X0.000 Y-1.400
G1 X0.000 Y-1.800
G1 X-0.228 Y-1.800
G1 X-0.228 Y-9.000
G1 X0.228 Y-9.000
G1 X0.228 Y-1.800
G1 X0.000 Y-1.800
G1 X0.000 Y-2.200
G1 X0.000 Y-1.800 Z3.900
G1 X0.000 Y-1.800
G1 X0.000 Y-1.400
G1 X0.453 Y-1.400
G1 X0.453 Y-9.400
G1 X-0.453 Y-9.400
G1 X-0.453 Y-1.400
G1 X0.000 Y-1.400
G1 X0.000 Y-1.000
G1 X0.853 Y-1.000
G1 X0.853 Y-9.800
G1 X-0.853 Y-9.800
G1 X-0.853 Y-1.000
G1 X0.000 Y-1.000 Z3.900
M9
G1 Z10.000
G1 X0.000 Y5.000
G1 Z4.300
M7
G4 P150
G1 X-0.727 Y5.000 Z4.300
G1 X-0.727 Y-9.800
G1 X0.727 Y-9.800
G1 X0.727 Y9.800
G1 X-0.727 Y9.800
G1 X-0.727 Y5.000
G1 X-0.327 Y5.000
G1 X-0.327 Y-9.400
G1 X0.327 Y-9.400
G1 X0.327 Y9.400
G1 X-0.327 Y9.400
G1 X-0.327 Y5.000
G1 X0.073 Y5.000
G1 X0.073 Y-9.000
G1 X-0.073 Y-9.000
G1 X-0.073 Y9.000
G1 X0.073 Y9.000
G1 X0.073 Y5.000
G1 X0.473 Y5.000
G1 X0.155 Y5.000 Z4.700
G1 X0.155 Y5.000
G1 X-0.245 Y5.000
G1 X-0.245 Y9.400
G1 X0.245 Y9.400
G1 X0.245 Y-9.400
G1 X-0.245 Y-9.400
G1 X-0.245 Y5.000
G1 X-0.645 Y5.000
G1 X-0.645 Y9.800
G1 X0.645 Y9.800
G1 X0.645 Y-9.800
G1 X-0.645 Y-9.800
G1 X-0.645 Y5.000 Z4.700
G1 X-0.605 Y5.000 Z5.100
G1 X-0.605 Y-9.800
G1 X0.605 Y-9.800
G1 X0.605 Y9.800
G1 X-0.605 Y9.800
G1 X-0.605 Y5.000
G1 X-0.205 Y5.000
G1 X-0.205 Y-9.400
G1 X0.205 Y-9.400
G1 X0.205 Y9.400
G1 X-0.205 Y9.400
G1 X-0.205 Y5.000
G1 X0.195 Y5.000
G1 X0.195 Y-9.000
G1 X-0.195 Y-9.000
G1 X-0.195 Y9.000
G1 X0.195 Y9.000
G1 X0.195 Y5.000
G1 X0.595 Y5.000
M9
G1 Z10.000
G1 X8.050 Y-9.800
G1 Z1.500
M7
G4 P150G1 X8.049 Y-9.8 Z1.500
G1 X2.351 Y-9.8 Z1.500
G1 X1.493 Y-9.8 Z1.900
G1 X8.907 Y-9.8 Z1.900
G1 X9.446 Y-9.8 Z2.300
G1 X0.954 Y-9.8 Z2.300
G1 X0.560 Y-9.8 Z2.700
G1 X9.840 Y-9.8 Z2.700
G1 X10.141 Y-9.8 Z3.100
G1 X0.259 Y-9.8 Z3.100
G1 X0.028 Y-9.8 Z3.500
G1 X10.372 Y-9.8 Z3.500
G1 X10.547 Y-9.8 Z3.900
G1 X-0.147 Y-9.8 Z3.900
G1 X-0.273 Y-9.8 Z4.300
G1 X10.673 Y-9.8 Z4.300
G1 X10.755 Y-9.8 Z4.700
G1 X-0.355 Y-9.8 Z4.700
G1 X-0.395 Y-9.8 Z5.100
G1 X10.795 Y-9.8 Z5.100

M9
G1 Z10.000
G1 X8.050 Y9.800
G1 Z1.500
M7
G4 P150G1 X8.049 Y9.8 Z1.500
G1 X2.351 Y9.8 Z1.500
G1 X1.493 Y9.8 Z1.900
G1 X8.907 Y9.8 Z1.900
G1 X9.446 Y9.8 Z2.300
G1 X0.954 Y9.8 Z2.300
G1 X0.560 Y9.8 Z2.700
G1 X9.840 Y9.8 Z2.700
G1 X10.141 Y9.8 Z3.100
G1 X0.259 Y9.8 Z3.100
G1 X0.028 Y9.8 Z3.500
G1 X10.372 Y9.8 Z3.500
G1 X10.547 Y9.8 Z3.900
G1 X-0.147 Y9.8 Z3.900
G1 X-0.273 Y9.8 Z4.300
G1 X10.673 Y9.8 Z4.300
G1 X10.755 Y9.8 Z4.700
G1 X-0.355 Y9.8 Z4.700
G1 X-0.395 Y9.8 Z5.100
G1 X10.795 Y9.8 Z5.100

M9
G1 Z10.000
G1 X-8.050 Y-9.800
G1 Z1.500
M7
G4 P150G1 X-8.049 Y-9.8 Z1.500
G1 X-2.351 Y-9.8 Z1.500
G1 X-1.493 Y-9.8 Z1.900
G1 X-8.907 Y-9.8 Z1.900
G1 X-9.446 Y-9.8 Z2.300
G1 X-0.954 Y-9.8 Z2.300
G1 X-0.560 Y-9.8 Z2.700
G1 X-9.840 Y-9.8 Z2.700
G1 X-10.141 Y-9.8 Z3.100
G1 X-0.259 Y-9.8 Z3.100
G1 X-0.028 Y-9.8 Z3.500
G1 X-10.372 Y-9.8 Z3.500
G1 X-10.547 Y-9.8 Z3.900
G1 X0.147 Y-9.8 Z3.900
G1 X0.273 Y-9.8 Z4.300
G1 X-10.673 Y-9.8 Z4.300
G1 X-10.755 Y-9.8 Z4.700
G1 X0.355 Y-9.8 Z4.700
G1 X0.395 Y-9.8 Z5.100
G1 X-10.795 Y-9.8 Z5.100

M9
G1 Z10.000
G1 X-8.050 Y9.800
G1 Z1.500
M7
G4 P150G1 X-8.049 Y9.8 Z1.500
G1 X-2.351 Y9.8 Z1.500
G1 X-1.493 Y9.8 Z1.900
G1 X-8.907 Y9.8 Z1.900
G1 X-9.446 Y9.8 Z2.300
G1 X-0.954 Y9.8 Z2.300
G1 X-0.560 Y9.8 Z2.700
G1 X-9.840 Y9.8 Z2.700
G1 X-10.141 Y9.8 Z3.100
G1 X-0.259 Y9.8 Z3.100
G1 X-0.028 Y9.8 Z3.500
G1 X-10.372 Y9.8 Z3.500
G1 X-10.547 Y9.8 Z3.900
G1 X0.147 Y9.8 Z3.900
G1 X0.273 Y9.8 Z4.300
G1 X-10.673 Y9.8 Z4.300
G1 X-10.755 Y9.8 Z4.700
G1 X0.355 Y9.8 Z4.700
G1 X0.395 Y9.8 Z5.100
G1 X-10.795 Y9.8 Z5.100


;Finish
M9
G1 Z10.000
G28 X-100 Y-100;Home