;layer_height = 0.4
;line_width = 0.4
;layer_count = 10
;mesh = top_cross
G21 ;start of the code
G1 Z15 F300
G28 X0 Y0 ;Home
G92 X0 Y0 ;Consider this as current
G0 X50 Y50 F3000 ;Go-to Offset
G92 X0 Y0 ;Reset

G0 F3600 X-47.700 Y0.000 Z0.300 ;Go to start position
M7
G4 P150


G1 X-47.700 Y0.000 Z0.300
G1 X-47.700 Y-7.800
G1 X-21.100 Y-7.800
G1 X-21.100 Y-34.400
G1 X-5.500 Y-34.400
G1 X-5.500 Y-7.800
G1 X47.700 Y-7.800
G1 X47.700 Y7.800
G1 X21.100 Y7.800
G1 X21.100 Y34.400
G1 X5.500 Y34.400
G1 X5.500 Y7.800
G1 X-47.700 Y7.800
G1 X-47.700 Y0.000
G1 X-47.300 Y0.000
G1 X-47.300 Y-7.400
G1 X-20.700 Y-7.400
G1 X-20.700 Y-34.000
G1 X-5.900 Y-34.000
G1 X-5.900 Y-7.400
G1 X47.300 Y-7.400
G1 X47.300 Y7.400
G1 X20.700 Y7.400
G1 X20.700 Y34.000
G1 X5.900 Y34.000
G1 X5.900 Y7.400
G1 X-47.300 Y7.400
G1 X-47.300 Y-0.000
G1 X-46.900 Y0.000
G1 X-46.900 Y-7.000
G1 X-20.300 Y-7.000
G1 X-20.300 Y-33.600
G1 X-6.300 Y-33.600
G1 X-6.300 Y-7.000
G1 X46.900 Y-7.000
G1 X46.900 Y7.000
G1 X20.300 Y7.000
G1 X20.300 Y33.600
G1 X6.300 Y33.600
G1 X6.300 Y7.000
G1 X-46.900 Y7.000
G1 X-46.900 Y0.000
G1 X-46.500 Y0.000
G1 X-46.500 Y-6.600
G1 X-19.900 Y-6.600
G1 X-19.900 Y-33.200
G1 X-6.700 Y-33.200
G1 X-6.700 Y-6.600
G1 X46.500 Y-6.600
G1 X46.500 Y6.600
G1 X19.900 Y6.600
G1 X19.900 Y33.200
G1 X6.700 Y33.200
G1 X6.700 Y6.600
G1 X-46.500 Y6.600
G1 X-46.500 Y-0.000
G1 X-46.100 Y0.000
G1 X-46.100 Y-6.200
G1 X-19.500 Y-6.200
G1 X-19.500 Y-32.800
G1 X-7.100 Y-32.800
G1 X-7.100 Y-6.200
G1 X46.100 Y-6.200
G1 X46.100 Y6.200
G1 X19.500 Y6.200
G1 X19.500 Y32.800
G1 X7.100 Y32.800
G1 X7.100 Y6.200
G1 X-46.100 Y6.200
G1 X-46.100 Y0.000
G1 X-45.700 Y0.000
G1 X-45.700 Y-5.800
G1 X-19.100 Y-5.800
G1 X-19.100 Y-32.400
G1 X-7.500 Y-32.400
G1 X-7.500 Y-5.800
G1 X45.700 Y-5.800
G1 X45.700 Y5.800
G1 X19.100 Y5.800
G1 X19.100 Y32.400
G1 X7.500 Y32.400
G1 X7.500 Y5.800
G1 X-45.700 Y5.800
G1 X-45.700 Y-0.000
G1 X-45.300 Y0.000
G1 X-45.300 Y-5.400
G1 X-18.700 Y-5.400
G1 X-18.700 Y-32.000
G1 X-7.900 Y-32.000
G1 X-7.900 Y-5.400
G1 X45.300 Y-5.400
G1 X45.300 Y5.400
G1 X18.700 Y5.400
G1 X18.700 Y32.000
G1 X7.900 Y32.000
G1 X7.900 Y5.400
G1 X-45.300 Y5.400
G1 X-45.300 Y0.000
G1 X-44.900 Y0.000
G1 X-44.900 Y-5.000
G1 X-18.300 Y-5.000
G1 X-18.300 Y-31.600
G1 X-8.300 Y-31.600
G1 X-8.300 Y-5.000
G1 X44.900 Y-5.000
G1 X44.900 Y5.000
G1 X18.300 Y5.000
G1 X18.300 Y31.600
G1 X8.300 Y31.600
G1 X8.300 Y5.000
G1 X-44.900 Y5.000
G1 X-44.900 Y-0.000
G1 X-44.500 Y0.000
G1 X-44.500 Y-4.600
G1 X-17.900 Y-4.600
G1 X-17.900 Y-31.200
G1 X-8.700 Y-31.200
G1 X-8.700 Y-4.600
G1 X44.500 Y-4.600
G1 X44.500 Y4.600
G1 X17.900 Y4.600
G1 X17.900 Y31.200
G1 X8.700 Y31.200
G1 X8.700 Y4.600
G1 X-44.500 Y4.600
G1 X-44.500 Y0.000
G1 X-44.100 Y0.000
G1 X-44.100 Y-4.200
G1 X-17.500 Y-4.200
G1 X-17.500 Y-30.800
G1 X-9.100 Y-30.800
G1 X-9.100 Y-4.200
G1 X44.100 Y-4.200
G1 X44.100 Y4.200
G1 X17.500 Y4.200
G1 X17.500 Y30.800
G1 X9.100 Y30.800
G1 X9.100 Y4.200
G1 X-44.100 Y4.200
G1 X-44.100 Y-0.000
G1 X-43.700 Y0.000
G1 X-43.700 Y-3.800
G1 X-17.100 Y-3.800
G1 X-17.100 Y-30.400
G1 X-9.500 Y-30.400
G1 X-9.500 Y-3.800
G1 X43.700 Y-3.800
G1 X43.700 Y3.800
G1 X17.100 Y3.800
G1 X17.100 Y30.400
G1 X9.500 Y30.400
G1 X9.500 Y3.800
G1 X-43.700 Y3.800
G1 X-43.700 Y0.000
G1 X-43.300 Y0.000
G1 X-43.300 Y-3.400
G1 X-16.700 Y-3.400
G1 X-16.700 Y-30.000
G1 X-9.900 Y-30.000
G1 X-9.900 Y-3.400
G1 X43.300 Y-3.400
G1 X43.300 Y3.400
G1 X16.700 Y3.400
G1 X16.700 Y30.000
G1 X9.900 Y30.000
G1 X9.900 Y3.400
G1 X-43.300 Y3.400
G1 X-43.300 Y-0.000
G1 X-42.900 Y0.000
G1 X-42.900 Y-3.000
G1 X-16.300 Y-3.000
G1 X-16.300 Y-29.600
G1 X-10.300 Y-29.600
G1 X-10.300 Y-3.000
G1 X42.900 Y-3.000
G1 X42.900 Y3.000
G1 X16.300 Y3.000
G1 X16.300 Y29.600
G1 X10.300 Y29.600
G1 X10.300 Y3.000
G1 X-42.900 Y3.000
G1 X-42.900 Y-0.000
G1 X-42.500 Y0.000
G1 X-42.500 Y-2.600
G1 X-15.900 Y-2.600
G1 X-15.900 Y-29.200
G1 X-10.700 Y-29.200
G1 X-10.700 Y-2.600
G1 X42.500 Y-2.600
G1 X42.500 Y2.600
G1 X15.900 Y2.600
G1 X15.900 Y29.200
G1 X10.700 Y29.200
G1 X10.700 Y2.600
G1 X-42.500 Y2.600
G1 X-42.500 Y0.000
G1 X-42.100 Y0.000
G1 X-42.100 Y-2.200
G1 X-15.500 Y-2.200
G1 X-15.500 Y-28.800
G1 X-11.100 Y-28.800
G1 X-11.100 Y-2.200
G1 X42.100 Y-2.200
G1 X42.100 Y2.200
G1 X15.500 Y2.200
G1 X15.500 Y28.800
G1 X11.100 Y28.800
G1 X11.100 Y2.200
G1 X-42.100 Y2.200
G1 X-42.100 Y0.000
G1 X-41.700 Y0.000
G1 X-41.700 Y-1.800
G1 X-15.100 Y-1.800
G1 X-15.100 Y-28.400
G1 X-11.500 Y-28.400
G1 X-11.500 Y-1.800
G1 X41.700 Y-1.800
G1 X41.700 Y1.800
G1 X15.100 Y1.800
G1 X15.100 Y28.400
G1 X11.500 Y28.400
G1 X11.500 Y1.800
G1 X-41.700 Y1.800
G1 X-41.700 Y0.000
G1 X-41.300 Y0.000
G1 X-41.300 Y-1.400
G1 X-14.700 Y-1.400
G1 X-14.700 Y-28.000
G1 X-11.900 Y-28.000
G1 X-11.900 Y-1.400
G1 X41.300 Y-1.400
G1 X41.300 Y1.400
G1 X14.700 Y1.400
G1 X14.700 Y28.000
G1 X11.900 Y28.000
G1 X11.900 Y1.400
G1 X-41.300 Y1.400
G1 X-41.300 Y-0.000
G1 X-40.900 Y0.000
G1 X-40.900 Y-1.000
G1 X-14.300 Y-1.000
G1 X-14.300 Y-27.600
G1 X-12.300 Y-27.600
G1 X-12.300 Y-1.000
G1 X40.900 Y-1.000
G1 X40.900 Y1.000
G1 X14.300 Y1.000
G1 X14.300 Y27.600
G1 X12.300 Y27.600
G1 X12.300 Y1.000
G1 X-40.900 Y1.000
G1 X-40.900 Y-0.000
G1 X-40.500 Y0.000
G1 X-40.500 Y-0.600
G1 X-13.900 Y-0.600
G1 X-13.900 Y-27.200
G1 X-12.700 Y-27.200
G1 X-12.700 Y-0.600
G1 X40.500 Y-0.600
G1 X40.500 Y0.600
G1 X13.900 Y0.600
G1 X13.900 Y27.200
G1 X12.700 Y27.200
G1 X12.700 Y0.600
G1 X-40.500 Y0.600
G1 X-40.500 Y0.000
G1 X-40.100 Y0.000
G1 X-40.100 Y-0.200
G1 X-13.500 Y-0.200
G1 X-13.500 Y-26.800
G1 X-13.100 Y-26.800
G1 X-13.100 Y-0.200
G1 X40.100 Y-0.200
G1 X40.100 Y0.200
G1 X13.500 Y0.200
G1 X13.500 Y26.800
G1 X13.100 Y26.800
G1 X13.100 Y0.200
G1 X-40.100 Y0.200
G1 X-40.100 Y0.000
G1 X-39.700 Y0.000
G1 X-39.700 Y0.000 Z0.700
G1 X-39.700 Y0.000
G1 X-40.100 Y0.000
G1 X-40.100 Y0.200
G1 X13.100 Y0.200
G1 X13.100 Y26.800
G1 X13.500 Y26.800
G1 X13.500 Y0.200
G1 X40.100 Y0.200
G1 X40.100 Y-0.200
G1 X-13.100 Y-0.200
G1 X-13.100 Y-26.800
G1 X-13.500 Y-26.800
G1 X-13.500 Y-0.200
G1 X-40.100 Y-0.200
G1 X-40.100 Y0.000
G1 X-40.500 Y0.000
G1 X-40.500 Y0.600
G1 X12.700 Y0.600
G1 X12.700 Y27.200
G1 X13.900 Y27.200
G1 X13.900 Y0.600
G1 X40.500 Y0.600
G1 X40.500 Y-0.600
G1 X-12.700 Y-0.600
G1 X-12.700 Y-27.200
G1 X-13.900 Y-27.200
G1 X-13.900 Y-0.600
G1 X-40.500 Y-0.600
G1 X-40.500 Y0.000
G1 X-40.900 Y-0.000
G1 X-40.900 Y1.000
G1 X12.300 Y1.000
G1 X12.300 Y27.600
G1 X14.300 Y27.600
G1 X14.300 Y1.000
G1 X40.900 Y1.000
G1 X40.900 Y-1.000
G1 X-12.300 Y-1.000
G1 X-12.300 Y-27.600
G1 X-14.300 Y-27.600
G1 X-14.300 Y-1.000
G1 X-40.900 Y-1.000
G1 X-40.900 Y0.000
G1 X-41.300 Y-0.000
G1 X-41.300 Y1.400
G1 X11.900 Y1.400
G1 X11.900 Y28.000
G1 X14.700 Y28.000
G1 X14.700 Y1.400
G1 X41.300 Y1.400
G1 X41.300 Y-1.400
G1 X-11.900 Y-1.400
G1 X-11.900 Y-28.000
G1 X-14.700 Y-28.000
G1 X-14.700 Y-1.400
G1 X-41.300 Y-1.400
G1 X-41.300 Y0.000
G1 X-41.700 Y0.000
G1 X-41.700 Y1.800
G1 X11.500 Y1.800
G1 X11.500 Y28.400
G1 X15.100 Y28.400
G1 X15.100 Y1.800
G1 X41.700 Y1.800
G1 X41.700 Y-1.800
G1 X-11.500 Y-1.800
G1 X-11.500 Y-28.400
G1 X-15.100 Y-28.400
G1 X-15.100 Y-1.800
G1 X-41.700 Y-1.800
G1 X-41.700 Y0.000
G1 X-42.100 Y0.000
G1 X-42.100 Y2.200
G1 X11.100 Y2.200
G1 X11.100 Y28.800
G1 X15.500 Y28.800
G1 X15.500 Y2.200
G1 X42.100 Y2.200
G1 X42.100 Y-2.200
G1 X-11.100 Y-2.200
G1 X-11.100 Y-28.800
G1 X-15.500 Y-28.800
G1 X-15.500 Y-2.200
G1 X-42.100 Y-2.200
G1 X-42.100 Y0.000
G1 X-42.500 Y0.000
G1 X-42.500 Y2.600
G1 X10.700 Y2.600
G1 X10.700 Y29.200
G1 X15.900 Y29.200
G1 X15.900 Y2.600
G1 X42.500 Y2.600
G1 X42.500 Y-2.600
G1 X-10.700 Y-2.600
G1 X-10.700 Y-29.200
G1 X-15.900 Y-29.200
G1 X-15.900 Y-2.600
G1 X-42.500 Y-2.600
G1 X-42.500 Y0.000
G1 X-42.900 Y-0.000
G1 X-42.900 Y3.000
G1 X10.300 Y3.000
G1 X10.300 Y29.600
G1 X16.300 Y29.600
G1 X16.300 Y3.000
G1 X42.900 Y3.000
G1 X42.900 Y-3.000
G1 X-10.300 Y-3.000
G1 X-10.300 Y-29.600
G1 X-16.300 Y-29.600
G1 X-16.300 Y-3.000
G1 X-42.900 Y-3.000
G1 X-42.900 Y0.000
G1 X-43.300 Y-0.000
G1 X-43.300 Y3.400
G1 X9.900 Y3.400
G1 X9.900 Y30.000
G1 X16.700 Y30.000
G1 X16.700 Y3.400
G1 X43.300 Y3.400
G1 X43.300 Y-3.400
G1 X-9.900 Y-3.400
G1 X-9.900 Y-30.000
G1 X-16.700 Y-30.000
G1 X-16.700 Y-3.400
G1 X-43.300 Y-3.400
G1 X-43.300 Y0.000
G1 X-43.700 Y0.000
G1 X-43.700 Y3.800
G1 X9.500 Y3.800
G1 X9.500 Y30.400
G1 X17.100 Y30.400
G1 X17.100 Y3.800
G1 X43.700 Y3.800
G1 X43.700 Y-3.800
G1 X-9.500 Y-3.800
G1 X-9.500 Y-30.400
G1 X-17.100 Y-30.400
G1 X-17.100 Y-3.800
G1 X-43.700 Y-3.800
G1 X-43.700 Y0.000
G1 X-44.100 Y-0.000
G1 X-44.100 Y4.200
G1 X9.100 Y4.200
G1 X9.100 Y30.800
G1 X17.500 Y30.800
G1 X17.500 Y4.200
G1 X44.100 Y4.200
G1 X44.100 Y-4.200
G1 X-9.100 Y-4.200
G1 X-9.100 Y-30.800
G1 X-17.500 Y-30.800
G1 X-17.500 Y-4.200
G1 X-44.100 Y-4.200
G1 X-44.100 Y0.000
G1 X-44.500 Y0.000
G1 X-44.500 Y4.600
G1 X8.700 Y4.600
G1 X8.700 Y31.200
G1 X17.900 Y31.200
G1 X17.900 Y4.600
G1 X44.500 Y4.600
G1 X44.500 Y-4.600
G1 X-8.700 Y-4.600
G1 X-8.700 Y-31.200
G1 X-17.900 Y-31.200
G1 X-17.900 Y-4.600
G1 X-44.500 Y-4.600
G1 X-44.500 Y0.000
G1 X-44.900 Y-0.000
G1 X-44.900 Y5.000
G1 X8.300 Y5.000
G1 X8.300 Y31.600
G1 X18.300 Y31.600
G1 X18.300 Y5.000
G1 X44.900 Y5.000
G1 X44.900 Y-5.000
G1 X-8.300 Y-5.000
G1 X-8.300 Y-31.600
G1 X-18.300 Y-31.600
G1 X-18.300 Y-5.000
G1 X-44.900 Y-5.000
G1 X-44.900 Y0.000
G1 X-45.300 Y0.000
G1 X-45.300 Y5.400
G1 X7.900 Y5.400
G1 X7.900 Y32.000
G1 X18.700 Y32.000
G1 X18.700 Y5.400
G1 X45.300 Y5.400
G1 X45.300 Y-5.400
G1 X-7.900 Y-5.400
G1 X-7.900 Y-32.000
G1 X-18.700 Y-32.000
G1 X-18.700 Y-5.400
G1 X-45.300 Y-5.400
G1 X-45.300 Y0.000
G1 X-45.700 Y-0.000
G1 X-45.700 Y5.800
G1 X7.500 Y5.800
G1 X7.500 Y32.400
G1 X19.100 Y32.400
G1 X19.100 Y5.800
G1 X45.700 Y5.800
G1 X45.700 Y-5.800
G1 X-7.500 Y-5.800
G1 X-7.500 Y-32.400
G1 X-19.100 Y-32.400
G1 X-19.100 Y-5.800
G1 X-45.700 Y-5.800
G1 X-45.700 Y0.000
G1 X-46.100 Y0.000
G1 X-46.100 Y6.200
G1 X7.100 Y6.200
G1 X7.100 Y32.800
G1 X19.500 Y32.800
G1 X19.500 Y6.200
G1 X46.100 Y6.200
G1 X46.100 Y-6.200
G1 X-7.100 Y-6.200
G1 X-7.100 Y-32.800
G1 X-19.500 Y-32.800
G1 X-19.500 Y-6.200
G1 X-46.100 Y-6.200
G1 X-46.100 Y0.000
G1 X-46.500 Y-0.000
G1 X-46.500 Y6.600
G1 X6.700 Y6.600
G1 X6.700 Y33.200
G1 X19.900 Y33.200
G1 X19.900 Y6.600
G1 X46.500 Y6.600
G1 X46.500 Y-6.600
G1 X-6.700 Y-6.600
G1 X-6.700 Y-33.200
G1 X-19.900 Y-33.200
G1 X-19.900 Y-6.600
G1 X-46.500 Y-6.600
G1 X-46.500 Y0.000
G1 X-46.900 Y0.000
G1 X-46.900 Y7.000
G1 X6.300 Y7.000
G1 X6.300 Y33.600
G1 X20.300 Y33.600
G1 X20.300 Y7.000
G1 X46.900 Y7.000
G1 X46.900 Y-7.000
G1 X-6.300 Y-7.000
G1 X-6.300 Y-33.600
G1 X-20.300 Y-33.600
G1 X-20.300 Y-7.000
G1 X-46.900 Y-7.000
G1 X-46.900 Y0.000
G1 X-47.300 Y-0.000
G1 X-47.300 Y7.400
G1 X5.900 Y7.400
G1 X5.900 Y34.000
G1 X20.700 Y34.000
G1 X20.700 Y7.400
G1 X47.300 Y7.400
G1 X47.300 Y-7.400
G1 X-5.900 Y-7.400
G1 X-5.900 Y-34.000
G1 X-20.700 Y-34.000
G1 X-20.700 Y-7.400
G1 X-47.300 Y-7.400
G1 X-47.300 Y0.000
G1 X-47.700 Y0.000
G1 X-47.700 Y7.800
G1 X5.500 Y7.800
G1 X5.500 Y34.400
G1 X21.100 Y34.400
G1 X21.100 Y7.800
G1 X47.700 Y7.800
G1 X47.700 Y-7.800
G1 X-5.500 Y-7.800
G1 X-5.500 Y-34.400
G1 X-21.100 Y-34.400
G1 X-21.100 Y-7.800
G1 X-47.700 Y-7.800
G1 X-47.700 Y0.000 Z0.700
M9
G1 Z10.000
G1 X-22.100 Y0.000
G1 Z1.100
M7
G4 P150
G1 X-22.105 Y0.000 Z1.100
G1 X-22.105 Y-7.800
G1 X-21.100 Y-7.800
G1 X-21.100 Y-8.805
G1 X-5.500 Y-8.805
G1 X-5.500 Y-7.800
G1 X-4.495 Y-7.800
G1 X-4.495 Y7.800
G1 X-22.105 Y7.800
G1 X-22.105 Y0.000
G1 X-21.705 Y0.000
G1 X-21.705 Y-7.400
G1 X-20.700 Y-7.400
G1 X-20.700 Y-8.405
G1 X-5.900 Y-8.405
G1 X-5.900 Y-7.400
G1 X-4.895 Y-7.400
G1 X-4.895 Y7.400
G1 X-21.705 Y7.400
G1 X-21.705 Y0.000
G1 X-21.305 Y0.000
G1 X-21.305 Y-7.000
G1 X-20.300 Y-7.000
G1 X-20.300 Y-8.005
G1 X-6.300 Y-8.005
G1 X-6.300 Y-7.000
G1 X-5.295 Y-7.000
G1 X-5.295 Y7.000
G1 X-21.305 Y7.000
G1 X-21.305 Y0.000
G1 X-20.905 Y0.000
G1 X-20.905 Y-6.600
G1 X-19.900 Y-6.600
G1 X-19.900 Y-7.605
G1 X-6.700 Y-7.605
G1 X-6.700 Y-6.600
G1 X-5.695 Y-6.600
G1 X-5.695 Y6.600
G1 X-20.905 Y6.600
G1 X-20.905 Y0.000
G1 X-20.505 Y0.000
G1 X-20.505 Y-6.200
G1 X-19.500 Y-6.200
G1 X-19.500 Y-7.205
G1 X-7.100 Y-7.205
G1 X-7.100 Y-6.200
G1 X-6.095 Y-6.200
G1 X-6.095 Y6.200
G1 X-20.505 Y6.200
G1 X-20.505 Y0.000
G1 X-20.105 Y0.000
G1 X-20.105 Y-5.800
G1 X-19.100 Y-5.800
G1 X-19.100 Y-6.805
G1 X-7.500 Y-6.805
G1 X-7.500 Y-5.800
G1 X-6.495 Y-5.800
G1 X-6.495 Y5.800
G1 X-20.105 Y5.800
G1 X-20.105 Y0.000
G1 X-19.705 Y0.000
G1 X-19.705 Y-5.400
G1 X-18.700 Y-5.400
G1 X-18.700 Y-6.405
G1 X-7.900 Y-6.405
G1 X-7.900 Y-5.400
G1 X-6.895 Y-5.400
G1 X-6.895 Y5.400
G1 X-19.705 Y5.400
G1 X-19.705 Y0.000
G1 X-19.305 Y0.000
G1 X-19.305 Y-5.000
G1 X-18.300 Y-5.000
G1 X-18.300 Y-6.005
G1 X-8.300 Y-6.005
G1 X-8.300 Y-5.000
G1 X-7.295 Y-5.000
G1 X-7.295 Y5.000
G1 X-19.305 Y5.000
G1 X-19.305 Y0.000
G1 X-18.905 Y0.000
G1 X-18.905 Y-4.600
G1 X-17.900 Y-4.600
G1 X-17.900 Y-5.605
G1 X-8.700 Y-5.605
G1 X-8.700 Y-4.600
G1 X-7.695 Y-4.600
G1 X-7.695 Y4.600
G1 X-18.905 Y4.600
G1 X-18.905 Y0.000
G1 X-18.505 Y0.000
G1 X-18.505 Y-4.200
G1 X-17.500 Y-4.200
G1 X-17.500 Y-5.205
G1 X-9.100 Y-5.205
G1 X-9.100 Y-4.200
G1 X-8.095 Y-4.200
G1 X-8.095 Y4.200
G1 X-18.505 Y4.200
G1 X-18.505 Y0.000
G1 X-18.105 Y0.000
G1 X-18.105 Y-3.800
G1 X-17.100 Y-3.800
G1 X-17.100 Y-4.805
G1 X-9.500 Y-4.805
G1 X-9.500 Y-3.800
G1 X-8.495 Y-3.800
G1 X-8.495 Y3.800
G1 X-18.105 Y3.800
G1 X-18.105 Y0.000
G1 X-17.705 Y0.000
G1 X-17.705 Y-3.400
G1 X-16.700 Y-3.400
G1 X-16.700 Y-4.405
G1 X-9.900 Y-4.405
G1 X-9.900 Y-3.400
G1 X-8.895 Y-3.400
G1 X-8.895 Y3.400
G1 X-17.705 Y3.400
G1 X-17.705 Y0.000
G1 X-17.305 Y0.000
G1 X-17.305 Y-3.000
G1 X-16.300 Y-3.000
G1 X-16.300 Y-4.005
G1 X-10.300 Y-4.005
G1 X-10.300 Y-3.000
G1 X-9.295 Y-3.000
G1 X-9.295 Y3.000
G1 X-17.305 Y3.000
G1 X-17.305 Y0.000
G1 X-16.905 Y0.000
G1 X-16.905 Y-2.600
G1 X-15.900 Y-2.600
G1 X-15.900 Y-3.605
G1 X-10.700 Y-3.605
G1 X-10.700 Y-2.600
G1 X-9.695 Y-2.600
G1 X-9.695 Y2.600
G1 X-16.905 Y2.600
G1 X-16.905 Y0.000
G1 X-16.505 Y0.000
G1 X-16.505 Y-2.200
G1 X-15.500 Y-2.200
G1 X-15.500 Y-3.205
G1 X-11.100 Y-3.205
G1 X-11.100 Y-2.200
G1 X-10.095 Y-2.200
G1 X-10.095 Y2.200
G1 X-16.505 Y2.200
G1 X-16.505 Y0.000
G1 X-16.105 Y0.000
G1 X-16.105 Y-1.800
G1 X-15.100 Y-1.800
G1 X-15.100 Y-2.805
G1 X-11.500 Y-2.805
G1 X-11.500 Y-1.800
G1 X-10.495 Y-1.800
G1 X-10.495 Y1.800
G1 X-16.105 Y1.800
G1 X-16.105 Y0.000
G1 X-15.705 Y0.000
G1 X-15.705 Y-1.400
G1 X-14.700 Y-1.400
G1 X-14.700 Y-2.405
G1 X-11.900 Y-2.405
G1 X-11.900 Y-1.400
G1 X-10.895 Y-1.400
G1 X-10.895 Y1.400
G1 X-15.705 Y1.400
G1 X-15.705 Y0.000
G1 X-15.305 Y0.000
G1 X-15.305 Y-1.000
G1 X-14.300 Y-1.000
G1 X-14.300 Y-2.005
G1 X-12.300 Y-2.005
G1 X-12.300 Y-1.000
G1 X-11.295 Y-1.000
G1 X-11.295 Y1.000
G1 X-15.305 Y1.000
G1 X-15.305 Y0.000
G1 X-14.905 Y0.000
G1 X-14.905 Y-0.600
G1 X-13.900 Y-0.600
G1 X-13.900 Y-1.605
G1 X-12.700 Y-1.605
G1 X-12.700 Y-0.600
G1 X-11.695 Y-0.600
G1 X-11.695 Y0.600
G1 X-14.905 Y0.600
G1 X-14.905 Y0.000
G1 X-14.505 Y0.000
G1 X-14.505 Y0.000 Z1.500
G1 X-14.505 Y0.000
G1 X-14.905 Y0.000
G1 X-14.905 Y0.600
G1 X-11.695 Y0.600
G1 X-11.695 Y-0.600
G1 X-12.700 Y-0.600
G1 X-12.700 Y-1.605
G1 X-13.900 Y-1.605
G1 X-13.900 Y-0.600
G1 X-14.905 Y-0.600
G1 X-14.905 Y0.000
G1 X-15.305 Y0.000
G1 X-15.305 Y1.000
G1 X-11.295 Y1.000
G1 X-11.295 Y-1.000
G1 X-12.300 Y-1.000
G1 X-12.300 Y-2.005
G1 X-14.300 Y-2.005
G1 X-14.300 Y-1.000
G1 X-15.305 Y-1.000
G1 X-15.305 Y0.000
G1 X-15.705 Y0.000
G1 X-15.705 Y1.400
G1 X-10.895 Y1.400
G1 X-10.895 Y-1.400
G1 X-11.900 Y-1.400
G1 X-11.900 Y-2.405
G1 X-14.700 Y-2.405
G1 X-14.700 Y-1.400
G1 X-15.705 Y-1.400
G1 X-15.705 Y0.000
G1 X-16.105 Y0.000
G1 X-16.105 Y1.800
G1 X-10.495 Y1.800
G1 X-10.495 Y-1.800
G1 X-11.500 Y-1.800
G1 X-11.500 Y-2.805
G1 X-15.100 Y-2.805
G1 X-15.100 Y-1.800
G1 X-16.105 Y-1.800
G1 X-16.105 Y0.000
G1 X-16.505 Y0.000
G1 X-16.505 Y2.200
G1 X-10.095 Y2.200
G1 X-10.095 Y-2.200
G1 X-11.100 Y-2.200
G1 X-11.100 Y-3.205
G1 X-15.500 Y-3.205
G1 X-15.500 Y-2.200
G1 X-16.505 Y-2.200
G1 X-16.505 Y0.000
G1 X-16.905 Y0.000
G1 X-16.905 Y2.600
G1 X-9.695 Y2.600
G1 X-9.695 Y-2.600
G1 X-10.700 Y-2.600
G1 X-10.700 Y-3.605
G1 X-15.900 Y-3.605
G1 X-15.900 Y-2.600
G1 X-16.905 Y-2.600
G1 X-16.905 Y0.000
G1 X-17.305 Y0.000
G1 X-17.305 Y3.000
G1 X-9.295 Y3.000
G1 X-9.295 Y-3.000
G1 X-10.300 Y-3.000
G1 X-10.300 Y-4.005
G1 X-16.300 Y-4.005
G1 X-16.300 Y-3.000
G1 X-17.305 Y-3.000
G1 X-17.305 Y0.000
G1 X-17.705 Y0.000
G1 X-17.705 Y3.400
G1 X-8.895 Y3.400
G1 X-8.895 Y-3.400
G1 X-9.900 Y-3.400
G1 X-9.900 Y-4.405
G1 X-16.700 Y-4.405
G1 X-16.700 Y-3.400
G1 X-17.705 Y-3.400
G1 X-17.705 Y0.000
G1 X-18.105 Y0.000
G1 X-18.105 Y3.800
G1 X-8.495 Y3.800
G1 X-8.495 Y-3.800
G1 X-9.500 Y-3.800
G1 X-9.500 Y-4.805
G1 X-17.100 Y-4.805
G1 X-17.100 Y-3.800
G1 X-18.105 Y-3.800
G1 X-18.105 Y0.000
G1 X-18.505 Y0.000
G1 X-18.505 Y4.200
G1 X-8.095 Y4.200
G1 X-8.095 Y-4.200
G1 X-9.100 Y-4.200
G1 X-9.100 Y-5.205
G1 X-17.500 Y-5.205
G1 X-17.500 Y-4.200
G1 X-18.505 Y-4.200
G1 X-18.505 Y0.000
G1 X-18.905 Y0.000
G1 X-18.905 Y4.600
G1 X-7.695 Y4.600
G1 X-7.695 Y-4.600
G1 X-8.700 Y-4.600
G1 X-8.700 Y-5.605
G1 X-17.900 Y-5.605
G1 X-17.900 Y-4.600
G1 X-18.905 Y-4.600
G1 X-18.905 Y0.000
G1 X-19.305 Y0.000
G1 X-19.305 Y5.000
G1 X-7.295 Y5.000
G1 X-7.295 Y-5.000
G1 X-8.300 Y-5.000
G1 X-8.300 Y-6.005
G1 X-18.300 Y-6.005
G1 X-18.300 Y-5.000
G1 X-19.305 Y-5.000
G1 X-19.305 Y0.000
G1 X-19.705 Y0.000
G1 X-19.705 Y5.400
G1 X-6.895 Y5.400
G1 X-6.895 Y-5.400
G1 X-7.900 Y-5.400
G1 X-7.900 Y-6.405
G1 X-18.700 Y-6.405
G1 X-18.700 Y-5.400
G1 X-19.705 Y-5.400
G1 X-19.705 Y0.000
G1 X-20.105 Y0.000
G1 X-20.105 Y5.800
G1 X-6.495 Y5.800
G1 X-6.495 Y-5.800
G1 X-7.500 Y-5.800
G1 X-7.500 Y-6.805
G1 X-19.100 Y-6.805
G1 X-19.100 Y-5.800
G1 X-20.105 Y-5.800
G1 X-20.105 Y0.000
G1 X-20.505 Y0.000
G1 X-20.505 Y6.200
G1 X-6.095 Y6.200
G1 X-6.095 Y-6.200
G1 X-7.100 Y-6.200
G1 X-7.100 Y-7.205
G1 X-19.500 Y-7.205
G1 X-19.500 Y-6.200
G1 X-20.505 Y-6.200
G1 X-20.505 Y0.000
G1 X-20.905 Y0.000
G1 X-20.905 Y6.600
G1 X-5.695 Y6.600
G1 X-5.695 Y-6.600
G1 X-6.700 Y-6.600
G1 X-6.700 Y-7.605
G1 X-19.900 Y-7.605
G1 X-19.900 Y-6.600
G1 X-20.905 Y-6.600
G1 X-20.905 Y0.000
G1 X-21.305 Y0.000
G1 X-21.305 Y7.000
G1 X-5.295 Y7.000
G1 X-5.295 Y-7.000
G1 X-6.300 Y-7.000
G1 X-6.300 Y-8.005
G1 X-20.300 Y-8.005
G1 X-20.300 Y-7.000
G1 X-21.305 Y-7.000
G1 X-21.305 Y0.000
G1 X-21.705 Y0.000
G1 X-21.705 Y7.400
G1 X-4.895 Y7.400
G1 X-4.895 Y-7.400
G1 X-5.900 Y-7.400
G1 X-5.900 Y-8.405
G1 X-20.700 Y-8.405
G1 X-20.700 Y-7.400
G1 X-21.705 Y-7.400
G1 X-21.705 Y0.000
G1 X-22.105 Y0.000
G1 X-22.105 Y7.800
G1 X-4.495 Y7.800
G1 X-4.495 Y-7.800
G1 X-5.500 Y-7.800
G1 X-5.500 Y-8.805
G1 X-21.100 Y-8.805
G1 X-21.100 Y-7.800
G1 X-22.105 Y-7.800
G1 X-22.105 Y0.000 Z1.500
G1 X-22.145 Y0.000 Z1.900
G1 X-22.145 Y-7.800
G1 X-21.100 Y-7.800
G1 X-21.100 Y-8.845
G1 X-5.500 Y-8.845
G1 X-5.500 Y-7.800
G1 X-4.455 Y-7.800
G1 X-4.455 Y7.800
G1 X-22.145 Y7.800
G1 X-22.145 Y0.000
G1 X-21.745 Y0.000
G1 X-21.745 Y-7.400
G1 X-20.700 Y-7.400
G1 X-20.700 Y-8.445
G1 X-5.900 Y-8.445
G1 X-5.900 Y-7.400
G1 X-4.855 Y-7.400
G1 X-4.855 Y7.400
G1 X-21.745 Y7.400
G1 X-21.745 Y0.000
G1 X-21.345 Y0.000
G1 X-21.345 Y-7.000
G1 X-20.300 Y-7.000
G1 X-20.300 Y-8.045
G1 X-6.300 Y-8.045
G1 X-6.300 Y-7.000
G1 X-5.255 Y-7.000
G1 X-5.255 Y7.000
G1 X-21.345 Y7.000
G1 X-21.345 Y0.000
G1 X-20.945 Y0.000
G1 X-20.945 Y-6.600
G1 X-19.900 Y-6.600
G1 X-19.900 Y-7.645
G1 X-6.700 Y-7.645
G1 X-6.700 Y-6.600
G1 X-5.655 Y-6.600
G1 X-5.655 Y6.600
G1 X-20.945 Y6.600
G1 X-20.945 Y0.000
G1 X-20.545 Y0.000
G1 X-20.545 Y-6.200
G1 X-19.500 Y-6.200
G1 X-19.500 Y-7.245
G1 X-7.100 Y-7.245
G1 X-7.100 Y-6.200
G1 X-6.055 Y-6.200
G1 X-6.055 Y6.200
G1 X-20.545 Y6.200
G1 X-20.545 Y0.000
G1 X-20.145 Y0.000
G1 X-20.145 Y-5.800
G1 X-19.100 Y-5.800
G1 X-19.100 Y-6.845
G1 X-7.500 Y-6.845
G1 X-7.500 Y-5.800
G1 X-6.455 Y-5.800
G1 X-6.455 Y5.800
G1 X-20.145 Y5.800
G1 X-20.145 Y0.000
G1 X-19.745 Y0.000
G1 X-19.745 Y-5.400
G1 X-18.700 Y-5.400
G1 X-18.700 Y-6.445
G1 X-7.900 Y-6.445
G1 X-7.900 Y-5.400
G1 X-6.855 Y-5.400
G1 X-6.855 Y5.400
G1 X-19.745 Y5.400
G1 X-19.745 Y0.000
G1 X-19.345 Y0.000
G1 X-19.345 Y-5.000
G1 X-18.300 Y-5.000
G1 X-18.300 Y-6.045
G1 X-8.300 Y-6.045
G1 X-8.300 Y-5.000
G1 X-7.255 Y-5.000
G1 X-7.255 Y5.000
G1 X-19.345 Y5.000
G1 X-19.345 Y0.000
G1 X-18.945 Y0.000
G1 X-18.945 Y-4.600
G1 X-17.900 Y-4.600
G1 X-17.900 Y-5.645
G1 X-8.700 Y-5.645
G1 X-8.700 Y-4.600
G1 X-7.655 Y-4.600
G1 X-7.655 Y4.600
G1 X-18.945 Y4.600
G1 X-18.945 Y0.000
G1 X-18.545 Y0.000
G1 X-18.545 Y-4.200
G1 X-17.500 Y-4.200
G1 X-17.500 Y-5.245
G1 X-9.100 Y-5.245
G1 X-9.100 Y-4.200
G1 X-8.055 Y-4.200
G1 X-8.055 Y4.200
G1 X-18.545 Y4.200
G1 X-18.545 Y0.000
G1 X-18.145 Y0.000
G1 X-18.145 Y-3.800
G1 X-17.100 Y-3.800
G1 X-17.100 Y-4.845
G1 X-9.500 Y-4.845
G1 X-9.500 Y-3.800
G1 X-8.455 Y-3.800
G1 X-8.455 Y3.800
G1 X-18.145 Y3.800
G1 X-18.145 Y0.000
G1 X-17.745 Y0.000
G1 X-17.745 Y-3.400
G1 X-16.700 Y-3.400
G1 X-16.700 Y-4.445
G1 X-9.900 Y-4.445
G1 X-9.900 Y-3.400
G1 X-8.855 Y-3.400
G1 X-8.855 Y3.400
G1 X-17.745 Y3.400
G1 X-17.745 Y0.000
G1 X-17.345 Y0.000
G1 X-17.345 Y-3.000
G1 X-16.300 Y-3.000
G1 X-16.300 Y-4.045
G1 X-10.300 Y-4.045
G1 X-10.300 Y-3.000
G1 X-9.255 Y-3.000
G1 X-9.255 Y3.000
G1 X-17.345 Y3.000
G1 X-17.345 Y0.000
G1 X-16.945 Y0.000
G1 X-16.945 Y-2.600
G1 X-15.900 Y-2.600
G1 X-15.900 Y-3.645
G1 X-10.700 Y-3.645
G1 X-10.700 Y-2.600
G1 X-9.655 Y-2.600
G1 X-9.655 Y2.600
G1 X-16.945 Y2.600
G1 X-16.945 Y0.000
G1 X-16.545 Y0.000
G1 X-16.545 Y-2.200
G1 X-15.500 Y-2.200
G1 X-15.500 Y-3.245
G1 X-11.100 Y-3.245
G1 X-11.100 Y-2.200
G1 X-10.055 Y-2.200
G1 X-10.055 Y2.200
G1 X-16.545 Y2.200
G1 X-16.545 Y0.000
G1 X-16.145 Y0.000
G1 X-16.145 Y-1.800
G1 X-15.100 Y-1.800
G1 X-15.100 Y-2.845
G1 X-11.500 Y-2.845
G1 X-11.500 Y-1.800
G1 X-10.455 Y-1.800
G1 X-10.455 Y1.800
G1 X-16.145 Y1.800
G1 X-16.145 Y0.000
G1 X-15.745 Y0.000
G1 X-15.745 Y-1.400
G1 X-14.700 Y-1.400
G1 X-14.700 Y-2.445
G1 X-11.900 Y-2.445
G1 X-11.900 Y-1.400
G1 X-10.855 Y-1.400
G1 X-10.855 Y1.400
G1 X-15.745 Y1.400
G1 X-15.745 Y0.000
G1 X-15.345 Y0.000
G1 X-15.345 Y-1.000
G1 X-14.300 Y-1.000
G1 X-14.300 Y-2.045
G1 X-12.300 Y-2.045
G1 X-12.300 Y-1.000
G1 X-11.255 Y-1.000
G1 X-11.255 Y1.000
G1 X-15.345 Y1.000
G1 X-15.345 Y0.000
G1 X-14.945 Y0.000
G1 X-14.945 Y-0.600
G1 X-13.900 Y-0.600
G1 X-13.900 Y-1.645
G1 X-12.700 Y-1.645
G1 X-12.700 Y-0.600
G1 X-11.655 Y-0.600
G1 X-11.655 Y0.600
G1 X-14.945 Y0.600
G1 X-14.945 Y0.000
G1 X-14.545 Y0.000
M9
G1 Z10.000
G1 X22.100 Y0.000
G1 Z1.100
M7
G4 P150
G1 X22.105 Y0.000 Z1.100
G1 X22.105 Y7.800
G1 X21.100 Y7.800
G1 X21.100 Y8.805
G1 X5.500 Y8.805
G1 X5.500 Y7.800
G1 X4.495 Y7.800
G1 X4.495 Y-7.800
G1 X22.105 Y-7.800
G1 X22.105 Y0.000
G1 X21.705 Y0.000
G1 X21.705 Y7.400
G1 X20.700 Y7.400
G1 X20.700 Y8.405
G1 X5.900 Y8.405
G1 X5.900 Y7.400
G1 X4.895 Y7.400
G1 X4.895 Y-7.400
G1 X21.705 Y-7.400
G1 X21.705 Y0.000
G1 X21.305 Y0.000
G1 X21.305 Y7.000
G1 X20.300 Y7.000
G1 X20.300 Y8.005
G1 X6.300 Y8.005
G1 X6.300 Y7.000
G1 X5.295 Y7.000
G1 X5.295 Y-7.000
G1 X21.305 Y-7.000
G1 X21.305 Y0.000
G1 X20.905 Y0.000
G1 X20.905 Y6.600
G1 X19.900 Y6.600
G1 X19.900 Y7.605
G1 X6.700 Y7.605
G1 X6.700 Y6.600
G1 X5.695 Y6.600
G1 X5.695 Y-6.600
G1 X20.905 Y-6.600
G1 X20.905 Y0.000
G1 X20.505 Y0.000
G1 X20.505 Y6.200
G1 X19.500 Y6.200
G1 X19.500 Y7.205
G1 X7.100 Y7.205
G1 X7.100 Y6.200
G1 X6.095 Y6.200
G1 X6.095 Y-6.200
G1 X20.505 Y-6.200
G1 X20.505 Y0.000
G1 X20.105 Y0.000
G1 X20.105 Y5.800
G1 X19.100 Y5.800
G1 X19.100 Y6.805
G1 X7.500 Y6.805
G1 X7.500 Y5.800
G1 X6.495 Y5.800
G1 X6.495 Y-5.800
G1 X20.105 Y-5.800
G1 X20.105 Y0.000
G1 X19.705 Y0.000
G1 X19.705 Y5.400
G1 X18.700 Y5.400
G1 X18.700 Y6.405
G1 X7.900 Y6.405
G1 X7.900 Y5.400
G1 X6.895 Y5.400
G1 X6.895 Y-5.400
G1 X19.705 Y-5.400
G1 X19.705 Y0.000
G1 X19.305 Y0.000
G1 X19.305 Y5.000
G1 X18.300 Y5.000
G1 X18.300 Y6.005
G1 X8.300 Y6.005
G1 X8.300 Y5.000
G1 X7.295 Y5.000
G1 X7.295 Y-5.000
G1 X19.305 Y-5.000
G1 X19.305 Y0.000
G1 X18.905 Y0.000
G1 X18.905 Y4.600
G1 X17.900 Y4.600
G1 X17.900 Y5.605
G1 X8.700 Y5.605
G1 X8.700 Y4.600
G1 X7.695 Y4.600
G1 X7.695 Y-4.600
G1 X18.905 Y-4.600
G1 X18.905 Y0.000
G1 X18.505 Y0.000
G1 X18.505 Y4.200
G1 X17.500 Y4.200
G1 X17.500 Y5.205
G1 X9.100 Y5.205
G1 X9.100 Y4.200
G1 X8.095 Y4.200
G1 X8.095 Y-4.200
G1 X18.505 Y-4.200
G1 X18.505 Y0.000
G1 X18.105 Y0.000
G1 X18.105 Y3.800
G1 X17.100 Y3.800
G1 X17.100 Y4.805
G1 X9.500 Y4.805
G1 X9.500 Y3.800
G1 X8.495 Y3.800
G1 X8.495 Y-3.800
G1 X18.105 Y-3.800
G1 X18.105 Y0.000
G1 X17.705 Y0.000
G1 X17.705 Y3.400
G1 X16.700 Y3.400
G1 X16.700 Y4.405
G1 X9.900 Y4.405
G1 X9.900 Y3.400
G1 X8.895 Y3.400
G1 X8.895 Y-3.400
G1 X17.705 Y-3.400
G1 X17.705 Y0.000
G1 X17.305 Y0.000
G1 X17.305 Y3.000
G1 X16.300 Y3.000
G1 X16.300 Y4.005
G1 X10.300 Y4.005
G1 X10.300 Y3.000
G1 X9.295 Y3.000
G1 X9.295 Y-3.000
G1 X17.305 Y-3.000
G1 X17.305 Y0.000
G1 X16.905 Y0.000
G1 X16.905 Y2.600
G1 X15.900 Y2.600
G1 X15.900 Y3.605
G1 X10.700 Y3.605
G1 X10.700 Y2.600
G1 X9.695 Y2.600
G1 X9.695 Y-2.600
G1 X16.905 Y-2.600
G1 X16.905 Y0.000
G1 X16.505 Y0.000
G1 X16.505 Y2.200
G1 X15.500 Y2.200
G1 X15.500 Y3.205
G1 X11.100 Y3.205
G1 X11.100 Y2.200
G1 X10.095 Y2.200
G1 X10.095 Y-2.200
G1 X16.505 Y-2.200
G1 X16.505 Y0.000
G1 X16.105 Y0.000
G1 X16.105 Y1.800
G1 X15.100 Y1.800
G1 X15.100 Y2.805
G1 X11.500 Y2.805
G1 X11.500 Y1.800
G1 X10.495 Y1.800
G1 X10.495 Y-1.800
G1 X16.105 Y-1.800
G1 X16.105 Y0.000
G1 X15.705 Y0.000
G1 X15.705 Y1.400
G1 X14.700 Y1.400
G1 X14.700 Y2.405
G1 X11.900 Y2.405
G1 X11.900 Y1.400
G1 X10.895 Y1.400
G1 X10.895 Y-1.400
G1 X15.705 Y-1.400
G1 X15.705 Y0.000
G1 X15.305 Y0.000
G1 X15.305 Y1.000
G1 X14.300 Y1.000
G1 X14.300 Y2.005
G1 X12.300 Y2.005
G1 X12.300 Y1.000
G1 X11.295 Y1.000
G1 X11.295 Y-1.000
G1 X15.305 Y-1.000
G1 X15.305 Y0.000
G1 X14.905 Y0.000
G1 X14.905 Y0.600
G1 X13.900 Y0.600
G1 X13.900 Y1.605
G1 X12.700 Y1.605
G1 X12.700 Y0.600
G1 X11.695 Y0.600
G1 X11.695 Y-0.600
G1 X14.905 Y-0.600
G1 X14.905 Y0.000
G1 X14.505 Y0.000
G1 X14.505 Y0.000 Z1.500
G1 X14.505 Y0.000
G1 X14.905 Y0.000
G1 X14.905 Y-0.600
G1 X11.695 Y-0.600
G1 X11.695 Y0.600
G1 X12.700 Y0.600
G1 X12.700 Y1.605
G1 X13.900 Y1.605
G1 X13.900 Y0.600
G1 X14.905 Y0.600
G1 X14.905 Y0.000
G1 X15.305 Y0.000
G1 X15.305 Y-1.000
G1 X11.295 Y-1.000
G1 X11.295 Y1.000
G1 X12.300 Y1.000
G1 X12.300 Y2.005
G1 X14.300 Y2.005
G1 X14.300 Y1.000
G1 X15.305 Y1.000
G1 X15.305 Y0.000
G1 X15.705 Y0.000
G1 X15.705 Y-1.400
G1 X10.895 Y-1.400
G1 X10.895 Y1.400
G1 X11.900 Y1.400
G1 X11.900 Y2.405
G1 X14.700 Y2.405
G1 X14.700 Y1.400
G1 X15.705 Y1.400
G1 X15.705 Y0.000
G1 X16.105 Y0.000
G1 X16.105 Y-1.800
G1 X10.495 Y-1.800
G1 X10.495 Y1.800
G1 X11.500 Y1.800
G1 X11.500 Y2.805
G1 X15.100 Y2.805
G1 X15.100 Y1.800
G1 X16.105 Y1.800
G1 X16.105 Y0.000
G1 X16.505 Y0.000
G1 X16.505 Y-2.200
G1 X10.095 Y-2.200
G1 X10.095 Y2.200
G1 X11.100 Y2.200
G1 X11.100 Y3.205
G1 X15.500 Y3.205
G1 X15.500 Y2.200
G1 X16.505 Y2.200
G1 X16.505 Y0.000
G1 X16.905 Y0.000
G1 X16.905 Y-2.600
G1 X9.695 Y-2.600
G1 X9.695 Y2.600
G1 X10.700 Y2.600
G1 X10.700 Y3.605
G1 X15.900 Y3.605
G1 X15.900 Y2.600
G1 X16.905 Y2.600
G1 X16.905 Y0.000
G1 X17.305 Y0.000
G1 X17.305 Y-3.000
G1 X9.295 Y-3.000
G1 X9.295 Y3.000
G1 X10.300 Y3.000
G1 X10.300 Y4.005
G1 X16.300 Y4.005
G1 X16.300 Y3.000
G1 X17.305 Y3.000
G1 X17.305 Y0.000
G1 X17.705 Y0.000
G1 X17.705 Y-3.400
G1 X8.895 Y-3.400
G1 X8.895 Y3.400
G1 X9.900 Y3.400
G1 X9.900 Y4.405
G1 X16.700 Y4.405
G1 X16.700 Y3.400
G1 X17.705 Y3.400
G1 X17.705 Y0.000
G1 X18.105 Y0.000
G1 X18.105 Y-3.800
G1 X8.495 Y-3.800
G1 X8.495 Y3.800
G1 X9.500 Y3.800
G1 X9.500 Y4.805
G1 X17.100 Y4.805
G1 X17.100 Y3.800
G1 X18.105 Y3.800
G1 X18.105 Y0.000
G1 X18.505 Y0.000
G1 X18.505 Y-4.200
G1 X8.095 Y-4.200
G1 X8.095 Y4.200
G1 X9.100 Y4.200
G1 X9.100 Y5.205
G1 X17.500 Y5.205
G1 X17.500 Y4.200
G1 X18.505 Y4.200
G1 X18.505 Y0.000
G1 X18.905 Y0.000
G1 X18.905 Y-4.600
G1 X7.695 Y-4.600
G1 X7.695 Y4.600
G1 X8.700 Y4.600
G1 X8.700 Y5.605
G1 X17.900 Y5.605
G1 X17.900 Y4.600
G1 X18.905 Y4.600
G1 X18.905 Y0.000
G1 X19.305 Y0.000
G1 X19.305 Y-5.000
G1 X7.295 Y-5.000
G1 X7.295 Y5.000
G1 X8.300 Y5.000
G1 X8.300 Y6.005
G1 X18.300 Y6.005
G1 X18.300 Y5.000
G1 X19.305 Y5.000
G1 X19.305 Y0.000
G1 X19.705 Y0.000
G1 X19.705 Y-5.400
G1 X6.895 Y-5.400
G1 X6.895 Y5.400
G1 X7.900 Y5.400
G1 X7.900 Y6.405
G1 X18.700 Y6.405
G1 X18.700 Y5.400
G1 X19.705 Y5.400
G1 X19.705 Y0.000
G1 X20.105 Y0.000
G1 X20.105 Y-5.800
G1 X6.495 Y-5.800
G1 X6.495 Y5.800
G1 X7.500 Y5.800
G1 X7.500 Y6.805
G1 X19.100 Y6.805
G1 X19.100 Y5.800
G1 X20.105 Y5.800
G1 X20.105 Y0.000
G1 X20.505 Y0.000
G1 X20.505 Y-6.200
G1 X6.095 Y-6.200
G1 X6.095 Y6.200
G1 X7.100 Y6.200
G1 X7.100 Y7.205
G1 X19.500 Y7.205
G1 X19.500 Y6.200
G1 X20.505 Y6.200
G1 X20.505 Y0.000
G1 X20.905 Y0.000
G1 X20.905 Y-6.600
G1 X5.695 Y-6.600
G1 X5.695 Y6.600
G1 X6.700 Y6.600
G1 X6.700 Y7.605
G1 X19.900 Y7.605
G1 X19.900 Y6.600
G1 X20.905 Y6.600
G1 X20.905 Y0.000
G1 X21.305 Y0.000
G1 X21.305 Y-7.000
G1 X5.295 Y-7.000
G1 X5.295 Y7.000
G1 X6.300 Y7.000
G1 X6.300 Y8.005
G1 X20.300 Y8.005
G1 X20.300 Y7.000
G1 X21.305 Y7.000
G1 X21.305 Y0.000
G1 X21.705 Y0.000
G1 X21.705 Y-7.400
G1 X4.895 Y-7.400
G1 X4.895 Y7.400
G1 X5.900 Y7.400
G1 X5.900 Y8.405
G1 X20.700 Y8.405
G1 X20.700 Y7.400
G1 X21.705 Y7.400
G1 X21.705 Y0.000
G1 X22.105 Y0.000
G1 X22.105 Y-7.800
G1 X4.495 Y-7.800
G1 X4.495 Y7.800
G1 X5.500 Y7.800
G1 X5.500 Y8.805
G1 X21.100 Y8.805
G1 X21.100 Y7.800
G1 X22.105 Y7.800
G1 X22.105 Y0.000 Z1.500
G1 X22.145 Y0.000 Z1.900
G1 X22.145 Y7.800
G1 X21.100 Y7.800
G1 X21.100 Y8.845
G1 X5.500 Y8.845
G1 X5.500 Y7.800
G1 X4.455 Y7.800
G1 X4.455 Y-7.800
G1 X22.145 Y-7.800
G1 X22.145 Y0.000
G1 X21.745 Y0.000
G1 X21.745 Y7.400
G1 X20.700 Y7.400
G1 X20.700 Y8.445
G1 X5.900 Y8.445
G1 X5.900 Y7.400
G1 X4.855 Y7.400
G1 X4.855 Y-7.400
G1 X21.745 Y-7.400
G1 X21.745 Y0.000
G1 X21.345 Y0.000
G1 X21.345 Y7.000
G1 X20.300 Y7.000
G1 X20.300 Y8.045
G1 X6.300 Y8.045
G1 X6.300 Y7.000
G1 X5.255 Y7.000
G1 X5.255 Y-7.000
G1 X21.345 Y-7.000
G1 X21.345 Y0.000
G1 X20.945 Y0.000
G1 X20.945 Y6.600
G1 X19.900 Y6.600
G1 X19.900 Y7.645
G1 X6.700 Y7.645
G1 X6.700 Y6.600
G1 X5.655 Y6.600
G1 X5.655 Y-6.600
G1 X20.945 Y-6.600
G1 X20.945 Y0.000
G1 X20.545 Y0.000
G1 X20.545 Y6.200
G1 X19.500 Y6.200
G1 X19.500 Y7.245
G1 X7.100 Y7.245
G1 X7.100 Y6.200
G1 X6.055 Y6.200
G1 X6.055 Y-6.200
G1 X20.545 Y-6.200
G1 X20.545 Y0.000
G1 X20.145 Y0.000
G1 X20.145 Y5.800
G1 X19.100 Y5.800
G1 X19.100 Y6.845
G1 X7.500 Y6.845
G1 X7.500 Y5.800
G1 X6.455 Y5.800
G1 X6.455 Y-5.800
G1 X20.145 Y-5.800
G1 X20.145 Y0.000
G1 X19.745 Y0.000
G1 X19.745 Y5.400
G1 X18.700 Y5.400
G1 X18.700 Y6.445
G1 X7.900 Y6.445
G1 X7.900 Y5.400
G1 X6.855 Y5.400
G1 X6.855 Y-5.400
G1 X19.745 Y-5.400
G1 X19.745 Y0.000
G1 X19.345 Y0.000
G1 X19.345 Y5.000
G1 X18.300 Y5.000
G1 X18.300 Y6.045
G1 X8.300 Y6.045
G1 X8.300 Y5.000
G1 X7.255 Y5.000
G1 X7.255 Y-5.000
G1 X19.345 Y-5.000
G1 X19.345 Y0.000
G1 X18.945 Y0.000
G1 X18.945 Y4.600
G1 X17.900 Y4.600
G1 X17.900 Y5.645
G1 X8.700 Y5.645
G1 X8.700 Y4.600
G1 X7.655 Y4.600
G1 X7.655 Y-4.600
G1 X18.945 Y-4.600
G1 X18.945 Y0.000
G1 X18.545 Y0.000
G1 X18.545 Y4.200
G1 X17.500 Y4.200
G1 X17.500 Y5.245
G1 X9.100 Y5.245
G1 X9.100 Y4.200
G1 X8.055 Y4.200
G1 X8.055 Y-4.200
G1 X18.545 Y-4.200
G1 X18.545 Y0.000
G1 X18.145 Y0.000
G1 X18.145 Y3.800
G1 X17.100 Y3.800
G1 X17.100 Y4.845
G1 X9.500 Y4.845
G1 X9.500 Y3.800
G1 X8.455 Y3.800
G1 X8.455 Y-3.800
G1 X18.145 Y-3.800
G1 X18.145 Y0.000
G1 X17.745 Y0.000
G1 X17.745 Y3.400
G1 X16.700 Y3.400
G1 X16.700 Y4.445
G1 X9.900 Y4.445
G1 X9.900 Y3.400
G1 X8.855 Y3.400
G1 X8.855 Y-3.400
G1 X17.745 Y-3.400
G1 X17.745 Y0.000
G1 X17.345 Y0.000
G1 X17.345 Y3.000
G1 X16.300 Y3.000
G1 X16.300 Y4.045
G1 X10.300 Y4.045
G1 X10.300 Y3.000
G1 X9.255 Y3.000
G1 X9.255 Y-3.000
G1 X17.345 Y-3.000
G1 X17.345 Y0.000
G1 X16.945 Y0.000
G1 X16.945 Y2.600
G1 X15.900 Y2.600
G1 X15.900 Y3.645
G1 X10.700 Y3.645
G1 X10.700 Y2.600
G1 X9.655 Y2.600
G1 X9.655 Y-2.600
G1 X16.945 Y-2.600
G1 X16.945 Y0.000
G1 X16.545 Y0.000
G1 X16.545 Y2.200
G1 X15.500 Y2.200
G1 X15.500 Y3.245
G1 X11.100 Y3.245
G1 X11.100 Y2.200
G1 X10.055 Y2.200
G1 X10.055 Y-2.200
G1 X16.545 Y-2.200
G1 X16.545 Y0.000
G1 X16.145 Y0.000
G1 X16.145 Y1.800
G1 X15.100 Y1.800
G1 X15.100 Y2.845
G1 X11.500 Y2.845
G1 X11.500 Y1.800
G1 X10.455 Y1.800
G1 X10.455 Y-1.800
G1 X16.145 Y-1.800
G1 X16.145 Y0.000
G1 X15.745 Y0.000
G1 X15.745 Y1.400
G1 X14.700 Y1.400
G1 X14.700 Y2.445
G1 X11.900 Y2.445
G1 X11.900 Y1.400
G1 X10.855 Y1.400
G1 X10.855 Y-1.400
G1 X15.745 Y-1.400
G1 X15.745 Y0.000
G1 X15.345 Y0.000
G1 X15.345 Y1.000
G1 X14.300 Y1.000
G1 X14.300 Y2.045
G1 X12.300 Y2.045
G1 X12.300 Y1.000
G1 X11.255 Y1.000
G1 X11.255 Y-1.000
G1 X15.345 Y-1.000
G1 X15.345 Y0.000
G1 X14.945 Y0.000
G1 X14.945 Y0.600
G1 X13.900 Y0.600
G1 X13.900 Y1.645
G1 X12.700 Y1.645
G1 X12.700 Y0.600
G1 X11.655 Y0.600
G1 X11.655 Y-0.600
G1 X14.945 Y-0.600
G1 X14.945 Y0.000
G1 X14.545 Y0.000

;Finish
M9
G1 Z10.000
G28 X-100 Y-100;Home