;layer_height = 0.4
;line_width = 0.4
;layer_count = 10
;mesh = top_cross
G21 ;start of the code
G1 Z15 F300
G28 X0 Y0 ;Home
G92 X0 Y0 ;Consider this as current
G0 X50 Y50 F3000 ;Go-to Offset
G92 X0 Y0 ;Reset

G0 F3600 X-23.800 Y0.000 Z0.300 ;Go to start position
M7
G4 P150


G1 X-23.600 Y0.000 Z0.300
G1 X-23.600 Y-4.800
G1 X-4.800 Y-4.800
G1 X-4.800 Y-23.600
G1 X4.800 Y-23.600
G1 X4.800 Y-4.800
G1 X42.400 Y-4.800
G1 X42.400 Y4.800
G1 X23.600 Y4.800
G1 X23.600 Y23.600
G1 X14.000 Y23.600
G1 X14.000 Y4.800
G1 X-23.600 Y4.800
G1 X-23.600 Y0.000
G1 X-23.200 Y0.000
G1 X-23.200 Y-4.400
G1 X-4.400 Y-4.400
G1 X-4.400 Y-23.200
G1 X4.400 Y-23.200
G1 X4.400 Y-4.400
G1 X42.000 Y-4.400
G1 X42.000 Y4.400
G1 X23.200 Y4.400
G1 X23.200 Y23.200
G1 X14.400 Y23.200
G1 X14.400 Y4.400
G1 X-23.200 Y4.400
G1 X-23.200 Y-0.000
G1 X-22.800 Y0.000
G1 X-22.800 Y-4.000
G1 X-4.000 Y-4.000
G1 X-4.000 Y-22.800
G1 X4.000 Y-22.800
G1 X4.000 Y-4.000
G1 X41.600 Y-4.000
G1 X41.600 Y4.000
G1 X22.800 Y4.000
G1 X22.800 Y22.800
G1 X14.800 Y22.800
G1 X14.800 Y4.000
G1 X-22.800 Y4.000
G1 X-22.800 Y0.000
G1 X-22.400 Y0.000
G1 X-22.400 Y-3.600
G1 X-3.600 Y-3.600
G1 X-3.600 Y-22.400
G1 X3.600 Y-22.400
G1 X3.600 Y-3.600
G1 X41.200 Y-3.600
G1 X41.200 Y3.600
G1 X22.400 Y3.600
G1 X22.400 Y22.400
G1 X15.200 Y22.400
G1 X15.200 Y3.600
G1 X-22.400 Y3.600
G1 X-22.400 Y-0.000
G1 X-22.000 Y0.000
G1 X-22.000 Y-3.200
G1 X-3.200 Y-3.200
G1 X-3.200 Y-22.000
G1 X3.200 Y-22.000
G1 X3.200 Y-3.200
G1 X40.800 Y-3.200
G1 X40.800 Y3.200
G1 X22.000 Y3.200
G1 X22.000 Y22.000
G1 X15.600 Y22.000
G1 X15.600 Y3.200
G1 X-22.000 Y3.200
G1 X-22.000 Y-0.000
G1 X-21.600 Y0.000
G1 X-21.600 Y-2.800
G1 X-2.800 Y-2.800
G1 X-2.800 Y-21.600
G1 X2.800 Y-21.600
G1 X2.800 Y-2.800
G1 X40.400 Y-2.800
G1 X40.400 Y2.800
G1 X21.600 Y2.800
G1 X21.600 Y21.600
G1 X16.000 Y21.600
G1 X16.000 Y2.800
G1 X-21.600 Y2.800
G1 X-21.600 Y0.000
G1 X-21.200 Y0.000
G1 X-21.200 Y-2.400
G1 X-2.400 Y-2.400
G1 X-2.400 Y-21.200
G1 X2.400 Y-21.200
G1 X2.400 Y-2.400
G1 X40.000 Y-2.400
G1 X40.000 Y2.400
G1 X21.200 Y2.400
G1 X21.200 Y21.200
G1 X16.400 Y21.200
G1 X16.400 Y2.400
G1 X-21.200 Y2.400
G1 X-21.200 Y0.000
G1 X-20.800 Y0.000
G1 X-20.800 Y-2.000
G1 X-2.000 Y-2.000
G1 X-2.000 Y-20.800
G1 X2.000 Y-20.800
G1 X2.000 Y-2.000
G1 X39.600 Y-2.000
G1 X39.600 Y2.000
G1 X20.800 Y2.000
G1 X20.800 Y20.800
G1 X16.800 Y20.800
G1 X16.800 Y2.000
G1 X-20.800 Y2.000
G1 X-20.800 Y0.000
G1 X-20.400 Y0.000
G1 X-20.400 Y-1.600
G1 X-1.600 Y-1.600
G1 X-1.600 Y-20.400
G1 X1.600 Y-20.400
G1 X1.600 Y-1.600
G1 X39.200 Y-1.600
G1 X39.200 Y1.600
G1 X20.400 Y1.600
G1 X20.400 Y20.400
G1 X17.200 Y20.400
G1 X17.200 Y1.600
G1 X-20.400 Y1.600
G1 X-20.400 Y-0.000
G1 X-20.000 Y0.000
G1 X-20.000 Y-1.200
G1 X-1.200 Y-1.200
G1 X-1.200 Y-20.000
G1 X1.200 Y-20.000
G1 X1.200 Y-1.200
G1 X38.800 Y-1.200
G1 X38.800 Y1.200
G1 X20.000 Y1.200
G1 X20.000 Y20.000
G1 X17.600 Y20.000
G1 X17.600 Y1.200
G1 X-20.000 Y1.200
G1 X-20.000 Y-0.000
G1 X-19.600 Y0.000
G1 X-19.600 Y-0.800
G1 X-0.800 Y-0.800
G1 X-0.800 Y-19.600
G1 X0.800 Y-19.600
G1 X0.800 Y-0.800
G1 X38.400 Y-0.800
G1 X38.400 Y0.800
G1 X19.600 Y0.800
G1 X19.600 Y19.600
G1 X18.000 Y19.600
G1 X18.000 Y0.800
G1 X-19.600 Y0.800
G1 X-19.600 Y0.000
G1 X-19.200 Y0.000
G1 X-19.200 Y-0.400
G1 X-0.400 Y-0.400
G1 X-0.400 Y-19.200
G1 X0.400 Y-19.200
G1 X0.400 Y-0.400
G1 X38.000 Y-0.400
G1 X38.000 Y0.400
G1 X19.200 Y0.400
G1 X19.200 Y19.200
G1 X18.400 Y19.200
G1 X18.400 Y0.400
G1 X-19.200 Y0.400
G1 X-19.200 Y0.000
G1 X-18.800 Y0.000
G1 X-18.800 Y-0.000
G1 X0.000 Y-0.000
G1 X0.000 Y-18.800
G1 X0.000 Y-18.800
G1 X0.000 Y0.000
G1 X37.600 Y0.000
G1 X37.600 Y0.000
G1 X18.800 Y0.000
G1 X18.800 Y18.800
G1 X18.800 Y18.800
G1 X18.800 Y0.000
G1 X-18.800 Y0.000
G1 X-18.800 Y-0.000
G1 X-18.400 Y0.000
G1 X-18.400 Y0.000 Z0.700
G1 X-18.400 Y0.000
G1 X-18.800 Y-0.000
G1 X-18.800 Y0.000
G1 X18.800 Y0.000
G1 X18.800 Y18.800
G1 X18.800 Y18.800
G1 X18.800 Y0.000
G1 X37.600 Y0.000
G1 X37.600 Y0.000
G1 X0.000 Y0.000
G1 X0.000 Y-18.800
G1 X0.000 Y-18.800
G1 X0.000 Y-0.000
G1 X-18.800 Y-0.000
G1 X-18.800 Y0.000
G1 X-19.200 Y0.000
G1 X-19.200 Y0.400
G1 X18.400 Y0.400
G1 X18.400 Y19.200
G1 X19.200 Y19.200
G1 X19.200 Y0.400
G1 X38.000 Y0.400
G1 X38.000 Y-0.400
G1 X0.400 Y-0.400
G1 X0.400 Y-19.200
G1 X-0.400 Y-19.200
G1 X-0.400 Y-0.400
G1 X-19.200 Y-0.400
G1 X-19.200 Y0.000
G1 X-19.600 Y0.000
G1 X-19.600 Y0.800
G1 X18.000 Y0.800
G1 X18.000 Y19.600
G1 X19.600 Y19.600
G1 X19.600 Y0.800
G1 X38.400 Y0.800
G1 X38.400 Y-0.800
G1 X0.800 Y-0.800
G1 X0.800 Y-19.600
G1 X-0.800 Y-19.600
G1 X-0.800 Y-0.800
G1 X-19.600 Y-0.800
G1 X-19.600 Y0.000
G1 X-20.000 Y-0.000
G1 X-20.000 Y1.200
G1 X17.600 Y1.200
G1 X17.600 Y20.000
G1 X20.000 Y20.000
G1 X20.000 Y1.200
G1 X38.800 Y1.200
G1 X38.800 Y-1.200
G1 X1.200 Y-1.200
G1 X1.200 Y-20.000
G1 X-1.200 Y-20.000
G1 X-1.200 Y-1.200
G1 X-20.000 Y-1.200
G1 X-20.000 Y0.000
G1 X-20.400 Y-0.000
G1 X-20.400 Y1.600
G1 X17.200 Y1.600
G1 X17.200 Y20.400
G1 X20.400 Y20.400
G1 X20.400 Y1.600
G1 X39.200 Y1.600
G1 X39.200 Y-1.600
G1 X1.600 Y-1.600
G1 X1.600 Y-20.400
G1 X-1.600 Y-20.400
G1 X-1.600 Y-1.600
G1 X-20.400 Y-1.600
G1 X-20.400 Y0.000
G1 X-20.800 Y0.000
G1 X-20.800 Y2.000
G1 X16.800 Y2.000
G1 X16.800 Y20.800
G1 X20.800 Y20.800
G1 X20.800 Y2.000
G1 X39.600 Y2.000
G1 X39.600 Y-2.000
G1 X2.000 Y-2.000
G1 X2.000 Y-20.800
G1 X-2.000 Y-20.800
G1 X-2.000 Y-2.000
G1 X-20.800 Y-2.000
G1 X-20.800 Y0.000
G1 X-21.200 Y0.000
G1 X-21.200 Y2.400
G1 X16.400 Y2.400
G1 X16.400 Y21.200
G1 X21.200 Y21.200
G1 X21.200 Y2.400
G1 X40.000 Y2.400
G1 X40.000 Y-2.400
G1 X2.400 Y-2.400
G1 X2.400 Y-21.200
G1 X-2.400 Y-21.200
G1 X-2.400 Y-2.400
G1 X-21.200 Y-2.400
G1 X-21.200 Y0.000
G1 X-21.600 Y0.000
G1 X-21.600 Y2.800
G1 X16.000 Y2.800
G1 X16.000 Y21.600
G1 X21.600 Y21.600
G1 X21.600 Y2.800
G1 X40.400 Y2.800
G1 X40.400 Y-2.800
G1 X2.800 Y-2.800
G1 X2.800 Y-21.600
G1 X-2.800 Y-21.600
G1 X-2.800 Y-2.800
G1 X-21.600 Y-2.800
G1 X-21.600 Y0.000
G1 X-22.000 Y-0.000
G1 X-22.000 Y3.200
G1 X15.600 Y3.200
G1 X15.600 Y22.000
G1 X22.000 Y22.000
G1 X22.000 Y3.200
G1 X40.800 Y3.200
G1 X40.800 Y-3.200
G1 X3.200 Y-3.200
G1 X3.200 Y-22.000
G1 X-3.200 Y-22.000
G1 X-3.200 Y-3.200
G1 X-22.000 Y-3.200
G1 X-22.000 Y0.000
G1 X-22.400 Y-0.000
G1 X-22.400 Y3.600
G1 X15.200 Y3.600
G1 X15.200 Y22.400
G1 X22.400 Y22.400
G1 X22.400 Y3.600
G1 X41.200 Y3.600
G1 X41.200 Y-3.600
G1 X3.600 Y-3.600
G1 X3.600 Y-22.400
G1 X-3.600 Y-22.400
G1 X-3.600 Y-3.600
G1 X-22.400 Y-3.600
G1 X-22.400 Y0.000
G1 X-22.800 Y0.000
G1 X-22.800 Y4.000
G1 X14.800 Y4.000
G1 X14.800 Y22.800
G1 X22.800 Y22.800
G1 X22.800 Y4.000
G1 X41.600 Y4.000
G1 X41.600 Y-4.000
G1 X4.000 Y-4.000
G1 X4.000 Y-22.800
G1 X-4.000 Y-22.800
G1 X-4.000 Y-4.000
G1 X-22.800 Y-4.000
G1 X-22.800 Y0.000
G1 X-23.200 Y-0.000
G1 X-23.200 Y4.400
G1 X14.400 Y4.400
G1 X14.400 Y23.200
G1 X23.200 Y23.200
G1 X23.200 Y4.400
G1 X42.000 Y4.400
G1 X42.000 Y-4.400
G1 X4.400 Y-4.400
G1 X4.400 Y-23.200
G1 X-4.400 Y-23.200
G1 X-4.400 Y-4.400
G1 X-23.200 Y-4.400
G1 X-23.200 Y0.000
G1 X-23.600 Y0.000
G1 X-23.600 Y4.800
G1 X14.000 Y4.800
G1 X14.000 Y23.600
G1 X23.600 Y23.600
G1 X23.600 Y4.800
G1 X42.400 Y4.800
G1 X42.400 Y-4.800
G1 X4.800 Y-4.800
G1 X4.800 Y-23.600
G1 X-4.800 Y-23.600
G1 X-4.800 Y-4.800
G1 X-23.600 Y-4.800
G1 X-23.600 Y0.000 Z0.700
M9
G1 Z10.000
G1 X-9.000 Y0.000
G1 Z1.100
M7
G4 P150
G1 X-4.805 Y0.000 Z1.100
G1 X-4.805 Y-4.805
G1 X4.805 Y-4.805
G1 X4.805 Y4.600
G1 X-4.805 Y4.600
G1 X-4.805 Y-0.000
G1 X-4.405 Y0.000
G1 X-4.405 Y-4.405
G1 X4.405 Y-4.405
G1 X4.405 Y4.200
G1 X-4.405 Y4.200
G1 X-4.405 Y-0.000
G1 X-4.005 Y0.000
G1 X-4.005 Y-4.005
G1 X4.005 Y-4.005
G1 X4.005 Y3.800
G1 X-4.005 Y3.800
G1 X-4.005 Y0.000
G1 X-3.605 Y0.000
G1 X-3.605 Y-3.605
G1 X3.605 Y-3.605
G1 X3.605 Y3.400
G1 X-3.605 Y3.400
G1 X-3.605 Y-0.000
G1 X-3.205 Y0.000
G1 X-3.205 Y-3.205
G1 X3.205 Y-3.205
G1 X3.205 Y3.000
G1 X-3.205 Y3.000
G1 X-3.205 Y0.000
G1 X-2.805 Y0.000
G1 X-2.805 Y-2.805
G1 X2.805 Y-2.805
G1 X2.805 Y2.600
G1 X-2.805 Y2.600
G1 X-2.805 Y-0.000
G1 X-2.405 Y0.000
G1 X-2.405 Y-2.405
G1 X2.405 Y-2.405
G1 X2.405 Y2.200
G1 X-2.405 Y2.200
G1 X-2.405 Y0.000
G1 X-2.005 Y0.000
G1 X-2.005 Y-2.005
G1 X2.005 Y-2.005
G1 X2.005 Y1.800
G1 X-2.005 Y1.800
G1 X-2.005 Y0.000
G1 X-1.605 Y0.000
G1 X-1.605 Y-1.605
G1 X1.605 Y-1.605
G1 X1.605 Y1.400
G1 X-1.605 Y1.400
G1 X-1.605 Y0.000
G1 X-1.205 Y0.000
G1 X-1.205 Y-1.205
G1 X1.205 Y-1.205
G1 X1.205 Y1.000
G1 X-1.205 Y1.000
G1 X-1.205 Y0.000
G1 X-0.805 Y0.000
G1 X-0.805 Y-0.805
G1 X0.805 Y-0.805
G1 X0.805 Y0.600
G1 X-0.805 Y0.600
G1 X-0.805 Y0.000
G1 X-0.405 Y0.000
G1 X-0.405 Y-0.405
G1 X0.405 Y-0.405
G1 X0.405 Y0.200
G1 X-0.405 Y0.200
G1 X-0.405 Y0.000
G1 X-0.005 Y0.000
G1 X0.395 Y0.000 Z1.500
G1 X0.395 Y0.000
G1 X-0.005 Y0.000
G1 X-0.005 Y0.200
G1 X0.005 Y0.200
G1 X0.005 Y-0.005
G1 X-0.005 Y-0.005
G1 X-0.005 Y0.000
G1 X-0.405 Y0.000
G1 X-0.405 Y0.600
G1 X0.405 Y0.600
G1 X0.405 Y-0.405
G1 X-0.405 Y-0.405
G1 X-0.405 Y0.000
G1 X-0.805 Y0.000
G1 X-0.805 Y1.000
G1 X0.805 Y1.000
G1 X0.805 Y-0.805
G1 X-0.805 Y-0.805
G1 X-0.805 Y0.000
G1 X-1.205 Y0.000
G1 X-1.205 Y1.400
G1 X1.205 Y1.400
G1 X1.205 Y-1.205
G1 X-1.205 Y-1.205
G1 X-1.205 Y0.000
G1 X-1.605 Y0.000
G1 X-1.605 Y1.800
G1 X1.605 Y1.800
G1 X1.605 Y-1.605
G1 X-1.605 Y-1.605
G1 X-1.605 Y0.000
G1 X-2.005 Y0.000
G1 X-2.005 Y2.200
G1 X2.005 Y2.200
G1 X2.005 Y-2.005
G1 X-2.005 Y-2.005
G1 X-2.005 Y0.000
G1 X-2.405 Y0.000
G1 X-2.405 Y2.600
G1 X2.405 Y2.600
G1 X2.405 Y-2.405
G1 X-2.405 Y-2.405
G1 X-2.405 Y0.000
G1 X-2.805 Y0.000
G1 X-2.805 Y3.000
G1 X2.805 Y3.000
G1 X2.805 Y-2.805
G1 X-2.805 Y-2.805
G1 X-2.805 Y0.000
G1 X-3.205 Y0.000
G1 X-3.205 Y3.400
G1 X3.205 Y3.400
G1 X3.205 Y-3.205
G1 X-3.205 Y-3.205
G1 X-3.205 Y0.000
G1 X-3.605 Y0.000
G1 X-3.605 Y3.800
G1 X3.605 Y3.800
G1 X3.605 Y-3.605
G1 X-3.605 Y-3.605
G1 X-3.605 Y0.000
G1 X-4.005 Y0.000
G1 X-4.005 Y4.200
G1 X4.005 Y4.200
G1 X4.005 Y-4.005
G1 X-4.005 Y-4.005
G1 X-4.005 Y0.000
G1 X-4.405 Y0.000
G1 X-4.405 Y4.600
G1 X4.405 Y4.600
G1 X4.405 Y-4.405
G1 X-4.405 Y-4.405
G1 X-4.405 Y0.000
G1 X-4.805 Y0.000
G1 X-4.805 Y5.000
G1 X4.805 Y5.000
G1 X4.805 Y-4.805
G1 X-4.805 Y-4.805
G1 X-4.805 Y0.000 Z1.500
G1 X-4.845 Y0.000 Z1.900
G1 X-4.845 Y-4.845
G1 X4.845 Y-4.845
G1 X4.845 Y5.400
G1 X-4.845 Y5.400
G1 X-4.845 Y0.000
G1 X-4.445 Y0.000
G1 X-4.445 Y-4.445
G1 X4.445 Y-4.445
G1 X4.445 Y5.000
G1 X-4.445 Y5.000
G1 X-4.445 Y0.000
G1 X-4.045 Y0.000
G1 X-4.045 Y-4.045
G1 X4.045 Y-4.045
G1 X4.045 Y4.600
G1 X-4.045 Y4.600
G1 X-4.045 Y0.000
G1 X-3.645 Y0.000
G1 X-3.645 Y-3.645
G1 X3.645 Y-3.645
G1 X3.645 Y4.200
G1 X-3.645 Y4.200
G1 X-3.645 Y-0.000
G1 X-3.245 Y0.000
G1 X-3.245 Y-3.245
G1 X3.245 Y-3.245
G1 X3.245 Y3.800
G1 X-3.245 Y3.800
G1 X-3.245 Y0.000
G1 X-2.845 Y0.000
G1 X-2.845 Y-2.845
G1 X2.845 Y-2.845
G1 X2.845 Y3.400
G1 X-2.845 Y3.400
G1 X-2.845 Y-0.000
G1 X-2.445 Y0.000
G1 X-2.445 Y-2.445
G1 X2.445 Y-2.445
G1 X2.445 Y3.000
G1 X-2.445 Y3.000
G1 X-2.445 Y0.000
G1 X-2.045 Y0.000
G1 X-2.045 Y-2.045
G1 X2.045 Y-2.045
G1 X2.045 Y2.600
G1 X-2.045 Y2.600
G1 X-2.045 Y-0.000
G1 X-1.645 Y0.000
G1 X-1.645 Y-1.645
G1 X1.645 Y-1.645
G1 X1.645 Y2.200
G1 X-1.645 Y2.200
G1 X-1.645 Y0.000
G1 X-1.245 Y0.000
G1 X-1.245 Y-1.245
G1 X1.245 Y-1.245
G1 X1.245 Y1.800
G1 X-1.245 Y1.800
G1 X-1.245 Y0.000
G1 X-0.845 Y0.000
G1 X-0.845 Y-0.845
G1 X0.845 Y-0.845
G1 X0.845 Y1.400
G1 X-0.845 Y1.400
G1 X-0.845 Y0.000
G1 X-0.445 Y0.000
G1 X-0.445 Y-0.445
G1 X0.445 Y-0.445
G1 X0.445 Y1.000
G1 X-0.445 Y1.000
G1 X-0.445 Y0.000
G1 X-0.045 Y0.000
G1 X-0.045 Y-0.045
G1 X0.045 Y-0.045
G1 X0.045 Y0.600
G1 X-0.045 Y0.600
G1 X-0.045 Y0.000
G1 X0.355 Y0.000
M9
G1 Z10.000
G1 X13.800 Y0.000
G1 Z1.100
M7
G4 P150
G1 X13.995 Y0.000 Z1.100
G1 X13.995 Y-4.600
G1 X23.605 Y-4.600
G1 X23.605 Y4.805
G1 X13.995 Y4.805
G1 X13.995 Y-0.000
G1 X14.395 Y0.000
G1 X14.395 Y-4.200
G1 X23.205 Y-4.200
G1 X23.205 Y4.405
G1 X14.395 Y4.405
G1 X14.395 Y-0.000
G1 X14.795 Y0.000
G1 X14.795 Y-3.800
G1 X22.805 Y-3.800
G1 X22.805 Y4.005
G1 X14.795 Y4.005
G1 X14.795 Y0.000
G1 X15.195 Y0.000
G1 X15.195 Y-3.400
G1 X22.405 Y-3.400
G1 X22.405 Y3.605
G1 X15.195 Y3.605
G1 X15.195 Y-0.000
G1 X15.595 Y0.000
G1 X15.595 Y-3.000
G1 X22.005 Y-3.000
G1 X22.005 Y3.205
G1 X15.595 Y3.205
G1 X15.595 Y0.000
G1 X15.995 Y0.000
G1 X15.995 Y-2.600
G1 X21.605 Y-2.600
G1 X21.605 Y2.805
G1 X15.995 Y2.805
G1 X15.995 Y-0.000
G1 X16.395 Y0.000
G1 X16.395 Y-2.200
G1 X21.205 Y-2.200
G1 X21.205 Y2.405
G1 X16.395 Y2.405
G1 X16.395 Y0.000
G1 X16.795 Y0.000
G1 X16.795 Y-1.800
G1 X20.805 Y-1.800
G1 X20.805 Y2.005
G1 X16.795 Y2.005
G1 X16.795 Y0.000
G1 X17.195 Y0.000
G1 X17.195 Y-1.400
G1 X20.405 Y-1.400
G1 X20.405 Y1.605
G1 X17.195 Y1.605
G1 X17.195 Y0.000
G1 X17.595 Y0.000
G1 X17.595 Y-1.000
G1 X20.005 Y-1.000
G1 X20.005 Y1.205
G1 X17.595 Y1.205
G1 X17.595 Y0.000
G1 X17.995 Y0.000
G1 X17.995 Y-0.600
G1 X19.605 Y-0.600
G1 X19.605 Y0.805
G1 X17.995 Y0.805
G1 X17.995 Y0.000
G1 X18.395 Y0.000
G1 X18.395 Y-0.200
G1 X19.205 Y-0.200
G1 X19.205 Y0.405
G1 X18.395 Y0.405
G1 X18.395 Y0.000
G1 X18.795 Y0.000
G1 X19.195 Y0.000 Z1.500
G1 X19.195 Y0.000
G1 X18.795 Y0.000
G1 X18.795 Y0.005
G1 X18.805 Y0.005
G1 X18.805 Y-0.200
G1 X18.795 Y-0.200
G1 X18.795 Y0.000
G1 X18.395 Y0.000
G1 X18.395 Y0.405
G1 X19.205 Y0.405
G1 X19.205 Y-0.600
G1 X18.395 Y-0.600
G1 X18.395 Y0.000
G1 X17.995 Y0.000
G1 X17.995 Y0.805
G1 X19.605 Y0.805
G1 X19.605 Y-1.000
G1 X17.995 Y-1.000
G1 X17.995 Y0.000
G1 X17.595 Y0.000
G1 X17.595 Y1.205
G1 X20.005 Y1.205
G1 X20.005 Y-1.400
G1 X17.595 Y-1.400
G1 X17.595 Y0.000
G1 X17.195 Y0.000
G1 X17.195 Y1.605
G1 X20.405 Y1.605
G1 X20.405 Y-1.800
G1 X17.195 Y-1.800
G1 X17.195 Y0.000
G1 X16.795 Y0.000
G1 X16.795 Y2.005
G1 X20.805 Y2.005
G1 X20.805 Y-2.200
G1 X16.795 Y-2.200
G1 X16.795 Y0.000
G1 X16.395 Y0.000
G1 X16.395 Y2.405
G1 X21.205 Y2.405
G1 X21.205 Y-2.600
G1 X16.395 Y-2.600
G1 X16.395 Y0.000
G1 X15.995 Y0.000
G1 X15.995 Y2.805
G1 X21.605 Y2.805
G1 X21.605 Y-3.000
G1 X15.995 Y-3.000
G1 X15.995 Y0.000
G1 X15.595 Y0.000
G1 X15.595 Y3.205
G1 X22.005 Y3.205
G1 X22.005 Y-3.400
G1 X15.595 Y-3.400
G1 X15.595 Y0.000
G1 X15.195 Y0.000
G1 X15.195 Y3.605
G1 X22.405 Y3.605
G1 X22.405 Y-3.800
G1 X15.195 Y-3.800
G1 X15.195 Y0.000
G1 X14.795 Y0.000
G1 X14.795 Y4.005
G1 X22.805 Y4.005
G1 X22.805 Y-4.200
G1 X14.795 Y-4.200
G1 X14.795 Y0.000
G1 X14.395 Y0.000
G1 X14.395 Y4.405
G1 X23.205 Y4.405
G1 X23.205 Y-4.600
G1 X14.395 Y-4.600
G1 X14.395 Y0.000
G1 X13.995 Y0.000
G1 X13.995 Y4.805
G1 X23.605 Y4.805
G1 X23.605 Y-5.000
G1 X13.995 Y-5.000
G1 X13.995 Y0.000 Z1.500
G1 X13.955 Y0.000 Z1.900
G1 X13.955 Y-5.400
G1 X23.645 Y-5.400
G1 X23.645 Y4.845
G1 X13.955 Y4.845
G1 X13.955 Y0.000
G1 X14.355 Y0.000
G1 X14.355 Y-5.000
G1 X23.245 Y-5.000
G1 X23.245 Y4.445
G1 X14.355 Y4.445
G1 X14.355 Y0.000
G1 X14.755 Y0.000
G1 X14.755 Y-4.600
G1 X22.845 Y-4.600
G1 X22.845 Y4.045
G1 X14.755 Y4.045
G1 X14.755 Y0.000
G1 X15.155 Y0.000
G1 X15.155 Y-4.200
G1 X22.445 Y-4.200
G1 X22.445 Y3.645
G1 X15.155 Y3.645
G1 X15.155 Y-0.000
G1 X15.555 Y0.000
G1 X15.555 Y-3.800
G1 X22.045 Y-3.800
G1 X22.045 Y3.245
G1 X15.555 Y3.245
G1 X15.555 Y0.000
G1 X15.955 Y0.000
G1 X15.955 Y-3.400
G1 X21.645 Y-3.400
G1 X21.645 Y2.845
G1 X15.955 Y2.845
G1 X15.955 Y-0.000
G1 X16.355 Y0.000
G1 X16.355 Y-3.000
G1 X21.245 Y-3.000
G1 X21.245 Y2.445
G1 X16.355 Y2.445
G1 X16.355 Y0.000
G1 X16.755 Y0.000
G1 X16.755 Y-2.600
G1 X20.845 Y-2.600
G1 X20.845 Y2.045
G1 X16.755 Y2.045
G1 X16.755 Y-0.000
G1 X17.155 Y0.000
G1 X17.155 Y-2.200
G1 X20.445 Y-2.200
G1 X20.445 Y1.645
G1 X17.155 Y1.645
G1 X17.155 Y0.000
G1 X17.555 Y0.000
G1 X17.555 Y-1.800
G1 X20.045 Y-1.800
G1 X20.045 Y1.245
G1 X17.555 Y1.245
G1 X17.555 Y0.000
G1 X17.955 Y0.000
G1 X17.955 Y-1.400
G1 X19.645 Y-1.400
G1 X19.645 Y0.845
G1 X17.955 Y0.845
G1 X17.955 Y0.000
G1 X18.355 Y0.000
G1 X18.355 Y-1.000
G1 X19.245 Y-1.000
G1 X19.245 Y0.445
G1 X18.355 Y0.445
G1 X18.355 Y0.000
G1 X18.755 Y0.000
G1 X18.755 Y-0.600
G1 X18.845 Y-0.600
G1 X18.845 Y0.045
G1 X18.755 Y0.045
G1 X18.755 Y0.000
G1 X19.155 Y0.000

;Finish
M9
G1 Z10.000
G28 X-100 Y-100;Home