;layer_height = 0.4
;line_width = 0.4
;layer_count = 2
;mesh = side_joint_long
G21 ;start of the code
G1 Z15 F300
G28 X0 Y0 ;Home
G92 X0 Y0 ;Consider this as current
G0 X50 Y50 F3000 ;Go-to Offset
G92 X0 Y0 ;Reset

G0 F3600 X-18.000 Y-5.000 Z0.300 ;Go to start position
M7
G4 P150


G1 X-17.800 Y-4.800 Z0.300
G1 X53.400 Y-4.800
G1 X65.267 Y28.764
G1 X64.984 Y29.164
G1 X53.117 Y-4.400
G1 X-18.083 Y-4.400
G1 X-18.366 Y-4.000
G1 X52.834 Y-4.000
G1 X64.701 Y29.564
G1 X64.418 Y29.964
G1 X52.551 Y-3.600
G1 X-18.649 Y-3.600
G1 X-18.931 Y-3.200
G1 X52.269 Y-3.200
G1 X64.135 Y30.364
G1 X63.852 Y30.764
G1 X51.986 Y-2.800
G1 X-19.214 Y-2.800
G1 X-19.497 Y-2.400
G1 X51.703 Y-2.400
G1 X63.570 Y31.164
G1 X63.287 Y31.564
G1 X51.420 Y-2.000
G1 X-19.780 Y-2.000
G1 X-20.063 Y-1.600
G1 X51.137 Y-1.600
G1 X63.004 Y31.964
G1 X62.721 Y32.364
G1 X50.854 Y-1.200
G1 X-20.346 Y-1.200
G1 X-20.628 Y-0.800
G1 X50.572 Y-0.800
G1 X62.438 Y32.764
G1 X62.155 Y33.164
G1 X50.289 Y-0.400
G1 X-20.911 Y-0.400
G1 X-21.194 Y-0.000
G1 X50.006 Y-0.000
G1 X61.873 Y33.564
G1 X61.590 Y33.964
G1 X49.723 Y0.400
G1 X-21.477 Y0.400
G1 X-21.760 Y0.800
G1 X49.440 Y0.800
G1 X61.307 Y34.364
G1 X61.024 Y34.764
G1 X49.157 Y1.200
G1 X-22.043 Y1.200
G1 X-22.325 Y1.600
G1 X48.875 Y1.600
G1 X60.741 Y35.164
G1 X60.458 Y35.564
G1 X48.592 Y2.000
G1 X-22.608 Y2.000
G1 X-22.891 Y2.400
G1 X48.309 Y2.400
G1 X60.175 Y35.964
G1 X59.893 Y36.364
G1 X48.026 Y2.800
G1 X-23.174 Y2.800
G1 X-23.457 Y3.200
G1 X47.743 Y3.200
G1 X59.610 Y36.764
G1 X59.327 Y37.164
G1 X47.460 Y3.600
G1 X-23.740 Y3.600
G1 X-24.023 Y4.000
G1 X47.177 Y4.000
G1 X59.044 Y37.564
G1 X58.761 Y37.964
G1 X46.895 Y4.400
G1 X-24.305 Y4.400
G1 X-24.588 Y4.800
G1 X46.612 Y4.800
G1 X58.478 Y38.364
G1 X58.196 Y38.764

;Finish
M9
G1 Z10.000
G28 X-100 Y-100;Home