;layer_height = 0.4
;line_width = 0.4
;layer_count = 1
;mesh = film
G21 ;start of the code
G1 Z15 F300
G28 X0 Y0 ;Home
G92 X0 Y0 ;Consider this as current
G0 X50 Y50 F3000 ;Go-to Offset
G92 X0 Y0 ;Reset

G0 F3600 X-6.395 Y-3.300 Z0.300 ;Go to start position
M7
G4 P150


G1 X6.195 Y-3.300
G1 X6.195 Y-2.900
G1 X-6.195 Y-2.900
G1 X-6.195 Y-2.500
G1 X6.195 Y-2.500
G1 X6.195 Y-2.100
G1 X-6.195 Y-2.100
G1 X-6.195 Y-1.700
G1 X6.195 Y-1.700
G1 X6.195 Y-1.300
G1 X-6.195 Y-1.300
G1 X-6.195 Y-0.900
G1 X6.195 Y-0.900
G1 X6.195 Y-0.500
G1 X-6.195 Y-0.500
G1 X-6.195 Y-0.100
G1 X6.195 Y-0.100
G1 X6.195 Y0.300
G1 X-6.195 Y0.300
G1 X-6.195 Y0.700
G1 X6.195 Y0.700
G1 X6.195 Y1.100
G1 X-6.195 Y1.100
G1 X-6.195 Y1.500
G1 X6.195 Y1.500
G1 X6.195 Y1.900
G1 X-6.195 Y1.900
G1 X-6.195 Y2.300
G1 X6.195 Y2.300
G1 X6.195 Y2.700
G1 X-6.195 Y2.700
G1 X-6.195 Y3.100
G1 X6.195 Y3.100
G1 X6.195 Y3.500
G1 X-6.195 Y3.500

;Finish
M9
G1 Z10.000
G28 X-100 Y-100;Home