;layer_height = 0.4
;line_width = 0.4
;layer_count = 8
;mesh = single_90_withwall
G21 ;start of the code
G1 Z15 F300
G28 X0 Y0 ;Home
G92 X0 Y0 ;Consider this as current
G0 X50 Y50 F3000 ;Go-to Offset
G92 X0 Y0 ;Reset

G0 F3600 X-15.000 Y10.000 Z0.300 ;Go to start position
M7
G4 P150


G1 X-14.800 Y9.800 Z0.300
G1 X-14.800 Y9.800
G1 X-14.800 Y-9.800
G1 X-0.500 Y-9.800
G1 X-0.500 Y9.800
G1 X-14.800 Y9.800
G1 X-14.400 Y9.400
G1 X-14.400 Y-9.400
G1 X-0.900 Y-9.400
G1 X-0.900 Y9.400
G1 X-14.400 Y9.400
G1 X-14.000 Y9.000
G1 X-14.000 Y-9.000
G1 X-1.300 Y-9.000
G1 X-1.300 Y9.000
G1 X-14.000 Y9.000
G1 X-13.600 Y8.600
G1 X-13.600 Y-8.600
G1 X-1.700 Y-8.600
G1 X-1.700 Y8.600
G1 X-13.600 Y8.600
G1 X-13.200 Y8.200
G1 X-13.200 Y-8.200
G1 X-2.100 Y-8.200
G1 X-2.100 Y8.200
G1 X-13.200 Y8.200
G1 X-12.800 Y7.800
G1 X-12.800 Y-7.800
G1 X-2.500 Y-7.800
G1 X-2.500 Y7.800
G1 X-12.800 Y7.800
G1 X-12.400 Y7.400
G1 X-12.400 Y-7.400
G1 X-2.900 Y-7.400
G1 X-2.900 Y7.400
G1 X-12.400 Y7.400
G1 X-12.000 Y7.000
G1 X-12.000 Y-7.000
G1 X-3.300 Y-7.000
G1 X-3.300 Y7.000
G1 X-12.000 Y7.000
G1 X-11.600 Y6.600
G1 X-11.600 Y-6.600
G1 X-3.700 Y-6.600
G1 X-3.700 Y6.600
G1 X-11.600 Y6.600
G1 X-11.200 Y6.200
G1 X-11.200 Y-6.200
G1 X-4.100 Y-6.200
G1 X-4.100 Y6.200
G1 X-11.200 Y6.200
G1 X-10.800 Y5.800
G1 X-10.800 Y-5.800
G1 X-4.500 Y-5.800
G1 X-4.500 Y5.800
G1 X-10.800 Y5.800
G1 X-10.400 Y5.400
G1 X-10.400 Y-5.400
G1 X-4.900 Y-5.400
G1 X-4.900 Y5.400
G1 X-10.400 Y5.400
G1 X-10.000 Y5.000
G1 X-10.000 Y-5.000
G1 X-5.300 Y-5.000
G1 X-5.300 Y5.000
G1 X-10.000 Y5.000
G1 X-9.600 Y4.600
G1 X-9.600 Y-4.600
G1 X-5.700 Y-4.600
G1 X-5.700 Y4.600
G1 X-9.600 Y4.600
G1 X-9.200 Y4.200
G1 X-9.200 Y-4.200
G1 X-6.100 Y-4.200
G1 X-6.100 Y4.200
G1 X-9.200 Y4.200
G1 X-8.800 Y3.800
G1 X-8.800 Y-3.800
G1 X-6.500 Y-3.800
G1 X-6.500 Y3.800
G1 X-8.800 Y3.800
G1 X-8.400 Y3.400
G1 X-8.400 Y-3.400
G1 X-6.900 Y-3.400
G1 X-6.900 Y3.400
G1 X-8.400 Y3.400
G1 X-8.000 Y3.000
G1 X-8.000 Y-3.000
G1 X-7.300 Y-3.000
G1 X-7.300 Y3.000
G1 X-8.000 Y3.000
G1 X-8.000 Y3.000 Z0.700
G1 X-8.000 Y3.000
G1 X-7.300 Y3.000
G1 X-7.300 Y-3.000
G1 X-8.000 Y-3.000
G1 X-8.000 Y3.000
G1 X-8.400 Y3.400
G1 X-6.900 Y3.400
G1 X-6.900 Y-3.400
G1 X-8.400 Y-3.400
G1 X-8.400 Y3.400
G1 X-8.800 Y3.800
G1 X-6.500 Y3.800
G1 X-6.500 Y-3.800
G1 X-8.800 Y-3.800
G1 X-8.800 Y3.800
G1 X-9.200 Y4.200
G1 X-6.100 Y4.200
G1 X-6.100 Y-4.200
G1 X-9.200 Y-4.200
G1 X-9.200 Y4.200
G1 X-9.600 Y4.600
G1 X-5.700 Y4.600
G1 X-5.700 Y-4.600
G1 X-9.600 Y-4.600
G1 X-9.600 Y4.600
G1 X-10.000 Y5.000
G1 X-5.300 Y5.000
G1 X-5.300 Y-5.000
G1 X-10.000 Y-5.000
G1 X-10.000 Y5.000
G1 X-10.400 Y5.400
G1 X-4.900 Y5.400
G1 X-4.900 Y-5.400
G1 X-10.400 Y-5.400
G1 X-10.400 Y5.400
G1 X-10.800 Y5.800
G1 X-4.500 Y5.800
G1 X-4.500 Y-5.800
G1 X-10.800 Y-5.800
G1 X-10.800 Y5.800
G1 X-11.200 Y6.200
G1 X-4.100 Y6.200
G1 X-4.100 Y-6.200
G1 X-11.200 Y-6.200
G1 X-11.200 Y6.200
G1 X-11.600 Y6.600
G1 X-3.700 Y6.600
G1 X-3.700 Y-6.600
G1 X-11.600 Y-6.600
G1 X-11.600 Y6.600
G1 X-12.000 Y7.000
G1 X-3.300 Y7.000
G1 X-3.300 Y-7.000
G1 X-12.000 Y-7.000
G1 X-12.000 Y7.000
G1 X-12.400 Y7.400
G1 X-2.900 Y7.400
G1 X-2.900 Y-7.400
G1 X-12.400 Y-7.400
G1 X-12.400 Y7.400
G1 X-12.800 Y7.800
G1 X-2.500 Y7.800
G1 X-2.500 Y-7.800
G1 X-12.800 Y-7.800
G1 X-12.800 Y7.800
G1 X-13.200 Y8.200
G1 X-2.100 Y8.200
G1 X-2.100 Y-8.200
G1 X-13.200 Y-8.200
G1 X-13.200 Y8.200
G1 X-13.600 Y8.600
G1 X-1.700 Y8.600
G1 X-1.700 Y-8.600
G1 X-13.600 Y-8.600
G1 X-13.600 Y8.600
G1 X-14.000 Y9.000
G1 X-1.300 Y9.000
G1 X-1.300 Y-9.000
G1 X-14.000 Y-9.000
G1 X-14.000 Y9.000
G1 X-14.400 Y9.400
G1 X-0.900 Y9.400
G1 X-0.900 Y-9.400
G1 X-14.400 Y-9.400
G1 X-14.400 Y9.400
G1 X-14.800 Y9.800
G1 X-0.500 Y9.800
G1 X-0.500 Y-9.800
G1 X-14.800 Y-9.800
G1 X-14.800 Y9.800
G1 X-14.800 Y9.800 Z0.700
M9
G1 Z10.000
G1 X15.000 Y-10.000
G1 Z0.300
M7
G4 P150
G1 X14.800 Y-9.800 Z0.300
G1 X14.800 Y-9.800
G1 X14.800 Y9.800
G1 X0.500 Y9.800
G1 X0.500 Y-9.800
G1 X14.800 Y-9.800
G1 X14.400 Y-9.400
G1 X14.400 Y9.400
G1 X0.900 Y9.400
G1 X0.900 Y-9.400
G1 X14.400 Y-9.400
G1 X14.000 Y-9.000
G1 X14.000 Y9.000
G1 X1.300 Y9.000
G1 X1.300 Y-9.000
G1 X14.000 Y-9.000
G1 X13.600 Y-8.600
G1 X13.600 Y8.600
G1 X1.700 Y8.600
G1 X1.700 Y-8.600
G1 X13.600 Y-8.600
G1 X13.200 Y-8.200
G1 X13.200 Y8.200
G1 X2.100 Y8.200
G1 X2.100 Y-8.200
G1 X13.200 Y-8.200
G1 X12.800 Y-7.800
G1 X12.800 Y7.800
G1 X2.500 Y7.800
G1 X2.500 Y-7.800
G1 X12.800 Y-7.800
G1 X12.400 Y-7.400
G1 X12.400 Y7.400
G1 X2.900 Y7.400
G1 X2.900 Y-7.400
G1 X12.400 Y-7.400
G1 X12.000 Y-7.000
G1 X12.000 Y7.000
G1 X3.300 Y7.000
G1 X3.300 Y-7.000
G1 X12.000 Y-7.000
G1 X11.600 Y-6.600
G1 X11.600 Y6.600
G1 X3.700 Y6.600
G1 X3.700 Y-6.600
G1 X11.600 Y-6.600
G1 X11.200 Y-6.200
G1 X11.200 Y6.200
G1 X4.100 Y6.200
G1 X4.100 Y-6.200
G1 X11.200 Y-6.200
G1 X10.800 Y-5.800
G1 X10.800 Y5.800
G1 X4.500 Y5.800
G1 X4.500 Y-5.800
G1 X10.800 Y-5.800
G1 X10.400 Y-5.400
G1 X10.400 Y5.400
G1 X4.900 Y5.400
G1 X4.900 Y-5.400
G1 X10.400 Y-5.400
G1 X10.000 Y-5.000
G1 X10.000 Y5.000
G1 X5.300 Y5.000
G1 X5.300 Y-5.000
G1 X10.000 Y-5.000
G1 X9.600 Y-4.600
G1 X9.600 Y4.600
G1 X5.700 Y4.600
G1 X5.700 Y-4.600
G1 X9.600 Y-4.600
G1 X9.200 Y-4.200
G1 X9.200 Y4.200
G1 X6.100 Y4.200
G1 X6.100 Y-4.200
G1 X9.200 Y-4.200
G1 X8.800 Y-3.800
G1 X8.800 Y3.800
G1 X6.500 Y3.800
G1 X6.500 Y-3.800
G1 X8.800 Y-3.800
G1 X8.400 Y-3.400
G1 X8.400 Y3.400
G1 X6.900 Y3.400
G1 X6.900 Y-3.400
G1 X8.400 Y-3.400
G1 X8.000 Y-3.000
G1 X8.000 Y3.000
G1 X7.300 Y3.000
G1 X7.300 Y-3.000
G1 X8.000 Y-3.000
G1 X8.000 Y-3.000 Z0.700
G1 X8.000 Y-3.000
G1 X7.300 Y-3.000
G1 X7.300 Y3.000
G1 X8.000 Y3.000
G1 X8.000 Y-3.000
G1 X8.400 Y-3.400
G1 X6.900 Y-3.400
G1 X6.900 Y3.400
G1 X8.400 Y3.400
G1 X8.400 Y-3.400
G1 X8.800 Y-3.800
G1 X6.500 Y-3.800
G1 X6.500 Y3.800
G1 X8.800 Y3.800
G1 X8.800 Y-3.800
G1 X9.200 Y-4.200
G1 X6.100 Y-4.200
G1 X6.100 Y4.200
G1 X9.200 Y4.200
G1 X9.200 Y-4.200
G1 X9.600 Y-4.600
G1 X5.700 Y-4.600
G1 X5.700 Y4.600
G1 X9.600 Y4.600
G1 X9.600 Y-4.600
G1 X10.000 Y-5.000
G1 X5.300 Y-5.000
G1 X5.300 Y5.000
G1 X10.000 Y5.000
G1 X10.000 Y-5.000
G1 X10.400 Y-5.400
G1 X4.900 Y-5.400
G1 X4.900 Y5.400
G1 X10.400 Y5.400
G1 X10.400 Y-5.400
G1 X10.800 Y-5.800
G1 X4.500 Y-5.800
G1 X4.500 Y5.800
G1 X10.800 Y5.800
G1 X10.800 Y-5.800
G1 X11.200 Y-6.200
G1 X4.100 Y-6.200
G1 X4.100 Y6.200
G1 X11.200 Y6.200
G1 X11.200 Y-6.200
G1 X11.600 Y-6.600
G1 X3.700 Y-6.600
G1 X3.700 Y6.600
G1 X11.600 Y6.600
G1 X11.600 Y-6.600
G1 X12.000 Y-7.000
G1 X3.300 Y-7.000
G1 X3.300 Y7.000
G1 X12.000 Y7.000
G1 X12.000 Y-7.000
G1 X12.400 Y-7.400
G1 X2.900 Y-7.400
G1 X2.900 Y7.400
G1 X12.400 Y7.400
G1 X12.400 Y-7.400
G1 X12.800 Y-7.800
G1 X2.500 Y-7.800
G1 X2.500 Y7.800
G1 X12.800 Y7.800
G1 X12.800 Y-7.800
G1 X13.200 Y-8.200
G1 X2.100 Y-8.200
G1 X2.100 Y8.200
G1 X13.200 Y8.200
G1 X13.200 Y-8.200
G1 X13.600 Y-8.600
G1 X1.700 Y-8.600
G1 X1.700 Y8.600
G1 X13.600 Y8.600
G1 X13.600 Y-8.600
G1 X14.000 Y-9.000
G1 X1.300 Y-9.000
G1 X1.300 Y9.000
G1 X14.000 Y9.000
G1 X14.000 Y-9.000
G1 X14.400 Y-9.400
G1 X0.900 Y-9.400
G1 X0.900 Y9.400
G1 X14.400 Y9.400
G1 X14.400 Y-9.400
G1 X14.800 Y-9.800
G1 X0.500 Y-9.800
G1 X0.500 Y9.800
G1 X14.800 Y9.800
G1 X14.800 Y-9.800
G1 X14.800 Y-9.800 Z0.700
M9
G1 Z10.000
G1 X-15.000 Y0.000
G1 Z1.100
M7
G4 P150
G1 X-5.201 Y0.200 Z1.100
G1 X-5.201 Y0.200
G1 X-0.400 Y0.200
G1 X0.400 Y0.200
G1 X5.200 Y0.200
G1 X5.200 Y-0.200
G1 X0.400 Y-0.200
G1 X-0.400 Y-0.200
G1 X-5.201 Y-0.200
G1 X-5.201 Y0.000
G1 X-5.201 Y0.200
G1 X-5.601 Y0.600
G1 X-0.400 Y0.600
G1 X0.400 Y0.600
G1 X5.600 Y0.600
G1 X5.600 Y-0.600
G1 X0.400 Y-0.600
G1 X-0.400 Y-0.600
G1 X-5.601 Y-0.600
G1 X-5.601 Y0.000
G1 X-5.601 Y0.600
G1 X-6.001 Y1.000
G1 X-0.400 Y1.000
G1 X0.400 Y1.000
G1 X6.000 Y1.000
G1 X6.000 Y-1.000
G1 X0.400 Y-1.000
G1 X-0.400 Y-1.000
G1 X-6.001 Y-1.000
G1 X-6.001 Y0.000
G1 X-6.001 Y1.000
G1 X-6.401 Y1.400
G1 X-0.400 Y1.400
G1 X0.400 Y1.400
G1 X6.400 Y1.400
G1 X6.400 Y-1.400
G1 X0.400 Y-1.400
G1 X-0.400 Y-1.400
G1 X-6.401 Y-1.400
G1 X-6.401 Y0.000
G1 X-6.401 Y1.400
G1 X-6.801 Y1.800
G1 X-0.400 Y1.800
G1 X0.400 Y1.800
G1 X6.800 Y1.800
G1 X6.800 Y-1.800
G1 X0.400 Y-1.800
G1 X-0.400 Y-1.800
G1 X-6.801 Y-1.800
G1 X-6.801 Y0.000
G1 X-6.801 Y1.800
G1 X-7.201 Y2.200
G1 X-0.400 Y2.200
G1 X0.400 Y2.200
G1 X7.200 Y2.200
G1 X7.200 Y-2.200
G1 X0.400 Y-2.200
G1 X-0.400 Y-2.200
G1 X-7.201 Y-2.200
G1 X-7.201 Y0.000
G1 X-7.201 Y2.200
G1 X-7.601 Y2.600
G1 X-0.400 Y2.600
G1 X0.400 Y2.600
G1 X7.600 Y2.600
G1 X7.600 Y-2.600
G1 X0.400 Y-2.600
G1 X-0.400 Y-2.600
G1 X-7.601 Y-2.600
G1 X-7.601 Y0.000
G1 X-7.601 Y2.600
G1 X-8.001 Y3.000
G1 X-0.400 Y3.000
G1 X0.400 Y3.000
G1 X8.000 Y3.000
G1 X8.000 Y-3.000
G1 X0.400 Y-3.000
G1 X-0.400 Y-3.000
G1 X-8.001 Y-3.000
G1 X-8.001 Y0.000
G1 X-8.001 Y3.000
G1 X-8.401 Y3.400
G1 X-0.400 Y3.400
G1 X0.400 Y3.400
G1 X8.400 Y3.400
G1 X8.400 Y-3.400
G1 X0.400 Y-3.400
G1 X-0.400 Y-3.400
G1 X-8.401 Y-3.400
G1 X-8.401 Y0.000
G1 X-8.401 Y3.400
G1 X-8.801 Y3.800
G1 X-0.400 Y3.800
G1 X0.400 Y3.800
G1 X8.800 Y3.800
G1 X8.800 Y-3.800
G1 X0.400 Y-3.800
G1 X-0.400 Y-3.800
G1 X-8.801 Y-3.800
G1 X-8.801 Y0.000
G1 X-8.801 Y3.800
G1 X-9.201 Y4.200
G1 X-0.400 Y4.200
G1 X0.400 Y4.200
G1 X9.200 Y4.200
G1 X9.200 Y-4.200
G1 X0.400 Y-4.200
G1 X-0.400 Y-4.200
G1 X-9.201 Y-4.200
G1 X-9.201 Y0.000
G1 X-9.201 Y4.200
G1 X-9.601 Y4.600
G1 X-0.400 Y4.600
G1 X0.400 Y4.600
G1 X9.600 Y4.600
G1 X9.600 Y-4.600
G1 X0.400 Y-4.600
G1 X-0.400 Y-4.600
G1 X-9.601 Y-4.600
G1 X-9.601 Y0.000
G1 X-9.601 Y4.600
G1 X-10.000 Y5.000
G1 X-0.400 Y5.000
G1 X0.400 Y5.000
G1 X10.000 Y5.000
G1 X10.000 Y-5.000
G1 X0.400 Y-5.000
G1 X-0.400 Y-5.000
G1 X-10.000 Y-5.000
G1 X-10.001 Y0.000
G1 X-10.000 Y5.000
G1 X-10.400 Y5.400
G1 X-0.400 Y5.400
G1 X0.400 Y5.400
G1 X10.400 Y5.400
G1 X10.400 Y-5.400
G1 X0.400 Y-5.400
G1 X-0.400 Y-5.400
G1 X-10.400 Y-5.400
G1 X-10.401 Y0.000
G1 X-10.400 Y5.400
G1 X-10.800 Y5.800
G1 X-0.400 Y5.800
G1 X0.400 Y5.800
G1 X10.800 Y5.800
G1 X10.800 Y-5.800
G1 X0.400 Y-5.800
G1 X-0.400 Y-5.800
G1 X-10.800 Y-5.800
G1 X-10.801 Y0.000
G1 X-10.800 Y5.800
G1 X-11.200 Y6.200
G1 X-0.400 Y6.200
G1 X0.400 Y6.200
G1 X11.200 Y6.200
G1 X11.200 Y-6.200
G1 X0.400 Y-6.200
G1 X-0.400 Y-6.200
G1 X-11.200 Y-6.200
G1 X-11.201 Y0.000
G1 X-11.200 Y6.200
G1 X-11.600 Y6.600
G1 X-0.400 Y6.600
G1 X0.400 Y6.600
G1 X11.600 Y6.600
G1 X11.600 Y-6.600
G1 X0.400 Y-6.600
G1 X-0.400 Y-6.600
G1 X-11.600 Y-6.600
G1 X-11.601 Y0.000
G1 X-11.600 Y6.600
G1 X-12.000 Y7.000
G1 X-0.400 Y7.000
G1 X0.400 Y7.000
G1 X12.000 Y7.000
G1 X12.000 Y-7.000
G1 X0.400 Y-7.000
G1 X-0.400 Y-7.000
G1 X-12.000 Y-7.000
G1 X-12.001 Y0.000
G1 X-12.000 Y7.000
G1 X-12.400 Y7.400
G1 X-0.400 Y7.400
G1 X0.400 Y7.400
G1 X12.400 Y7.400
G1 X12.400 Y-7.400
G1 X0.400 Y-7.400
G1 X-0.400 Y-7.400
G1 X-12.400 Y-7.400
G1 X-12.401 Y0.000
G1 X-12.400 Y7.400
G1 X-12.800 Y7.800
G1 X-0.400 Y7.800
G1 X0.400 Y7.800
G1 X12.800 Y7.800
G1 X12.800 Y-7.800
G1 X0.400 Y-7.800
G1 X-0.400 Y-7.800
G1 X-12.800 Y-7.800
G1 X-12.801 Y0.000
G1 X-12.800 Y7.800
G1 X-13.200 Y8.200
G1 X-0.400 Y8.200
G1 X0.400 Y8.200
G1 X13.200 Y8.200
G1 X13.200 Y-8.200
G1 X0.400 Y-8.200
G1 X-0.400 Y-8.200
G1 X-13.200 Y-8.200
G1 X-13.201 Y0.000
G1 X-13.200 Y8.200
G1 X-13.600 Y8.600
G1 X-0.400 Y8.600
G1 X0.400 Y8.600
G1 X13.600 Y8.600
G1 X13.600 Y-8.600
G1 X0.400 Y-8.600
G1 X-0.400 Y-8.600
G1 X-13.600 Y-8.600
G1 X-13.601 Y0.000
G1 X-13.600 Y8.600
G1 X-14.000 Y9.000
G1 X-0.400 Y9.000
G1 X0.400 Y9.000
G1 X14.000 Y9.000
G1 X14.000 Y-9.000
G1 X0.400 Y-9.000
G1 X-0.400 Y-9.000
G1 X-14.000 Y-9.000
G1 X-14.001 Y0.000
G1 X-14.000 Y9.000
G1 X-14.400 Y9.400
G1 X-0.400 Y9.400
G1 X0.400 Y9.400
G1 X14.400 Y9.400
G1 X14.400 Y-9.400
G1 X0.400 Y-9.400
G1 X-0.400 Y-9.400
G1 X-14.400 Y-9.400
G1 X-14.401 Y0.000
G1 X-14.400 Y9.400
G1 X-14.800 Y9.800
G1 X-0.400 Y9.800
G1 X0.400 Y9.800
G1 X14.800 Y9.800
G1 X14.800 Y-9.800
G1 X0.400 Y-9.800
G1 X-0.400 Y-9.800
G1 X-14.800 Y-9.800
G1 X-14.801 Y0.000
G1 X-14.800 Y9.800
G1 X-14.800 Y9.800 Z1.100
M9
G1 Z10.000
G1 X-15.001 Y0.000
G1 Z1.500
M7
G4 P150
G1 X-14.801 Y0.000 Z1.500
G1 X-14.801 Y0.000
G1 X-14.800 Y-9.800
G1 X-1.824 Y-9.800
G1 X-1.824 Y9.800
G1 X-14.800 Y9.800
G1 X-14.801 Y0.000
G1 X-14.401 Y0.000
G1 X-14.400 Y-9.400
G1 X-2.224 Y-9.400
G1 X-2.224 Y9.400
G1 X-14.400 Y9.400
G1 X-14.401 Y0.000
G1 X-14.001 Y0.000
G1 X-14.000 Y-9.000
G1 X-2.624 Y-9.000
G1 X-2.624 Y9.000
G1 X-14.000 Y9.000
G1 X-14.001 Y0.000
G1 X-13.601 Y0.000
G1 X-13.600 Y-8.600
G1 X-3.024 Y-8.600
G1 X-3.024 Y8.600
G1 X-13.600 Y8.600
G1 X-13.601 Y0.000
G1 X-13.201 Y0.000
G1 X-13.200 Y-8.200
G1 X-3.424 Y-8.200
G1 X-3.424 Y8.200
G1 X-13.200 Y8.200
G1 X-13.201 Y0.000
G1 X-12.801 Y0.000
G1 X-12.800 Y-7.800
G1 X-3.824 Y-7.800
G1 X-3.824 Y7.800
G1 X-12.800 Y7.800
G1 X-12.801 Y0.000
G1 X-12.401 Y0.000
G1 X-12.400 Y-7.400
G1 X-4.224 Y-7.400
G1 X-4.224 Y7.400
G1 X-12.400 Y7.400
G1 X-12.401 Y0.000
G1 X-12.001 Y0.000
G1 X-12.000 Y-7.000
G1 X-4.624 Y-7.000
G1 X-4.624 Y7.000
G1 X-12.000 Y7.000
G1 X-12.001 Y0.000
G1 X-11.601 Y0.000
G1 X-11.600 Y-6.600
G1 X-5.024 Y-6.600
G1 X-5.024 Y6.600
G1 X-11.600 Y6.600
G1 X-11.601 Y0.000
G1 X-11.201 Y0.000
G1 X-11.200 Y-6.200
G1 X-5.424 Y-6.200
G1 X-5.424 Y6.200
G1 X-11.200 Y6.200
G1 X-11.201 Y0.000
G1 X-10.801 Y0.000
G1 X-10.800 Y-5.800
G1 X-5.824 Y-5.800
G1 X-5.824 Y5.800
G1 X-10.800 Y5.800
G1 X-10.801 Y0.000
G1 X-10.401 Y0.000
G1 X-10.400 Y-5.400
G1 X-6.224 Y-5.400
G1 X-6.224 Y5.400
G1 X-10.400 Y5.400
G1 X-10.401 Y0.000
G1 X-10.001 Y0.000
G1 X-10.000 Y-5.000
G1 X-6.624 Y-5.000
G1 X-6.624 Y5.000
G1 X-10.000 Y5.000
G1 X-10.001 Y0.000
G1 X-9.601 Y0.000
G1 X-9.601 Y-4.600
G1 X-7.024 Y-4.600
G1 X-7.024 Y4.600
G1 X-9.601 Y4.600
G1 X-9.601 Y0.000
G1 X-9.201 Y0.000
G1 X-9.201 Y-4.200
G1 X-7.424 Y-4.200
G1 X-7.424 Y4.200
G1 X-9.201 Y4.200
G1 X-9.201 Y0.000
G1 X-8.801 Y0.000
G1 X-8.801 Y-3.800
G1 X-7.824 Y-3.800
G1 X-7.824 Y3.800
G1 X-8.801 Y3.800
G1 X-8.801 Y0.000
G1 X-8.401 Y0.000
G1 X-8.401 Y-3.400
G1 X-8.224 Y-3.400
G1 X-8.224 Y3.400
G1 X-8.401 Y3.400
G1 X-8.401 Y0.000
G1 X-8.801 Y0.000 Z1.900
G1 X-8.801 Y0.000
G1 X-8.801 Y3.800
G1 X-8.652 Y3.800
G1 X-8.652 Y-3.800
G1 X-8.801 Y-3.800
G1 X-8.801 Y0.000
G1 X-9.201 Y0.000
G1 X-9.201 Y4.200
G1 X-8.252 Y4.200
G1 X-8.252 Y-4.200
G1 X-9.201 Y-4.200
G1 X-9.201 Y0.000
G1 X-9.601 Y0.000
G1 X-9.601 Y4.600
G1 X-7.852 Y4.600
G1 X-7.852 Y-4.600
G1 X-9.601 Y-4.600
G1 X-9.601 Y0.000
G1 X-10.001 Y0.000
G1 X-10.000 Y5.000
G1 X-7.452 Y5.000
G1 X-7.452 Y-5.000
G1 X-10.000 Y-5.000
G1 X-10.001 Y0.000
G1 X-10.401 Y0.000
G1 X-10.400 Y5.400
G1 X-7.052 Y5.400
G1 X-7.052 Y-5.400
G1 X-10.400 Y-5.400
G1 X-10.401 Y0.000
G1 X-10.801 Y0.000
G1 X-10.800 Y5.800
G1 X-6.652 Y5.800
G1 X-6.652 Y-5.800
G1 X-10.800 Y-5.800
G1 X-10.801 Y0.000
G1 X-11.201 Y0.000
G1 X-11.200 Y6.200
G1 X-6.252 Y6.200
G1 X-6.252 Y-6.200
G1 X-11.200 Y-6.200
G1 X-11.201 Y0.000
G1 X-11.601 Y0.000
G1 X-11.600 Y6.600
G1 X-5.852 Y6.600
G1 X-5.852 Y-6.600
G1 X-11.600 Y-6.600
G1 X-11.601 Y0.000
G1 X-12.001 Y0.000
G1 X-12.000 Y7.000
G1 X-5.452 Y7.000
G1 X-5.452 Y-7.000
G1 X-12.000 Y-7.000
G1 X-12.001 Y0.000
G1 X-12.401 Y0.000
G1 X-12.400 Y7.400
G1 X-5.052 Y7.400
G1 X-5.052 Y-7.400
G1 X-12.400 Y-7.400
G1 X-12.401 Y0.000
G1 X-12.801 Y0.000
G1 X-12.800 Y7.800
G1 X-4.652 Y7.800
G1 X-4.652 Y-7.800
G1 X-12.800 Y-7.800
G1 X-12.801 Y0.000
G1 X-13.201 Y0.000
G1 X-13.200 Y8.200
G1 X-4.252 Y8.200
G1 X-4.252 Y-8.200
G1 X-13.200 Y-8.200
G1 X-13.201 Y0.000
G1 X-13.601 Y0.000
G1 X-13.600 Y8.600
G1 X-3.852 Y8.600
G1 X-3.852 Y-8.600
G1 X-13.600 Y-8.600
G1 X-13.601 Y0.000
G1 X-14.001 Y0.000
G1 X-14.000 Y9.000
G1 X-3.452 Y9.000
G1 X-3.452 Y-9.000
G1 X-14.000 Y-9.000
G1 X-14.001 Y0.000
G1 X-14.401 Y0.000
G1 X-14.400 Y9.400
G1 X-3.052 Y9.400
G1 X-3.052 Y-9.400
G1 X-14.400 Y-9.400
G1 X-14.401 Y0.000
G1 X-14.801 Y0.000
G1 X-14.800 Y9.800
G1 X-2.652 Y9.800
G1 X-2.652 Y-9.800
G1 X-14.800 Y-9.800
G1 X-14.801 Y0.000
G1 X-14.801 Y0.000 Z1.900
G1 X-14.801 Y0.000 Z2.300
G1 X-14.801 Y0.000
G1 X-14.800 Y-9.800
G1 X-3.156 Y-9.800
G1 X-3.156 Y9.800
G1 X-14.800 Y9.800
G1 X-14.801 Y0.000
G1 X-14.401 Y0.000
G1 X-14.400 Y-9.400
G1 X-3.556 Y-9.400
G1 X-3.556 Y9.400
G1 X-14.400 Y9.400
G1 X-14.401 Y0.000
G1 X-14.001 Y0.000
G1 X-14.000 Y-9.000
G1 X-3.956 Y-9.000
G1 X-3.956 Y9.000
G1 X-14.000 Y9.000
G1 X-14.001 Y0.000
G1 X-13.601 Y0.000
G1 X-13.600 Y-8.600
G1 X-4.356 Y-8.600
G1 X-4.356 Y8.600
G1 X-13.600 Y8.600
G1 X-13.601 Y0.000
G1 X-13.201 Y0.000
G1 X-13.200 Y-8.200
G1 X-4.756 Y-8.200
G1 X-4.756 Y8.200
G1 X-13.200 Y8.200
G1 X-13.201 Y0.000
G1 X-12.801 Y0.000
G1 X-12.800 Y-7.800
G1 X-5.156 Y-7.800
G1 X-5.156 Y7.800
G1 X-12.800 Y7.800
G1 X-12.801 Y0.000
G1 X-12.401 Y0.000
G1 X-12.400 Y-7.400
G1 X-5.556 Y-7.400
G1 X-5.556 Y7.400
G1 X-12.400 Y7.400
G1 X-12.401 Y0.000
G1 X-12.001 Y0.000
G1 X-12.000 Y-7.000
G1 X-5.956 Y-7.000
G1 X-5.956 Y7.000
G1 X-12.000 Y7.000
G1 X-12.001 Y0.000
G1 X-11.601 Y0.000
G1 X-11.600 Y-6.600
G1 X-6.356 Y-6.600
G1 X-6.356 Y6.600
G1 X-11.600 Y6.600
G1 X-11.601 Y0.000
G1 X-11.201 Y0.000
G1 X-11.200 Y-6.200
G1 X-6.756 Y-6.200
G1 X-6.756 Y6.200
G1 X-11.200 Y6.200
G1 X-11.201 Y0.000
G1 X-10.801 Y0.000
G1 X-10.800 Y-5.800
G1 X-7.156 Y-5.800
G1 X-7.156 Y5.800
G1 X-10.800 Y5.800
G1 X-10.801 Y0.000
G1 X-10.401 Y0.000
G1 X-10.400 Y-5.400
G1 X-7.556 Y-5.400
G1 X-7.556 Y5.400
G1 X-10.400 Y5.400
G1 X-10.401 Y0.000
G1 X-10.001 Y0.000
G1 X-10.000 Y-5.000
G1 X-7.956 Y-5.000
G1 X-7.956 Y5.000
G1 X-10.000 Y5.000
G1 X-10.001 Y0.000
G1 X-9.601 Y0.000
G1 X-9.601 Y-4.600
G1 X-8.356 Y-4.600
G1 X-8.356 Y4.600
G1 X-9.601 Y4.600
G1 X-9.601 Y0.000
G1 X-9.201 Y0.000
G1 X-9.201 Y-4.200
G1 X-8.756 Y-4.200
G1 X-8.756 Y4.200
G1 X-9.201 Y4.200
G1 X-9.201 Y0.000
G1 X-9.201 Y0.000 Z2.700
G1 X-9.201 Y0.000
G1 X-9.201 Y4.200
G1 X-9.110 Y4.200
G1 X-9.110 Y-4.200
G1 X-9.201 Y-4.200
G1 X-9.201 Y0.000
G1 X-9.601 Y0.000
G1 X-9.601 Y4.600
G1 X-8.710 Y4.600
G1 X-8.710 Y-4.600
G1 X-9.601 Y-4.600
G1 X-9.601 Y0.000
G1 X-10.001 Y0.000
G1 X-10.000 Y5.000
G1 X-8.310 Y5.000
G1 X-8.310 Y-5.000
G1 X-10.000 Y-5.000
G1 X-10.001 Y0.000
G1 X-10.401 Y0.000
G1 X-10.400 Y5.400
G1 X-7.910 Y5.400
G1 X-7.910 Y-5.400
G1 X-10.400 Y-5.400
G1 X-10.401 Y0.000
G1 X-10.801 Y0.000
G1 X-10.800 Y5.800
G1 X-7.510 Y5.800
G1 X-7.510 Y-5.800
G1 X-10.800 Y-5.800
G1 X-10.801 Y0.000
G1 X-11.201 Y0.000
G1 X-11.200 Y6.200
G1 X-7.110 Y6.200
G1 X-7.110 Y-6.200
G1 X-11.200 Y-6.200
G1 X-11.201 Y0.000
G1 X-11.601 Y0.000
G1 X-11.600 Y6.600
G1 X-6.710 Y6.600
G1 X-6.710 Y-6.600
G1 X-11.600 Y-6.600
G1 X-11.601 Y0.000
G1 X-12.001 Y0.000
G1 X-12.000 Y7.000
G1 X-6.310 Y7.000
G1 X-6.310 Y-7.000
G1 X-12.000 Y-7.000
G1 X-12.001 Y0.000
G1 X-12.401 Y0.000
G1 X-12.400 Y7.400
G1 X-5.910 Y7.400
G1 X-5.910 Y-7.400
G1 X-12.400 Y-7.400
G1 X-12.401 Y0.000
G1 X-12.801 Y0.000
G1 X-12.800 Y7.800
G1 X-5.510 Y7.800
G1 X-5.510 Y-7.800
G1 X-12.800 Y-7.800
G1 X-12.801 Y0.000
G1 X-13.201 Y0.000
G1 X-13.200 Y8.200
G1 X-5.110 Y8.200
G1 X-5.110 Y-8.200
G1 X-13.200 Y-8.200
G1 X-13.201 Y0.000
G1 X-13.601 Y0.000
G1 X-13.600 Y8.600
G1 X-4.710 Y8.600
G1 X-4.710 Y-8.600
G1 X-13.600 Y-8.600
G1 X-13.601 Y0.000
G1 X-14.001 Y0.000
G1 X-14.000 Y9.000
G1 X-4.310 Y9.000
G1 X-4.310 Y-9.000
G1 X-14.000 Y-9.000
G1 X-14.001 Y0.000
G1 X-14.401 Y0.000
G1 X-14.400 Y9.400
G1 X-3.910 Y9.400
G1 X-3.910 Y-9.400
G1 X-14.400 Y-9.400
G1 X-14.401 Y0.000
G1 X-14.801 Y0.000
G1 X-14.800 Y9.800
G1 X-3.510 Y9.800
G1 X-3.510 Y-9.800
G1 X-14.800 Y-9.800
G1 X-14.801 Y0.000
G1 X-14.801 Y0.000 Z2.700
G1 X-14.801 Y0.000 Z3.100
G1 X-14.801 Y0.000
G1 X-14.800 Y-9.800
G1 X-3.765 Y-9.800
G1 X-3.765 Y9.800
G1 X-14.800 Y9.800
G1 X-14.801 Y0.000
G1 X-14.401 Y0.000
G1 X-14.400 Y-9.400
G1 X-4.165 Y-9.400
G1 X-4.165 Y9.400
G1 X-14.400 Y9.400
G1 X-14.401 Y0.000
G1 X-14.001 Y0.000
G1 X-14.000 Y-9.000
G1 X-4.565 Y-9.000
G1 X-4.565 Y9.000
G1 X-14.000 Y9.000
G1 X-14.001 Y0.000
G1 X-13.601 Y0.000
G1 X-13.600 Y-8.600
G1 X-4.965 Y-8.600
G1 X-4.965 Y8.600
G1 X-13.600 Y8.600
G1 X-13.601 Y0.000
G1 X-13.201 Y0.000
G1 X-13.200 Y-8.200
G1 X-5.365 Y-8.200
G1 X-5.365 Y8.200
G1 X-13.200 Y8.200
G1 X-13.201 Y0.000
G1 X-12.801 Y0.000
G1 X-12.800 Y-7.800
G1 X-5.765 Y-7.800
G1 X-5.765 Y7.800
G1 X-12.800 Y7.800
G1 X-12.801 Y0.000
G1 X-12.401 Y0.000
G1 X-12.400 Y-7.400
G1 X-6.165 Y-7.400
G1 X-6.165 Y7.400
G1 X-12.400 Y7.400
G1 X-12.401 Y0.000
G1 X-12.001 Y0.000
G1 X-12.000 Y-7.000
G1 X-6.565 Y-7.000
G1 X-6.565 Y7.000
G1 X-12.000 Y7.000
G1 X-12.001 Y0.000
G1 X-11.601 Y0.000
G1 X-11.600 Y-6.600
G1 X-6.965 Y-6.600
G1 X-6.965 Y6.600
G1 X-11.600 Y6.600
G1 X-11.601 Y0.000
G1 X-11.201 Y0.000
G1 X-11.200 Y-6.200
G1 X-7.365 Y-6.200
G1 X-7.365 Y6.200
G1 X-11.200 Y6.200
G1 X-11.201 Y0.000
G1 X-10.801 Y0.000
G1 X-10.800 Y-5.800
G1 X-7.765 Y-5.800
G1 X-7.765 Y5.800
G1 X-10.800 Y5.800
G1 X-10.801 Y0.000
G1 X-10.401 Y0.000
G1 X-10.400 Y-5.400
G1 X-8.165 Y-5.400
G1 X-8.165 Y5.400
G1 X-10.400 Y5.400
G1 X-10.401 Y0.000
G1 X-10.001 Y0.000
G1 X-10.000 Y-5.000
G1 X-8.565 Y-5.000
G1 X-8.565 Y5.000
G1 X-10.000 Y5.000
G1 X-10.001 Y0.000
G1 X-9.601 Y0.000
G1 X-9.601 Y-4.600
G1 X-8.965 Y-4.600
G1 X-8.965 Y4.600
G1 X-9.601 Y4.600
G1 X-9.601 Y0.000
G1 X-9.601 Y0.000 Z3.500
G1 X-9.601 Y0.000
G1 X-9.601 Y4.600
G1 X-9.143 Y4.600
G1 X-9.143 Y-4.600
G1 X-9.601 Y-4.600
G1 X-9.601 Y0.000
G1 X-10.001 Y0.000
G1 X-10.000 Y5.000
G1 X-8.743 Y5.000
G1 X-8.743 Y-5.000
G1 X-10.000 Y-5.000
G1 X-10.001 Y0.000
G1 X-10.401 Y0.000
G1 X-10.400 Y5.400
G1 X-8.343 Y5.400
G1 X-8.343 Y-5.400
G1 X-10.400 Y-5.400
G1 X-10.401 Y0.000
G1 X-10.801 Y0.000
G1 X-10.800 Y5.800
G1 X-7.943 Y5.800
G1 X-7.943 Y-5.800
G1 X-10.800 Y-5.800
G1 X-10.801 Y0.000
G1 X-11.201 Y0.000
G1 X-11.200 Y6.200
G1 X-7.543 Y6.200
G1 X-7.543 Y-6.200
G1 X-11.200 Y-6.200
G1 X-11.201 Y0.000
G1 X-11.601 Y0.000
G1 X-11.600 Y6.600
G1 X-7.143 Y6.600
G1 X-7.143 Y-6.600
G1 X-11.600 Y-6.600
G1 X-11.601 Y0.000
G1 X-12.001 Y0.000
G1 X-12.000 Y7.000
G1 X-6.743 Y7.000
G1 X-6.743 Y-7.000
G1 X-12.000 Y-7.000
G1 X-12.001 Y0.000
G1 X-12.401 Y0.000
G1 X-12.400 Y7.400
G1 X-6.343 Y7.400
G1 X-6.343 Y-7.400
G1 X-12.400 Y-7.400
G1 X-12.401 Y0.000
G1 X-12.801 Y0.000
G1 X-12.800 Y7.800
G1 X-5.943 Y7.800
G1 X-5.943 Y-7.800
G1 X-12.800 Y-7.800
G1 X-12.801 Y0.000
G1 X-13.201 Y0.000
G1 X-13.200 Y8.200
G1 X-5.543 Y8.200
G1 X-5.543 Y-8.200
G1 X-13.200 Y-8.200
G1 X-13.201 Y0.000
G1 X-13.601 Y0.000
G1 X-13.600 Y8.600
G1 X-5.143 Y8.600
G1 X-5.143 Y-8.600
G1 X-13.600 Y-8.600
G1 X-13.601 Y0.000
G1 X-14.001 Y0.000
G1 X-14.000 Y9.000
G1 X-4.743 Y9.000
G1 X-4.743 Y-9.000
G1 X-14.000 Y-9.000
G1 X-14.001 Y0.000
G1 X-14.401 Y0.000
G1 X-14.400 Y9.400
G1 X-4.343 Y9.400
G1 X-4.343 Y-9.400
G1 X-14.400 Y-9.400
G1 X-14.401 Y0.000
G1 X-14.801 Y0.000
G1 X-14.800 Y9.800
G1 X-3.943 Y9.800
G1 X-3.943 Y-9.800
G1 X-14.800 Y-9.800
G1 X-14.801 Y0.000
G1 X-14.801 Y0.000 Z3.500
G1 X-14.801 Y0.000 Z3.900
G1 X-14.801 Y0.000
G1 X-14.800 Y-9.800
G1 X-4.057 Y-9.800
G1 X-4.057 Y9.800
G1 X-14.800 Y9.800
G1 X-14.801 Y0.000
G1 X-14.401 Y0.000
G1 X-14.400 Y-9.400
G1 X-4.457 Y-9.400
G1 X-4.457 Y9.400
G1 X-14.400 Y9.400
G1 X-14.401 Y0.000
G1 X-14.001 Y0.000
G1 X-14.000 Y-9.000
G1 X-4.857 Y-9.000
G1 X-4.857 Y9.000
G1 X-14.000 Y9.000
G1 X-14.001 Y0.000
G1 X-13.601 Y0.000
G1 X-13.600 Y-8.600
G1 X-5.257 Y-8.600
G1 X-5.257 Y8.600
G1 X-13.600 Y8.600
G1 X-13.601 Y0.000
G1 X-13.201 Y0.000
G1 X-13.200 Y-8.200
G1 X-5.657 Y-8.200
G1 X-5.657 Y8.200
G1 X-13.200 Y8.200
G1 X-13.201 Y0.000
G1 X-12.801 Y0.000
G1 X-12.800 Y-7.800
G1 X-6.057 Y-7.800
G1 X-6.057 Y7.800
G1 X-12.800 Y7.800
G1 X-12.801 Y0.000
G1 X-12.401 Y0.000
G1 X-12.400 Y-7.400
G1 X-6.457 Y-7.400
G1 X-6.457 Y7.400
G1 X-12.400 Y7.400
G1 X-12.401 Y0.000
G1 X-12.001 Y0.000
G1 X-12.000 Y-7.000
G1 X-6.857 Y-7.000
G1 X-6.857 Y7.000
G1 X-12.000 Y7.000
G1 X-12.001 Y0.000
G1 X-11.601 Y0.000
G1 X-11.600 Y-6.600
G1 X-7.257 Y-6.600
G1 X-7.257 Y6.600
G1 X-11.600 Y6.600
G1 X-11.601 Y0.000
G1 X-11.201 Y0.000
G1 X-11.200 Y-6.200
G1 X-7.657 Y-6.200
G1 X-7.657 Y6.200
G1 X-11.200 Y6.200
G1 X-11.201 Y0.000
G1 X-10.801 Y0.000
G1 X-10.800 Y-5.800
G1 X-8.057 Y-5.800
G1 X-8.057 Y5.800
G1 X-10.800 Y5.800
G1 X-10.801 Y0.000
G1 X-10.401 Y0.000
G1 X-10.400 Y-5.400
G1 X-8.457 Y-5.400
G1 X-8.457 Y5.400
G1 X-10.400 Y5.400
G1 X-10.401 Y0.000
G1 X-10.001 Y0.000
G1 X-10.000 Y-5.000
G1 X-8.857 Y-5.000
G1 X-8.857 Y5.000
G1 X-10.000 Y5.000
G1 X-10.001 Y0.000
G1 X-9.601 Y0.000
G1 X-9.601 Y-4.600
G1 X-9.257 Y-4.600
G1 X-9.257 Y4.600
G1 X-9.601 Y4.600
G1 X-9.601 Y0.000
G1 X-9.601 Y0.000 Z4.300
G1 X-9.601 Y0.000
G1 X-9.601 Y4.600
G1 X-9.313 Y4.600
G1 X-9.313 Y-4.600
G1 X-9.601 Y-4.600
G1 X-9.601 Y0.000
G1 X-10.001 Y0.000
G1 X-10.000 Y5.000
G1 X-8.913 Y5.000
G1 X-8.913 Y-5.000
G1 X-10.000 Y-5.000
G1 X-10.001 Y0.000
G1 X-10.401 Y0.000
G1 X-10.400 Y5.400
G1 X-8.513 Y5.400
G1 X-8.513 Y-5.400
G1 X-10.400 Y-5.400
G1 X-10.401 Y0.000
G1 X-10.801 Y0.000
G1 X-10.800 Y5.800
G1 X-8.113 Y5.800
G1 X-8.113 Y-5.800
G1 X-10.800 Y-5.800
G1 X-10.801 Y0.000
G1 X-11.201 Y0.000
G1 X-11.200 Y6.200
G1 X-7.713 Y6.200
G1 X-7.713 Y-6.200
G1 X-11.200 Y-6.200
G1 X-11.201 Y0.000
G1 X-11.601 Y0.000
G1 X-11.600 Y6.600
G1 X-7.313 Y6.600
G1 X-7.313 Y-6.600
G1 X-11.600 Y-6.600
G1 X-11.601 Y0.000
G1 X-12.001 Y0.000
G1 X-12.000 Y7.000
G1 X-6.913 Y7.000
G1 X-6.913 Y-7.000
G1 X-12.000 Y-7.000
G1 X-12.001 Y0.000
G1 X-12.401 Y0.000
G1 X-12.400 Y7.400
G1 X-6.513 Y7.400
G1 X-6.513 Y-7.400
G1 X-12.400 Y-7.400
G1 X-12.401 Y0.000
G1 X-12.801 Y0.000
G1 X-12.800 Y7.800
G1 X-6.113 Y7.800
G1 X-6.113 Y-7.800
G1 X-12.800 Y-7.800
G1 X-12.801 Y0.000
G1 X-13.201 Y0.000
G1 X-13.200 Y8.200
G1 X-5.713 Y8.200
G1 X-5.713 Y-8.200
G1 X-13.200 Y-8.200
G1 X-13.201 Y0.000
G1 X-13.601 Y0.000
G1 X-13.600 Y8.600
G1 X-5.313 Y8.600
G1 X-5.313 Y-8.600
G1 X-13.600 Y-8.600
G1 X-13.601 Y0.000
G1 X-14.001 Y0.000
G1 X-14.000 Y9.000
G1 X-4.913 Y9.000
G1 X-4.913 Y-9.000
G1 X-14.000 Y-9.000
G1 X-14.001 Y0.000
G1 X-14.401 Y0.000
G1 X-14.400 Y9.400
G1 X-4.513 Y9.400
G1 X-4.513 Y-9.400
G1 X-14.400 Y-9.400
G1 X-14.401 Y0.000
G1 X-14.801 Y0.000
G1 X-14.800 Y9.800
G1 X-4.113 Y9.800
G1 X-4.113 Y-9.800
G1 X-14.800 Y-9.800
G1 X-14.801 Y0.000
G1 X-14.801 Y0.000 Z4.300
M9
G1 Z10.000
G1 X15.001 Y0.000
G1 Z1.500
M7
G4 P150
G1 X14.801 Y0.000 Z1.500
G1 X14.801 Y0.000
G1 X14.800 Y9.800
G1 X1.824 Y9.800
G1 X1.824 Y-9.800
G1 X14.800 Y-9.800
G1 X14.801 Y0.000
G1 X14.401 Y0.000
G1 X14.400 Y9.400
G1 X2.224 Y9.400
G1 X2.224 Y-9.400
G1 X14.400 Y-9.400
G1 X14.401 Y0.000
G1 X14.001 Y0.000
G1 X14.000 Y9.000
G1 X2.624 Y9.000
G1 X2.624 Y-9.000
G1 X14.000 Y-9.000
G1 X14.001 Y0.000
G1 X13.601 Y0.000
G1 X13.600 Y8.600
G1 X3.024 Y8.600
G1 X3.024 Y-8.600
G1 X13.600 Y-8.600
G1 X13.601 Y0.000
G1 X13.201 Y0.000
G1 X13.200 Y8.200
G1 X3.424 Y8.200
G1 X3.424 Y-8.200
G1 X13.200 Y-8.200
G1 X13.201 Y0.000
G1 X12.801 Y0.000
G1 X12.800 Y7.800
G1 X3.824 Y7.800
G1 X3.824 Y-7.800
G1 X12.800 Y-7.800
G1 X12.801 Y0.000
G1 X12.401 Y0.000
G1 X12.400 Y7.400
G1 X4.224 Y7.400
G1 X4.224 Y-7.400
G1 X12.400 Y-7.400
G1 X12.401 Y0.000
G1 X12.001 Y0.000
G1 X12.000 Y7.000
G1 X4.624 Y7.000
G1 X4.624 Y-7.000
G1 X12.000 Y-7.000
G1 X12.001 Y0.000
G1 X11.601 Y0.000
G1 X11.600 Y6.600
G1 X5.024 Y6.600
G1 X5.024 Y-6.600
G1 X11.600 Y-6.600
G1 X11.601 Y0.000
G1 X11.201 Y0.000
G1 X11.200 Y6.200
G1 X5.424 Y6.200
G1 X5.424 Y-6.200
G1 X11.200 Y-6.200
G1 X11.201 Y0.000
G1 X10.801 Y0.000
G1 X10.800 Y5.800
G1 X5.824 Y5.800
G1 X5.824 Y-5.800
G1 X10.800 Y-5.800
G1 X10.801 Y0.000
G1 X10.401 Y0.000
G1 X10.400 Y5.400
G1 X6.224 Y5.400
G1 X6.224 Y-5.400
G1 X10.400 Y-5.400
G1 X10.401 Y0.000
G1 X10.001 Y0.000
G1 X10.000 Y5.000
G1 X6.624 Y5.000
G1 X6.624 Y-5.000
G1 X10.000 Y-5.000
G1 X10.001 Y0.000
G1 X9.601 Y0.000
G1 X9.601 Y4.600
G1 X7.024 Y4.600
G1 X7.024 Y-4.600
G1 X9.601 Y-4.600
G1 X9.601 Y0.000
G1 X9.201 Y0.000
G1 X9.201 Y4.200
G1 X7.424 Y4.200
G1 X7.424 Y-4.200
G1 X9.201 Y-4.200
G1 X9.201 Y0.000
G1 X8.801 Y0.000
G1 X8.801 Y3.800
G1 X7.824 Y3.800
G1 X7.824 Y-3.800
G1 X8.801 Y-3.800
G1 X8.801 Y0.000
G1 X8.401 Y0.000
G1 X8.401 Y3.400
G1 X8.224 Y3.400
G1 X8.224 Y-3.400
G1 X8.401 Y-3.400
G1 X8.401 Y0.000
G1 X8.801 Y0.000 Z1.900
G1 X8.801 Y0.000
G1 X8.801 Y-3.800
G1 X8.652 Y-3.800
G1 X8.652 Y3.800
G1 X8.801 Y3.800
G1 X8.801 Y0.000
G1 X9.201 Y0.000
G1 X9.201 Y-4.200
G1 X8.252 Y-4.200
G1 X8.252 Y4.200
G1 X9.201 Y4.200
G1 X9.201 Y0.000
G1 X9.601 Y0.000
G1 X9.601 Y-4.600
G1 X7.852 Y-4.600
G1 X7.852 Y4.600
G1 X9.601 Y4.600
G1 X9.601 Y0.000
G1 X10.001 Y0.000
G1 X10.000 Y-5.000
G1 X7.452 Y-5.000
G1 X7.452 Y5.000
G1 X10.000 Y5.000
G1 X10.001 Y0.000
G1 X10.401 Y0.000
G1 X10.400 Y-5.400
G1 X7.052 Y-5.400
G1 X7.052 Y5.400
G1 X10.400 Y5.400
G1 X10.401 Y0.000
G1 X10.801 Y0.000
G1 X10.800 Y-5.800
G1 X6.652 Y-5.800
G1 X6.652 Y5.800
G1 X10.800 Y5.800
G1 X10.801 Y0.000
G1 X11.201 Y0.000
G1 X11.200 Y-6.200
G1 X6.252 Y-6.200
G1 X6.252 Y6.200
G1 X11.200 Y6.200
G1 X11.201 Y0.000
G1 X11.601 Y0.000
G1 X11.600 Y-6.600
G1 X5.852 Y-6.600
G1 X5.852 Y6.600
G1 X11.600 Y6.600
G1 X11.601 Y0.000
G1 X12.001 Y0.000
G1 X12.000 Y-7.000
G1 X5.452 Y-7.000
G1 X5.452 Y7.000
G1 X12.000 Y7.000
G1 X12.001 Y0.000
G1 X12.401 Y0.000
G1 X12.400 Y-7.400
G1 X5.052 Y-7.400
G1 X5.052 Y7.400
G1 X12.400 Y7.400
G1 X12.401 Y0.000
G1 X12.801 Y0.000
G1 X12.800 Y-7.800
G1 X4.652 Y-7.800
G1 X4.652 Y7.800
G1 X12.800 Y7.800
G1 X12.801 Y0.000
G1 X13.201 Y0.000
G1 X13.200 Y-8.200
G1 X4.252 Y-8.200
G1 X4.252 Y8.200
G1 X13.200 Y8.200
G1 X13.201 Y0.000
G1 X13.601 Y0.000
G1 X13.600 Y-8.600
G1 X3.852 Y-8.600
G1 X3.852 Y8.600
G1 X13.600 Y8.600
G1 X13.601 Y0.000
G1 X14.001 Y0.000
G1 X14.000 Y-9.000
G1 X3.452 Y-9.000
G1 X3.452 Y9.000
G1 X14.000 Y9.000
G1 X14.001 Y0.000
G1 X14.401 Y0.000
G1 X14.400 Y-9.400
G1 X3.052 Y-9.400
G1 X3.052 Y9.400
G1 X14.400 Y9.400
G1 X14.401 Y0.000
G1 X14.801 Y0.000
G1 X14.800 Y-9.800
G1 X2.652 Y-9.800
G1 X2.652 Y9.800
G1 X14.800 Y9.800
G1 X14.801 Y0.000
G1 X14.801 Y0.000 Z1.900
G1 X14.801 Y0.000 Z2.300
G1 X14.801 Y0.000
G1 X14.800 Y9.800
G1 X3.156 Y9.800
G1 X3.156 Y-9.800
G1 X14.800 Y-9.800
G1 X14.801 Y0.000
G1 X14.401 Y0.000
G1 X14.400 Y9.400
G1 X3.556 Y9.400
G1 X3.556 Y-9.400
G1 X14.400 Y-9.400
G1 X14.401 Y0.000
G1 X14.001 Y0.000
G1 X14.000 Y9.000
G1 X3.956 Y9.000
G1 X3.956 Y-9.000
G1 X14.000 Y-9.000
G1 X14.001 Y0.000
G1 X13.601 Y0.000
G1 X13.600 Y8.600
G1 X4.356 Y8.600
G1 X4.356 Y-8.600
G1 X13.600 Y-8.600
G1 X13.601 Y0.000
G1 X13.201 Y0.000
G1 X13.200 Y8.200
G1 X4.756 Y8.200
G1 X4.756 Y-8.200
G1 X13.200 Y-8.200
G1 X13.201 Y0.000
G1 X12.801 Y0.000
G1 X12.800 Y7.800
G1 X5.156 Y7.800
G1 X5.156 Y-7.800
G1 X12.800 Y-7.800
G1 X12.801 Y0.000
G1 X12.401 Y0.000
G1 X12.400 Y7.400
G1 X5.556 Y7.400
G1 X5.556 Y-7.400
G1 X12.400 Y-7.400
G1 X12.401 Y0.000
G1 X12.001 Y0.000
G1 X12.000 Y7.000
G1 X5.956 Y7.000
G1 X5.956 Y-7.000
G1 X12.000 Y-7.000
G1 X12.001 Y0.000
G1 X11.601 Y0.000
G1 X11.600 Y6.600
G1 X6.356 Y6.600
G1 X6.356 Y-6.600
G1 X11.600 Y-6.600
G1 X11.601 Y0.000
G1 X11.201 Y0.000
G1 X11.200 Y6.200
G1 X6.756 Y6.200
G1 X6.756 Y-6.200
G1 X11.200 Y-6.200
G1 X11.201 Y0.000
G1 X10.801 Y0.000
G1 X10.800 Y5.800
G1 X7.156 Y5.800
G1 X7.156 Y-5.800
G1 X10.800 Y-5.800
G1 X10.801 Y0.000
G1 X10.401 Y0.000
G1 X10.400 Y5.400
G1 X7.556 Y5.400
G1 X7.556 Y-5.400
G1 X10.400 Y-5.400
G1 X10.401 Y0.000
G1 X10.001 Y0.000
G1 X10.000 Y5.000
G1 X7.956 Y5.000
G1 X7.956 Y-5.000
G1 X10.000 Y-5.000
G1 X10.001 Y0.000
G1 X9.601 Y0.000
G1 X9.601 Y4.600
G1 X8.356 Y4.600
G1 X8.356 Y-4.600
G1 X9.601 Y-4.600
G1 X9.601 Y0.000
G1 X9.201 Y0.000
G1 X9.201 Y4.200
G1 X8.756 Y4.200
G1 X8.756 Y-4.200
G1 X9.201 Y-4.200
G1 X9.201 Y0.000
G1 X9.201 Y0.000 Z2.700
G1 X9.201 Y0.000
G1 X9.201 Y-4.200
G1 X9.110 Y-4.200
G1 X9.110 Y4.200
G1 X9.201 Y4.200
G1 X9.201 Y0.000
G1 X9.601 Y0.000
G1 X9.601 Y-4.600
G1 X8.710 Y-4.600
G1 X8.710 Y4.600
G1 X9.601 Y4.600
G1 X9.601 Y0.000
G1 X10.001 Y0.000
G1 X10.000 Y-5.000
G1 X8.310 Y-5.000
G1 X8.310 Y5.000
G1 X10.000 Y5.000
G1 X10.001 Y0.000
G1 X10.401 Y0.000
G1 X10.400 Y-5.400
G1 X7.910 Y-5.400
G1 X7.910 Y5.400
G1 X10.400 Y5.400
G1 X10.401 Y0.000
G1 X10.801 Y0.000
G1 X10.800 Y-5.800
G1 X7.510 Y-5.800
G1 X7.510 Y5.800
G1 X10.800 Y5.800
G1 X10.801 Y0.000
G1 X11.201 Y0.000
G1 X11.200 Y-6.200
G1 X7.110 Y-6.200
G1 X7.110 Y6.200
G1 X11.200 Y6.200
G1 X11.201 Y0.000
G1 X11.601 Y0.000
G1 X11.600 Y-6.600
G1 X6.710 Y-6.600
G1 X6.710 Y6.600
G1 X11.600 Y6.600
G1 X11.601 Y0.000
G1 X12.001 Y0.000
G1 X12.000 Y-7.000
G1 X6.310 Y-7.000
G1 X6.310 Y7.000
G1 X12.000 Y7.000
G1 X12.001 Y0.000
G1 X12.401 Y0.000
G1 X12.400 Y-7.400
G1 X5.910 Y-7.400
G1 X5.910 Y7.400
G1 X12.400 Y7.400
G1 X12.401 Y0.000
G1 X12.801 Y0.000
G1 X12.800 Y-7.800
G1 X5.510 Y-7.800
G1 X5.510 Y7.800
G1 X12.800 Y7.800
G1 X12.801 Y0.000
G1 X13.201 Y0.000
G1 X13.200 Y-8.200
G1 X5.110 Y-8.200
G1 X5.110 Y8.200
G1 X13.200 Y8.200
G1 X13.201 Y0.000
G1 X13.601 Y0.000
G1 X13.600 Y-8.600
G1 X4.710 Y-8.600
G1 X4.710 Y8.600
G1 X13.600 Y8.600
G1 X13.601 Y0.000
G1 X14.001 Y0.000
G1 X14.000 Y-9.000
G1 X4.310 Y-9.000
G1 X4.310 Y9.000
G1 X14.000 Y9.000
G1 X14.001 Y0.000
G1 X14.401 Y0.000
G1 X14.400 Y-9.400
G1 X3.910 Y-9.400
G1 X3.910 Y9.400
G1 X14.400 Y9.400
G1 X14.401 Y0.000
G1 X14.801 Y0.000
G1 X14.800 Y-9.800
G1 X3.510 Y-9.800
G1 X3.510 Y9.800
G1 X14.800 Y9.800
G1 X14.801 Y0.000
G1 X14.801 Y0.000 Z2.700
G1 X14.801 Y0.000 Z3.100
G1 X14.801 Y0.000
G1 X14.800 Y9.800
G1 X3.765 Y9.800
G1 X3.765 Y-9.800
G1 X14.800 Y-9.800
G1 X14.801 Y0.000
G1 X14.401 Y0.000
G1 X14.400 Y9.400
G1 X4.165 Y9.400
G1 X4.165 Y-9.400
G1 X14.400 Y-9.400
G1 X14.401 Y0.000
G1 X14.001 Y0.000
G1 X14.000 Y9.000
G1 X4.565 Y9.000
G1 X4.565 Y-9.000
G1 X14.000 Y-9.000
G1 X14.001 Y0.000
G1 X13.601 Y0.000
G1 X13.600 Y8.600
G1 X4.965 Y8.600
G1 X4.965 Y-8.600
G1 X13.600 Y-8.600
G1 X13.601 Y0.000
G1 X13.201 Y0.000
G1 X13.200 Y8.200
G1 X5.365 Y8.200
G1 X5.365 Y-8.200
G1 X13.200 Y-8.200
G1 X13.201 Y0.000
G1 X12.801 Y0.000
G1 X12.800 Y7.800
G1 X5.765 Y7.800
G1 X5.765 Y-7.800
G1 X12.800 Y-7.800
G1 X12.801 Y0.000
G1 X12.401 Y0.000
G1 X12.400 Y7.400
G1 X6.165 Y7.400
G1 X6.165 Y-7.400
G1 X12.400 Y-7.400
G1 X12.401 Y0.000
G1 X12.001 Y0.000
G1 X12.000 Y7.000
G1 X6.565 Y7.000
G1 X6.565 Y-7.000
G1 X12.000 Y-7.000
G1 X12.001 Y0.000
G1 X11.601 Y0.000
G1 X11.600 Y6.600
G1 X6.965 Y6.600
G1 X6.965 Y-6.600
G1 X11.600 Y-6.600
G1 X11.601 Y0.000
G1 X11.201 Y0.000
G1 X11.200 Y6.200
G1 X7.365 Y6.200
G1 X7.365 Y-6.200
G1 X11.200 Y-6.200
G1 X11.201 Y0.000
G1 X10.801 Y0.000
G1 X10.800 Y5.800
G1 X7.765 Y5.800
G1 X7.765 Y-5.800
G1 X10.800 Y-5.800
G1 X10.801 Y0.000
G1 X10.401 Y0.000
G1 X10.400 Y5.400
G1 X8.165 Y5.400
G1 X8.165 Y-5.400
G1 X10.400 Y-5.400
G1 X10.401 Y0.000
G1 X10.001 Y0.000
G1 X10.000 Y5.000
G1 X8.565 Y5.000
G1 X8.565 Y-5.000
G1 X10.000 Y-5.000
G1 X10.001 Y0.000
G1 X9.601 Y0.000
G1 X9.601 Y4.600
G1 X8.965 Y4.600
G1 X8.965 Y-4.600
G1 X9.601 Y-4.600
G1 X9.601 Y0.000
G1 X9.601 Y0.000 Z3.500
G1 X9.601 Y0.000
G1 X9.601 Y-4.600
G1 X9.143 Y-4.600
G1 X9.143 Y4.600
G1 X9.601 Y4.600
G1 X9.601 Y0.000
G1 X10.001 Y0.000
G1 X10.000 Y-5.000
G1 X8.743 Y-5.000
G1 X8.743 Y5.000
G1 X10.000 Y5.000
G1 X10.001 Y0.000
G1 X10.401 Y0.000
G1 X10.400 Y-5.400
G1 X8.343 Y-5.400
G1 X8.343 Y5.400
G1 X10.400 Y5.400
G1 X10.401 Y0.000
G1 X10.801 Y0.000
G1 X10.800 Y-5.800
G1 X7.943 Y-5.800
G1 X7.943 Y5.800
G1 X10.800 Y5.800
G1 X10.801 Y0.000
G1 X11.201 Y0.000
G1 X11.200 Y-6.200
G1 X7.543 Y-6.200
G1 X7.543 Y6.200
G1 X11.200 Y6.200
G1 X11.201 Y0.000
G1 X11.601 Y0.000
G1 X11.600 Y-6.600
G1 X7.143 Y-6.600
G1 X7.143 Y6.600
G1 X11.600 Y6.600
G1 X11.601 Y0.000
G1 X12.001 Y0.000
G1 X12.000 Y-7.000
G1 X6.743 Y-7.000
G1 X6.743 Y7.000
G1 X12.000 Y7.000
G1 X12.001 Y0.000
G1 X12.401 Y0.000
G1 X12.400 Y-7.400
G1 X6.343 Y-7.400
G1 X6.343 Y7.400
G1 X12.400 Y7.400
G1 X12.401 Y0.000
G1 X12.801 Y0.000
G1 X12.800 Y-7.800
G1 X5.943 Y-7.800
G1 X5.943 Y7.800
G1 X12.800 Y7.800
G1 X12.801 Y0.000
G1 X13.201 Y0.000
G1 X13.200 Y-8.200
G1 X5.543 Y-8.200
G1 X5.543 Y8.200
G1 X13.200 Y8.200
G1 X13.201 Y0.000
G1 X13.601 Y0.000
G1 X13.600 Y-8.600
G1 X5.143 Y-8.600
G1 X5.143 Y8.600
G1 X13.600 Y8.600
G1 X13.601 Y0.000
G1 X14.001 Y0.000
G1 X14.000 Y-9.000
G1 X4.743 Y-9.000
G1 X4.743 Y9.000
G1 X14.000 Y9.000
G1 X14.001 Y0.000
G1 X14.401 Y0.000
G1 X14.400 Y-9.400
G1 X4.343 Y-9.400
G1 X4.343 Y9.400
G1 X14.400 Y9.400
G1 X14.401 Y0.000
G1 X14.801 Y0.000
G1 X14.800 Y-9.800
G1 X3.943 Y-9.800
G1 X3.943 Y9.800
G1 X14.800 Y9.800
G1 X14.801 Y0.000
G1 X14.801 Y0.000 Z3.500
G1 X14.801 Y0.000 Z3.900
G1 X14.801 Y0.000
G1 X14.800 Y9.800
G1 X4.057 Y9.800
G1 X4.057 Y-9.800
G1 X14.800 Y-9.800
G1 X14.801 Y0.000
G1 X14.401 Y0.000
G1 X14.400 Y9.400
G1 X4.457 Y9.400
G1 X4.457 Y-9.400
G1 X14.400 Y-9.400
G1 X14.401 Y0.000
G1 X14.001 Y0.000
G1 X14.000 Y9.000
G1 X4.857 Y9.000
G1 X4.857 Y-9.000
G1 X14.000 Y-9.000
G1 X14.001 Y0.000
G1 X13.601 Y0.000
G1 X13.600 Y8.600
G1 X5.257 Y8.600
G1 X5.257 Y-8.600
G1 X13.600 Y-8.600
G1 X13.601 Y0.000
G1 X13.201 Y0.000
G1 X13.200 Y8.200
G1 X5.657 Y8.200
G1 X5.657 Y-8.200
G1 X13.200 Y-8.200
G1 X13.201 Y0.000
G1 X12.801 Y0.000
G1 X12.800 Y7.800
G1 X6.057 Y7.800
G1 X6.057 Y-7.800
G1 X12.800 Y-7.800
G1 X12.801 Y0.000
G1 X12.401 Y0.000
G1 X12.400 Y7.400
G1 X6.457 Y7.400
G1 X6.457 Y-7.400
G1 X12.400 Y-7.400
G1 X12.401 Y0.000
G1 X12.001 Y0.000
G1 X12.000 Y7.000
G1 X6.857 Y7.000
G1 X6.857 Y-7.000
G1 X12.000 Y-7.000
G1 X12.001 Y0.000
G1 X11.601 Y0.000
G1 X11.600 Y6.600
G1 X7.257 Y6.600
G1 X7.257 Y-6.600
G1 X11.600 Y-6.600
G1 X11.601 Y0.000
G1 X11.201 Y0.000
G1 X11.200 Y6.200
G1 X7.657 Y6.200
G1 X7.657 Y-6.200
G1 X11.200 Y-6.200
G1 X11.201 Y0.000
G1 X10.801 Y0.000
G1 X10.800 Y5.800
G1 X8.057 Y5.800
G1 X8.057 Y-5.800
G1 X10.800 Y-5.800
G1 X10.801 Y0.000
G1 X10.401 Y0.000
G1 X10.400 Y5.400
G1 X8.457 Y5.400
G1 X8.457 Y-5.400
G1 X10.400 Y-5.400
G1 X10.401 Y0.000
G1 X10.001 Y0.000
G1 X10.000 Y5.000
G1 X8.857 Y5.000
G1 X8.857 Y-5.000
G1 X10.000 Y-5.000
G1 X10.001 Y0.000
G1 X9.601 Y0.000
G1 X9.601 Y4.600
G1 X9.257 Y4.600
G1 X9.257 Y-4.600
G1 X9.601 Y-4.600
G1 X9.601 Y0.000
G1 X9.601 Y0.000 Z4.300
G1 X9.601 Y0.000
G1 X9.601 Y-4.600
G1 X9.313 Y-4.600
G1 X9.313 Y4.600
G1 X9.601 Y4.600
G1 X9.601 Y0.000
G1 X10.001 Y0.000
G1 X10.000 Y-5.000
G1 X8.913 Y-5.000
G1 X8.913 Y5.000
G1 X10.000 Y5.000
G1 X10.001 Y0.000
G1 X10.401 Y0.000
G1 X10.400 Y-5.400
G1 X8.513 Y-5.400
G1 X8.513 Y5.400
G1 X10.400 Y5.400
G1 X10.401 Y0.000
G1 X10.801 Y0.000
G1 X10.800 Y-5.800
G1 X8.113 Y-5.800
G1 X8.113 Y5.800
G1 X10.800 Y5.800
G1 X10.801 Y0.000
G1 X11.201 Y0.000
G1 X11.200 Y-6.200
G1 X7.713 Y-6.200
G1 X7.713 Y6.200
G1 X11.200 Y6.200
G1 X11.201 Y0.000
G1 X11.601 Y0.000
G1 X11.600 Y-6.600
G1 X7.313 Y-6.600
G1 X7.313 Y6.600
G1 X11.600 Y6.600
G1 X11.601 Y0.000
G1 X12.001 Y0.000
G1 X12.000 Y-7.000
G1 X6.913 Y-7.000
G1 X6.913 Y7.000
G1 X12.000 Y7.000
G1 X12.001 Y0.000
G1 X12.401 Y0.000
G1 X12.400 Y-7.400
G1 X6.513 Y-7.400
G1 X6.513 Y7.400
G1 X12.400 Y7.400
G1 X12.401 Y0.000
G1 X12.801 Y0.000
G1 X12.800 Y-7.800
G1 X6.113 Y-7.800
G1 X6.113 Y7.800
G1 X12.800 Y7.800
G1 X12.801 Y0.000
G1 X13.201 Y0.000
G1 X13.200 Y-8.200
G1 X5.713 Y-8.200
G1 X5.713 Y8.200
G1 X13.200 Y8.200
G1 X13.201 Y0.000
G1 X13.601 Y0.000
G1 X13.600 Y-8.600
G1 X5.313 Y-8.600
G1 X5.313 Y8.600
G1 X13.600 Y8.600
G1 X13.601 Y0.000
G1 X14.001 Y0.000
G1 X14.000 Y-9.000
G1 X4.913 Y-9.000
G1 X4.913 Y9.000
G1 X14.000 Y9.000
G1 X14.001 Y0.000
G1 X14.401 Y0.000
G1 X14.400 Y-9.400
G1 X4.513 Y-9.400
G1 X4.513 Y9.400
G1 X14.400 Y9.400
G1 X14.401 Y0.000
G1 X14.801 Y0.000
G1 X14.800 Y-9.800
G1 X4.113 Y-9.800
G1 X4.113 Y9.800
G1 X14.800 Y9.800
G1 X14.801 Y0.000
G1 X14.801 Y0.000 Z4.300
M9
G1 Z10.000
G1 X1.500 Y-9.800
G1 Z1.500
M7
G4 P150G1 X2.914 Y-9.8 Z1.500
G1 X-2.914 Y-9.8 Z1.500
G1 X-3.665 Y-9.8 Z1.900
G1 X3.665 Y-9.8 Z1.900
G1 X4.124 Y-9.8 Z2.300
G1 X-4.124 Y-9.8 Z2.300
G1 X-4.446 Y-9.8 Z2.700
G1 X4.446 Y-9.8 Z2.700
G1 X4.677 Y-9.8 Z3.100
G1 X-4.677 Y-9.8 Z3.100
G1 X-4.840 Y-9.8 Z3.500
G1 X4.840 Y-9.8 Z3.500
G1 X4.943 Y-9.8 Z3.900
G1 X-4.943 Y-9.8 Z3.900
G1 X-4.994 Y-9.8 Z4.300
G1 X4.994 Y-9.8 Z4.300

M9
G1 Z10.000
G1 X1.500 Y9.800
G1 Z1.500
M7
G4 P150G1 X2.914 Y9.8 Z1.500
G1 X-2.914 Y9.8 Z1.500
G1 X-3.665 Y9.8 Z1.900
G1 X3.665 Y9.8 Z1.900
G1 X4.124 Y9.8 Z2.300
G1 X-4.124 Y9.8 Z2.300
G1 X-4.446 Y9.8 Z2.700
G1 X4.446 Y9.8 Z2.700
G1 X4.677 Y9.8 Z3.100
G1 X-4.677 Y9.8 Z3.100
G1 X-4.840 Y9.8 Z3.500
G1 X4.840 Y9.8 Z3.500
G1 X4.943 Y9.8 Z3.900
G1 X-4.943 Y9.8 Z3.900
G1 X-4.994 Y9.8 Z4.300
G1 X4.994 Y9.8 Z4.300

M9
G1 Z10.000
G1 X-15.000 Y-9.800
G1 Z4.700
M7
G4 P150
G1 X13.800 Y-9.800
G1 X13.800 Y-9.400
G1 X-13.800 Y-9.400
G1 X-13.800 Y-9.000
G1 X13.800 Y-9.000
G1 X13.800 Y-8.600
G1 X-13.800 Y-8.600
G1 X-13.800 Y-8.200
G1 X13.800 Y-8.200
G1 X13.800 Y-7.800
G1 X-13.800 Y-7.800
G1 X-13.800 Y-7.400
G1 X13.800 Y-7.400
G1 X13.800 Y-7.000
G1 X-13.800 Y-7.000
G1 X-13.800 Y-6.600
G1 X13.800 Y-6.600
G1 X13.800 Y-6.200
G1 X-13.800 Y-6.200
G1 X-13.800 Y-5.800
G1 X13.800 Y-5.800
G1 X13.800 Y-5.400
G1 X-13.800 Y-5.400
G1 X-13.800 Y-5.000
G1 X13.800 Y-5.000
G1 X13.800 Y-4.600
G1 X-13.800 Y-4.600
G1 X-13.800 Y-4.200
G1 X13.800 Y-4.200
G1 X13.800 Y-3.800
G1 X-13.800 Y-3.800
G1 X-13.800 Y-3.400
G1 X13.800 Y-3.400
G1 X13.800 Y-3.000
G1 X-13.800 Y-3.000
G1 X-13.800 Y-2.600
G1 X13.800 Y-2.600
G1 X13.800 Y-2.200
G1 X-13.800 Y-2.200
G1 X-13.800 Y-1.800
G1 X13.800 Y-1.800
G1 X13.800 Y-1.400
G1 X-13.800 Y-1.400
G1 X-13.800 Y-1.000
G1 X13.800 Y-1.000
G1 X13.800 Y-0.600
G1 X-13.800 Y-0.600
G1 X-13.800 Y-0.200
G1 X13.800 Y-0.200
G1 X13.800 Y0.200
G1 X-13.800 Y0.200
G1 X-13.800 Y0.600
G1 X13.800 Y0.600
G1 X13.800 Y1.000
G1 X-13.800 Y1.000
G1 X-13.800 Y1.400
G1 X13.800 Y1.400
G1 X13.800 Y1.800
G1 X-13.800 Y1.800
G1 X-13.800 Y2.200
G1 X13.800 Y2.200
G1 X13.800 Y2.600
G1 X-13.800 Y2.600
G1 X-13.800 Y3.000
G1 X13.800 Y3.000
G1 X13.800 Y3.400
G1 X-13.800 Y3.400
G1 X-13.800 Y3.800
G1 X13.800 Y3.800
G1 X13.800 Y4.200
G1 X-13.800 Y4.200
G1 X-13.800 Y4.600
G1 X13.800 Y4.600
G1 X13.800 Y5.000
G1 X-13.800 Y5.000
G1 X-13.800 Y5.400
G1 X13.800 Y5.400
G1 X13.800 Y5.800
G1 X-13.800 Y5.800
G1 X-13.800 Y6.200
G1 X13.800 Y6.200
G1 X13.800 Y6.600
G1 X-13.800 Y6.600
G1 X-13.800 Y7.000
G1 X13.800 Y7.000
G1 X13.800 Y7.400
G1 X-13.800 Y7.400
G1 X-13.800 Y7.800
G1 X13.800 Y7.800
G1 X13.800 Y8.200
G1 X-13.800 Y8.200
G1 X-13.800 Y8.600
G1 X13.800 Y8.600
G1 X13.800 Y9.000
G1 X-13.800 Y9.000
G1 X-13.800 Y9.400
G1 X13.800 Y9.400
G1 X13.800 Y9.800
G1 X-13.800 Y9.800
M9
G1 Z10.000
G1 X-15.000 Y-9.800
G1 Z5.100
M7
G4 P150
G1 X13.800 Y-9.800
G1 X13.800 Y-9.400
G1 X-13.800 Y-9.400
G1 X-13.800 Y-9.000
G1 X13.800 Y-9.000
G1 X13.800 Y-8.600
G1 X-13.800 Y-8.600
G1 X-13.800 Y-8.200
G1 X13.800 Y-8.200
G1 X13.800 Y-7.800
G1 X-13.800 Y-7.800
G1 X-13.800 Y-7.400
G1 X13.800 Y-7.400
G1 X13.800 Y-7.000
G1 X-13.800 Y-7.000
G1 X-13.800 Y-6.600
G1 X13.800 Y-6.600
G1 X13.800 Y-6.200
G1 X-13.800 Y-6.200
G1 X-13.800 Y-5.800
G1 X13.800 Y-5.800
G1 X13.800 Y-5.400
G1 X-13.800 Y-5.400
G1 X-13.800 Y-5.000
G1 X13.800 Y-5.000
G1 X13.800 Y-4.600
G1 X-13.800 Y-4.600
G1 X-13.800 Y-4.200
G1 X13.800 Y-4.200
G1 X13.800 Y-3.800
G1 X-13.800 Y-3.800
G1 X-13.800 Y-3.400
G1 X13.800 Y-3.400
G1 X13.800 Y-3.000
G1 X-13.800 Y-3.000
G1 X-13.800 Y-2.600
G1 X13.800 Y-2.600
G1 X13.800 Y-2.200
G1 X-13.800 Y-2.200
G1 X-13.800 Y-1.800
G1 X13.800 Y-1.800
G1 X13.800 Y-1.400
G1 X-13.800 Y-1.400
G1 X-13.800 Y-1.000
G1 X13.800 Y-1.000
G1 X13.800 Y-0.600
G1 X-13.800 Y-0.600
G1 X-13.800 Y-0.200
G1 X13.800 Y-0.200
G1 X13.800 Y0.200
G1 X-13.800 Y0.200
G1 X-13.800 Y0.600
G1 X13.800 Y0.600
G1 X13.800 Y1.000
G1 X-13.800 Y1.000
G1 X-13.800 Y1.400
G1 X13.800 Y1.400
G1 X13.800 Y1.800
G1 X-13.800 Y1.800
G1 X-13.800 Y2.200
G1 X13.800 Y2.200
G1 X13.800 Y2.600
G1 X-13.800 Y2.600
G1 X-13.800 Y3.000
G1 X13.800 Y3.000
G1 X13.800 Y3.400
G1 X-13.800 Y3.400
G1 X-13.800 Y3.800
G1 X13.800 Y3.800
G1 X13.800 Y4.200
G1 X-13.800 Y4.200
G1 X-13.800 Y4.600
G1 X13.800 Y4.600
G1 X13.800 Y5.000
G1 X-13.800 Y5.000
G1 X-13.800 Y5.400
G1 X13.800 Y5.400
G1 X13.800 Y5.800
G1 X-13.800 Y5.800
G1 X-13.800 Y6.200
G1 X13.800 Y6.200
G1 X13.800 Y6.600
G1 X-13.800 Y6.600
G1 X-13.800 Y7.000
G1 X13.800 Y7.000
G1 X13.800 Y7.400
G1 X-13.800 Y7.400
G1 X-13.800 Y7.800
G1 X13.800 Y7.800
G1 X13.800 Y8.200
G1 X-13.800 Y8.200
G1 X-13.800 Y8.600
G1 X13.800 Y8.600
G1 X13.800 Y9.000
G1 X-13.800 Y9.000
G1 X-13.800 Y9.400
G1 X13.800 Y9.400
G1 X13.800 Y9.800
G1 X-13.800 Y9.800