;layer_height = 0.4
;line_width = 0.4
;layer_count = 10
;mesh = twist_half
G21 ;start of the code
G1 Z15 F300
G28 X0 Y0 ;Home
G92 X0 Y0 ;Consider this as current
G0 X50 Y50 F3000 ;Go-to Offset
G92 X0 Y0 ;Reset

G0 F3600 X-20.000 Y10.000 Z0.300 ;Go to start position
M7
G4 P150


G1 X-19.800 Y9.800 Z0.300
G1 X-19.800 Y9.800
G1 X-19.800 Y-9.800
G1 X6.500 Y-9.800
G1 X6.500 Y9.800
G1 X-19.800 Y9.800
G1 X-19.400 Y9.400
G1 X-19.400 Y-9.400
G1 X6.100 Y-9.400
G1 X6.100 Y9.400
G1 X-19.400 Y9.400
G1 X-19.000 Y9.000
G1 X-19.000 Y-9.000
G1 X5.700 Y-9.000
G1 X5.700 Y9.000
G1 X-19.000 Y9.000
G1 X-18.600 Y8.600
G1 X-18.600 Y-8.600
G1 X5.300 Y-8.600
G1 X5.300 Y8.600
G1 X-18.600 Y8.600
G1 X-18.200 Y8.200
G1 X-18.200 Y-8.200
G1 X4.900 Y-8.200
G1 X4.900 Y8.200
G1 X-18.200 Y8.200
G1 X-17.800 Y7.800
G1 X-17.800 Y-7.800
G1 X4.500 Y-7.800
G1 X4.500 Y7.800
G1 X-17.800 Y7.800
G1 X-17.400 Y7.400
G1 X-17.400 Y-7.400
G1 X4.100 Y-7.400
G1 X4.100 Y7.400
G1 X-17.400 Y7.400
G1 X-17.000 Y7.000
G1 X-17.000 Y-7.000
G1 X3.700 Y-7.000
G1 X3.700 Y7.000
G1 X-17.000 Y7.000
G1 X-16.600 Y6.600
G1 X-16.600 Y-6.600
G1 X3.300 Y-6.600
G1 X3.300 Y6.600
G1 X-16.600 Y6.600
G1 X-16.200 Y6.200
G1 X-16.200 Y-6.200
G1 X2.900 Y-6.200
G1 X2.900 Y6.200
G1 X-16.200 Y6.200
G1 X-15.800 Y5.800
G1 X-15.800 Y-5.800
G1 X2.500 Y-5.800
G1 X2.500 Y5.800
G1 X-15.800 Y5.800
G1 X-15.400 Y5.400
G1 X-15.400 Y-5.400
G1 X2.100 Y-5.400
G1 X2.100 Y5.400
G1 X-15.400 Y5.400
G1 X-15.000 Y5.000
G1 X-15.000 Y-5.000
G1 X1.700 Y-5.000
G1 X1.700 Y5.000
G1 X-15.000 Y5.000
G1 X-14.600 Y4.600
G1 X-14.600 Y-4.600
G1 X1.300 Y-4.600
G1 X1.300 Y4.600
G1 X-14.600 Y4.600
G1 X-14.200 Y4.200
G1 X-14.200 Y-4.200
G1 X0.900 Y-4.200
G1 X0.900 Y4.200
G1 X-14.200 Y4.200
G1 X-13.800 Y3.800
G1 X-13.800 Y-3.800
G1 X0.500 Y-3.800
G1 X0.500 Y3.800
G1 X-13.800 Y3.800
G1 X-13.400 Y3.400
G1 X-13.400 Y-3.400
G1 X0.100 Y-3.400
G1 X0.100 Y3.400
G1 X-13.400 Y3.400
G1 X-13.000 Y3.000
G1 X-13.000 Y-3.000
G1 X-0.300 Y-3.000
G1 X-0.300 Y3.000
G1 X-13.000 Y3.000
G1 X-12.600 Y2.600
G1 X-12.600 Y-2.600
G1 X-0.700 Y-2.600
G1 X-0.700 Y2.600
G1 X-12.600 Y2.600
G1 X-12.200 Y2.200
G1 X-12.200 Y-2.200
G1 X-1.100 Y-2.200
G1 X-1.100 Y2.200
G1 X-12.200 Y2.200
G1 X-11.800 Y1.800
G1 X-11.800 Y-1.800
G1 X-1.500 Y-1.800
G1 X-1.500 Y1.800
G1 X-11.800 Y1.800
G1 X-11.400 Y1.400
G1 X-11.400 Y-1.400
G1 X-1.900 Y-1.400
G1 X-1.900 Y1.400
G1 X-11.400 Y1.400
G1 X-11.000 Y1.000
G1 X-11.000 Y-1.000
G1 X-2.300 Y-1.000
G1 X-2.300 Y1.000
G1 X-11.000 Y1.000
G1 X-10.600 Y0.600
G1 X-10.600 Y-0.600
G1 X-2.700 Y-0.600
G1 X-2.700 Y0.600
G1 X-10.600 Y0.600
G1 X-10.200 Y0.200
G1 X-10.200 Y-0.200
G1 X-3.100 Y-0.200
G1 X-3.100 Y0.200
G1 X-10.200 Y0.200
M9
G1 Z10.000
G1 X15.000 Y-10.000
G1 Z0.300
M7
G4 P150
G1 X19.800 Y-9.800 Z0.300
G1 X19.800 Y-9.800
G1 X19.800 Y9.800
G1 X7.500 Y9.800
G1 X7.500 Y-9.800
G1 X19.800 Y-9.800
G1 X19.400 Y-9.400
G1 X19.400 Y9.400
G1 X7.900 Y9.400
G1 X7.900 Y-9.400
G1 X19.400 Y-9.400
G1 X19.000 Y-9.000
G1 X19.000 Y9.000
G1 X8.300 Y9.000
G1 X8.300 Y-9.000
G1 X19.000 Y-9.000
G1 X18.600 Y-8.600
G1 X18.600 Y8.600
G1 X8.700 Y8.600
G1 X8.700 Y-8.600
G1 X18.600 Y-8.600
G1 X18.200 Y-8.200
G1 X18.200 Y8.200
G1 X9.100 Y8.200
G1 X9.100 Y-8.200
G1 X18.200 Y-8.200
G1 X17.800 Y-7.800
G1 X17.800 Y7.800
G1 X9.500 Y7.800
G1 X9.500 Y-7.800
G1 X17.800 Y-7.800
G1 X17.400 Y-7.400
G1 X17.400 Y7.400
G1 X9.900 Y7.400
G1 X9.900 Y-7.400
G1 X17.400 Y-7.400
G1 X17.000 Y-7.000
G1 X17.000 Y7.000
G1 X10.300 Y7.000
G1 X10.300 Y-7.000
G1 X17.000 Y-7.000
G1 X16.600 Y-6.600
G1 X16.600 Y6.600
G1 X10.700 Y6.600
G1 X10.700 Y-6.600
G1 X16.600 Y-6.600
G1 X16.200 Y-6.200
G1 X16.200 Y6.200
G1 X11.100 Y6.200
G1 X11.100 Y-6.200
G1 X16.200 Y-6.200
G1 X15.800 Y-5.800
G1 X15.800 Y5.800
G1 X11.500 Y5.800
G1 X11.500 Y-5.800
G1 X15.800 Y-5.800
G1 X15.400 Y-5.400
G1 X15.400 Y5.400
G1 X11.900 Y5.400
G1 X11.900 Y-5.400
G1 X15.400 Y-5.400
G1 X15.000 Y-5.000
G1 X15.000 Y5.000
G1 X12.300 Y5.000
G1 X12.300 Y-5.000
G1 X15.000 Y-5.000
G1 X14.600 Y-4.600
G1 X14.600 Y4.600
G1 X12.700 Y4.600
G1 X12.700 Y-4.600
G1 X14.600 Y-4.600
G1 X14.200 Y-4.200
G1 X14.200 Y4.200
G1 X13.100 Y4.200
G1 X13.100 Y-4.200
G1 X14.200 Y-4.200
G1 X13.800 Y-3.800
G1 X13.800 Y3.800
G1 X13.500 Y3.800
G1 X13.500 Y-3.800
G1 X13.800 Y-3.800
M9
G1 Z10.000
G1 X-15.000 Y0.000
G1 Z0.700
M7
G4 P150
G1 X-10.201 Y0.200 Z0.700
G1 X-10.201 Y0.200
G1 X10.200 Y0.200
G1 X10.200 Y-0.200
G1 X-10.201 Y-0.200
G1 X-10.201 Y0.000
G1 X-10.201 Y0.200
G1 X-10.601 Y0.600
G1 X10.600 Y0.600
G1 X10.600 Y-0.600
G1 X-10.601 Y-0.600
G1 X-10.601 Y0.000
G1 X-10.601 Y0.600
G1 X-11.001 Y1.000
G1 X11.000 Y1.000
G1 X11.000 Y-1.000
G1 X-11.001 Y-1.000
G1 X-11.001 Y0.000
G1 X-11.001 Y1.000
G1 X-11.401 Y1.400
G1 X11.400 Y1.400
G1 X11.400 Y-1.400
G1 X-11.401 Y-1.400
G1 X-11.401 Y0.000
G1 X-11.401 Y1.400
G1 X-11.801 Y1.800
G1 X11.800 Y1.800
G1 X11.800 Y-1.800
G1 X-11.801 Y-1.800
G1 X-11.801 Y0.000
G1 X-11.801 Y1.800
G1 X-12.201 Y2.200
G1 X12.200 Y2.200
G1 X12.200 Y-2.200
G1 X-12.201 Y-2.200
G1 X-12.201 Y0.000
G1 X-12.201 Y2.200
G1 X-12.601 Y2.600
G1 X12.600 Y2.600
G1 X12.600 Y-2.600
G1 X-12.601 Y-2.600
G1 X-12.601 Y0.000
G1 X-12.601 Y2.600
G1 X-13.001 Y3.000
G1 X13.000 Y3.000
G1 X13.000 Y-3.000
G1 X-13.001 Y-3.000
G1 X-13.001 Y0.000
G1 X-13.001 Y3.000
G1 X-13.401 Y3.400
G1 X13.400 Y3.400
G1 X13.400 Y-3.400
G1 X-13.401 Y-3.400
G1 X-13.401 Y0.000
G1 X-13.401 Y3.400
G1 X-13.801 Y3.800
G1 X13.800 Y3.800
G1 X13.800 Y-3.800
G1 X-13.801 Y-3.800
G1 X-13.801 Y0.000
G1 X-13.801 Y3.800
G1 X-14.201 Y4.200
G1 X14.200 Y4.200
G1 X14.200 Y-4.200
G1 X-14.201 Y-4.200
G1 X-14.201 Y0.000
G1 X-14.201 Y4.200
G1 X-14.601 Y4.600
G1 X14.600 Y4.600
G1 X14.600 Y-4.600
G1 X-14.601 Y-4.600
G1 X-14.601 Y0.000
G1 X-14.601 Y4.600
G1 X-15.000 Y5.000
G1 X15.000 Y5.000
G1 X15.000 Y-5.000
G1 X-15.000 Y-5.000
G1 X-15.001 Y0.000
G1 X-15.000 Y5.000
G1 X-15.400 Y5.400
G1 X15.400 Y5.400
G1 X15.400 Y-5.400
G1 X-15.400 Y-5.400
G1 X-15.401 Y0.000
G1 X-15.400 Y5.400
G1 X-15.800 Y5.800
G1 X15.800 Y5.800
G1 X15.800 Y-5.800
G1 X-15.800 Y-5.800
G1 X-15.801 Y0.000
G1 X-15.800 Y5.800
G1 X-16.200 Y6.200
G1 X16.200 Y6.200
G1 X16.200 Y-6.200
G1 X-16.200 Y-6.200
G1 X-16.201 Y0.000
G1 X-16.200 Y6.200
G1 X-16.600 Y6.600
G1 X16.600 Y6.600
G1 X16.600 Y-6.600
G1 X-16.600 Y-6.600
G1 X-16.601 Y0.000
G1 X-16.600 Y6.600
G1 X-17.000 Y7.000
G1 X17.000 Y7.000
G1 X17.000 Y-7.000
G1 X-17.000 Y-7.000
G1 X-17.001 Y0.000
G1 X-17.000 Y7.000
G1 X-17.400 Y7.400
G1 X17.400 Y7.400
G1 X17.400 Y-7.400
G1 X-17.400 Y-7.400
G1 X-17.401 Y0.000
G1 X-17.400 Y7.400
G1 X-17.800 Y7.800
G1 X17.800 Y7.800
G1 X17.800 Y-7.800
G1 X-17.800 Y-7.800
G1 X-17.801 Y0.000
G1 X-17.800 Y7.800
G1 X-18.200 Y8.200
G1 X18.200 Y8.200
G1 X18.200 Y-8.200
G1 X-18.200 Y-8.200
G1 X-18.201 Y0.000
G1 X-18.200 Y8.200
G1 X-18.600 Y8.600
G1 X18.600 Y8.600
G1 X18.600 Y-8.600
G1 X-18.600 Y-8.600
G1 X-18.601 Y0.000
G1 X-18.600 Y8.600
G1 X-19.000 Y9.000
G1 X19.000 Y9.000
G1 X19.000 Y-9.000
G1 X-19.000 Y-9.000
G1 X-19.001 Y0.000
G1 X-19.000 Y9.000
G1 X-19.400 Y9.400
G1 X19.400 Y9.400
G1 X19.400 Y-9.400
G1 X-19.400 Y-9.400
G1 X-19.401 Y0.000
G1 X-19.400 Y9.400
G1 X-19.800 Y9.800
G1 X19.800 Y9.800
G1 X19.800 Y-9.800
G1 X-19.800 Y-9.800
G1 X-19.801 Y0.000
G1 X-19.800 Y9.800
G1 X-19.800 Y9.800 Z0.700
M9
G1 Z10.000
G1 X20.001 Y0.000
G1 Z1.100
M7
G4 P150
G1 X19.801 Y0.000 Z1.100
G1 X19.801 Y0.000
G1 X19.800 Y9.800
G1 X8.000 Y9.800
G1 X8.000 Y-9.800
G1 X19.800 Y-9.800
G1 X19.801 Y0.000
G1 X19.401 Y0.000
G1 X19.400 Y9.400
G1 X8.400 Y9.400
G1 X8.400 Y-9.400
G1 X19.400 Y-9.400
G1 X19.401 Y0.000
G1 X19.001 Y0.000
G1 X19.000 Y9.000
G1 X8.800 Y9.000
G1 X8.800 Y-9.000
G1 X19.000 Y-9.000
G1 X19.001 Y0.000
G1 X18.601 Y0.000
G1 X18.600 Y8.600
G1 X9.200 Y8.600
G1 X9.200 Y-8.600
G1 X18.600 Y-8.600
G1 X18.601 Y0.000
G1 X18.201 Y0.000
G1 X18.200 Y8.200
G1 X9.600 Y8.200
G1 X9.600 Y-8.200
G1 X18.200 Y-8.200
G1 X18.201 Y0.000
G1 X17.801 Y0.000
G1 X17.800 Y7.800
G1 X10.000 Y7.800
G1 X10.000 Y-7.800
G1 X17.800 Y-7.800
G1 X17.801 Y0.000
G1 X17.401 Y0.000
G1 X17.400 Y7.400
G1 X10.400 Y7.400
G1 X10.400 Y-7.400
G1 X17.400 Y-7.400
G1 X17.401 Y0.000
G1 X17.001 Y0.000
G1 X17.000 Y7.000
G1 X10.800 Y7.000
G1 X10.800 Y-7.000
G1 X17.000 Y-7.000
G1 X17.001 Y0.000
G1 X16.601 Y0.000
G1 X16.600 Y6.600
G1 X11.200 Y6.600
G1 X11.200 Y-6.600
G1 X16.600 Y-6.600
G1 X16.601 Y0.000
G1 X16.201 Y0.000
G1 X16.200 Y6.200
G1 X11.600 Y6.200
G1 X11.600 Y-6.200
G1 X16.200 Y-6.200
G1 X16.201 Y0.000
G1 X15.801 Y0.000
G1 X15.800 Y5.800
G1 X12.000 Y5.800
G1 X12.000 Y-5.800
G1 X15.800 Y-5.800
G1 X15.801 Y0.000
G1 X15.401 Y0.000
G1 X15.400 Y5.400
G1 X12.400 Y5.400
G1 X12.400 Y-5.400
G1 X15.400 Y-5.400
G1 X15.401 Y0.000
G1 X15.001 Y0.000
G1 X15.000 Y5.000
G1 X12.800 Y5.000
G1 X12.800 Y-5.000
G1 X15.000 Y-5.000
G1 X15.001 Y0.000
G1 X14.601 Y0.000
G1 X14.601 Y4.600
G1 X13.200 Y4.600
G1 X13.200 Y-4.600
G1 X14.601 Y-4.600
G1 X14.601 Y0.000
G1 X14.201 Y0.000
G1 X14.201 Y4.200
G1 X13.600 Y4.200
G1 X13.600 Y-4.200
G1 X14.201 Y-4.200
G1 X14.201 Y0.000
G1 X15.001 Y0.000 Z1.500
G1 X15.001 Y0.000
G1 X15.000 Y-5.000
G1 X14.507 Y-5.000
G1 X14.507 Y5.000
G1 X15.000 Y5.000
G1 X15.001 Y0.000
G1 X15.401 Y0.000
G1 X15.400 Y-5.400
G1 X14.107 Y-5.400
G1 X14.107 Y5.400
G1 X15.400 Y5.400
G1 X15.401 Y0.000
G1 X15.801 Y0.000
G1 X15.800 Y-5.800
G1 X13.707 Y-5.800
G1 X13.707 Y5.800
G1 X15.800 Y5.800
G1 X15.801 Y0.000
G1 X16.201 Y0.000
G1 X16.200 Y-6.200
G1 X13.307 Y-6.200
G1 X13.307 Y6.200
G1 X16.200 Y6.200
G1 X16.201 Y0.000
G1 X16.601 Y0.000
G1 X16.600 Y-6.600
G1 X12.907 Y-6.600
G1 X12.907 Y6.600
G1 X16.600 Y6.600
G1 X16.601 Y0.000
G1 X17.001 Y0.000
G1 X17.000 Y-7.000
G1 X12.507 Y-7.000
G1 X12.507 Y7.000
G1 X17.000 Y7.000
G1 X17.001 Y0.000
G1 X17.401 Y0.000
G1 X17.400 Y-7.400
G1 X12.107 Y-7.400
G1 X12.107 Y7.400
G1 X17.400 Y7.400
G1 X17.401 Y0.000
G1 X17.801 Y0.000
G1 X17.800 Y-7.800
G1 X11.707 Y-7.800
G1 X11.707 Y7.800
G1 X17.800 Y7.800
G1 X17.801 Y0.000
G1 X18.201 Y0.000
G1 X18.200 Y-8.200
G1 X11.307 Y-8.200
G1 X11.307 Y8.200
G1 X18.200 Y8.200
G1 X18.201 Y0.000
G1 X18.601 Y0.000
G1 X18.600 Y-8.600
G1 X10.907 Y-8.600
G1 X10.907 Y8.600
G1 X18.600 Y8.600
G1 X18.601 Y0.000
G1 X19.001 Y0.000
G1 X19.000 Y-9.000
G1 X10.507 Y-9.000
G1 X10.507 Y9.000
G1 X19.000 Y9.000
G1 X19.001 Y0.000
G1 X19.401 Y0.000
G1 X19.400 Y-9.400
G1 X10.107 Y-9.400
G1 X10.107 Y9.400
G1 X19.400 Y9.400
G1 X19.401 Y0.000
G1 X19.801 Y0.000
G1 X19.800 Y-9.800
G1 X9.707 Y-9.800
G1 X9.707 Y9.800
G1 X19.800 Y9.800
G1 X19.801 Y0.000
G1 X19.801 Y0.000 Z1.500
G1 X19.801 Y0.000 Z1.900
G1 X19.801 Y0.000
G1 X19.800 Y9.800
G1 X10.245 Y9.800
G1 X10.245 Y-9.800
G1 X19.800 Y-9.800
G1 X19.801 Y0.000
G1 X19.401 Y0.000
G1 X19.400 Y9.400
G1 X10.645 Y9.400
G1 X10.645 Y-9.400
G1 X19.400 Y-9.400
G1 X19.401 Y0.000
G1 X19.001 Y0.000
G1 X19.000 Y9.000
G1 X11.045 Y9.000
G1 X11.045 Y-9.000
G1 X19.000 Y-9.000
G1 X19.001 Y0.000
G1 X18.601 Y0.000
G1 X18.600 Y8.600
G1 X11.445 Y8.600
G1 X11.445 Y-8.600
G1 X18.600 Y-8.600
G1 X18.601 Y0.000
G1 X18.201 Y0.000
G1 X18.200 Y8.200
G1 X11.845 Y8.200
G1 X11.845 Y-8.200
G1 X18.200 Y-8.200
G1 X18.201 Y0.000
G1 X17.801 Y0.000
G1 X17.800 Y7.800
G1 X12.245 Y7.800
G1 X12.245 Y-7.800
G1 X17.800 Y-7.800
G1 X17.801 Y0.000
G1 X17.401 Y0.000
G1 X17.400 Y7.400
G1 X12.645 Y7.400
G1 X12.645 Y-7.400
G1 X17.400 Y-7.400
G1 X17.401 Y0.000
G1 X17.001 Y0.000
G1 X17.000 Y7.000
G1 X13.045 Y7.000
G1 X13.045 Y-7.000
G1 X17.000 Y-7.000
G1 X17.001 Y0.000
G1 X16.601 Y0.000
G1 X16.600 Y6.600
G1 X13.445 Y6.600
G1 X13.445 Y-6.600
G1 X16.600 Y-6.600
G1 X16.601 Y0.000
G1 X16.201 Y0.000
G1 X16.200 Y6.200
G1 X13.845 Y6.200
G1 X13.845 Y-6.200
G1 X16.200 Y-6.200
G1 X16.201 Y0.000
G1 X15.801 Y0.000
G1 X15.800 Y5.800
G1 X14.245 Y5.800
G1 X14.245 Y-5.800
G1 X15.800 Y-5.800
G1 X15.801 Y0.000
G1 X15.401 Y0.000
G1 X15.400 Y5.400
G1 X14.645 Y5.400
G1 X14.645 Y-5.400
G1 X15.400 Y-5.400
G1 X15.401 Y0.000
G1 X15.401 Y0.000 Z2.300
G1 X15.401 Y0.000
G1 X15.400 Y-5.400
G1 X15.039 Y-5.400
G1 X15.039 Y5.400
G1 X15.400 Y5.400
G1 X15.401 Y0.000
G1 X15.801 Y0.000
G1 X15.800 Y-5.800
G1 X14.639 Y-5.800
G1 X14.639 Y5.800
G1 X15.800 Y5.800
G1 X15.801 Y0.000
G1 X16.201 Y0.000
G1 X16.200 Y-6.200
G1 X14.239 Y-6.200
G1 X14.239 Y6.200
G1 X16.200 Y6.200
G1 X16.201 Y0.000
G1 X16.601 Y0.000
G1 X16.600 Y-6.600
G1 X13.839 Y-6.600
G1 X13.839 Y6.600
G1 X16.600 Y6.600
G1 X16.601 Y0.000
G1 X17.001 Y0.000
G1 X17.000 Y-7.000
G1 X13.439 Y-7.000
G1 X13.439 Y7.000
G1 X17.000 Y7.000
G1 X17.001 Y0.000
G1 X17.401 Y0.000
G1 X17.400 Y-7.400
G1 X13.039 Y-7.400
G1 X13.039 Y7.400
G1 X17.400 Y7.400
G1 X17.401 Y0.000
G1 X17.801 Y0.000
G1 X17.800 Y-7.800
G1 X12.639 Y-7.800
G1 X12.639 Y7.800
G1 X17.800 Y7.800
G1 X17.801 Y0.000
G1 X18.201 Y0.000
G1 X18.200 Y-8.200
G1 X12.239 Y-8.200
G1 X12.239 Y8.200
G1 X18.200 Y8.200
G1 X18.201 Y0.000
G1 X18.601 Y0.000
G1 X18.600 Y-8.600
G1 X11.839 Y-8.600
G1 X11.839 Y8.600
G1 X18.600 Y8.600
G1 X18.601 Y0.000
G1 X19.001 Y0.000
G1 X19.000 Y-9.000
G1 X11.439 Y-9.000
G1 X11.439 Y9.000
G1 X19.000 Y9.000
G1 X19.001 Y0.000
G1 X19.401 Y0.000
G1 X19.400 Y-9.400
G1 X11.039 Y-9.400
G1 X11.039 Y9.400
G1 X19.400 Y9.400
G1 X19.401 Y0.000
G1 X19.801 Y0.000
G1 X19.800 Y-9.800
G1 X10.639 Y-9.800
G1 X10.639 Y9.800
G1 X19.800 Y9.800
G1 X19.801 Y0.000
G1 X19.801 Y0.000 Z2.300
G1 X19.801 Y0.000 Z2.700
G1 X19.801 Y0.000
G1 X19.800 Y9.800
G1 X10.940 Y9.800
G1 X10.940 Y-9.800
G1 X19.800 Y-9.800
G1 X19.801 Y0.000
G1 X19.401 Y0.000
G1 X19.400 Y9.400
G1 X11.340 Y9.400
G1 X11.340 Y-9.400
G1 X19.400 Y-9.400
G1 X19.401 Y0.000
G1 X19.001 Y0.000
G1 X19.000 Y9.000
G1 X11.740 Y9.000
G1 X11.740 Y-9.000
G1 X19.000 Y-9.000
G1 X19.001 Y0.000
G1 X18.601 Y0.000
G1 X18.600 Y8.600
G1 X12.140 Y8.600
G1 X12.140 Y-8.600
G1 X18.600 Y-8.600
G1 X18.601 Y0.000
G1 X18.201 Y0.000
G1 X18.200 Y8.200
G1 X12.540 Y8.200
G1 X12.540 Y-8.200
G1 X18.200 Y-8.200
G1 X18.201 Y0.000
G1 X17.801 Y0.000
G1 X17.800 Y7.800
G1 X12.940 Y7.800
G1 X12.940 Y-7.800
G1 X17.800 Y-7.800
G1 X17.801 Y0.000
G1 X17.401 Y0.000
G1 X17.400 Y7.400
G1 X13.340 Y7.400
G1 X13.340 Y-7.400
G1 X17.400 Y-7.400
G1 X17.401 Y0.000
G1 X17.001 Y0.000
G1 X17.000 Y7.000
G1 X13.740 Y7.000
G1 X13.740 Y-7.000
G1 X17.000 Y-7.000
G1 X17.001 Y0.000
G1 X16.601 Y0.000
G1 X16.600 Y6.600
G1 X14.140 Y6.600
G1 X14.140 Y-6.600
G1 X16.600 Y-6.600
G1 X16.601 Y0.000
G1 X16.201 Y0.000
G1 X16.200 Y6.200
G1 X14.540 Y6.200
G1 X14.540 Y-6.200
G1 X16.200 Y-6.200
G1 X16.201 Y0.000
G1 X15.801 Y0.000
G1 X15.800 Y5.800
G1 X14.940 Y5.800
G1 X14.940 Y-5.800
G1 X15.800 Y-5.800
G1 X15.801 Y0.000
G1 X15.401 Y0.000
G1 X15.400 Y5.400
G1 X15.340 Y5.400
G1 X15.340 Y-5.400
G1 X15.400 Y-5.400
G1 X15.401 Y0.000
G1 X15.801 Y0.000 Z3.100
G1 X15.801 Y0.000
G1 X15.800 Y-5.800
G1 X15.172 Y-5.800
G1 X15.172 Y5.800
G1 X15.800 Y5.800
G1 X15.801 Y0.000
G1 X16.201 Y0.000
G1 X16.200 Y-6.200
G1 X14.772 Y-6.200
G1 X14.772 Y6.200
G1 X16.200 Y6.200
G1 X16.201 Y0.000
G1 X16.601 Y0.000
G1 X16.600 Y-6.600
G1 X14.372 Y-6.600
G1 X14.372 Y6.600
G1 X16.600 Y6.600
G1 X16.601 Y0.000
G1 X17.001 Y0.000
G1 X17.000 Y-7.000
G1 X13.972 Y-7.000
G1 X13.972 Y7.000
G1 X17.000 Y7.000
G1 X17.001 Y0.000
G1 X17.401 Y0.000
G1 X17.400 Y-7.400
G1 X13.572 Y-7.400
G1 X13.572 Y7.400
G1 X17.400 Y7.400
G1 X17.401 Y0.000
G1 X17.801 Y0.000
G1 X17.800 Y-7.800
G1 X13.172 Y-7.800
G1 X13.172 Y7.800
G1 X17.800 Y7.800
G1 X17.801 Y0.000
G1 X18.201 Y0.000
G1 X18.200 Y-8.200
G1 X12.772 Y-8.200
G1 X12.772 Y8.200
G1 X18.200 Y8.200
G1 X18.201 Y0.000
G1 X18.601 Y0.000
G1 X18.600 Y-8.600
G1 X12.372 Y-8.600
G1 X12.372 Y8.600
G1 X18.600 Y8.600
G1 X18.601 Y0.000
G1 X19.001 Y0.000
G1 X19.000 Y-9.000
G1 X11.972 Y-9.000
G1 X11.972 Y9.000
G1 X19.000 Y9.000
G1 X19.001 Y0.000
G1 X19.401 Y0.000
G1 X19.400 Y-9.400
G1 X11.572 Y-9.400
G1 X11.572 Y9.400
G1 X19.400 Y9.400
G1 X19.401 Y0.000
G1 X19.801 Y0.000
G1 X19.800 Y-9.800
G1 X11.172 Y-9.800
G1 X11.172 Y9.800
G1 X19.800 Y9.800
G1 X19.801 Y0.000
G1 X19.801 Y0.000 Z3.100
G1 X19.801 Y0.000 Z3.500
G1 X19.801 Y0.000
G1 X19.800 Y9.800
G1 X11.346 Y9.800
G1 X11.346 Y-9.800
G1 X19.800 Y-9.800
G1 X19.801 Y0.000
G1 X19.401 Y0.000
G1 X19.400 Y9.400
G1 X11.746 Y9.400
G1 X11.746 Y-9.400
G1 X19.400 Y-9.400
G1 X19.401 Y0.000
G1 X19.001 Y0.000
G1 X19.000 Y9.000
G1 X12.146 Y9.000
G1 X12.146 Y-9.000
G1 X19.000 Y-9.000
G1 X19.001 Y0.000
G1 X18.601 Y0.000
G1 X18.600 Y8.600
G1 X12.546 Y8.600
G1 X12.546 Y-8.600
G1 X18.600 Y-8.600
G1 X18.601 Y0.000
G1 X18.201 Y0.000
G1 X18.200 Y8.200
G1 X12.946 Y8.200
G1 X12.946 Y-8.200
G1 X18.200 Y-8.200
G1 X18.201 Y0.000
G1 X17.801 Y0.000
G1 X17.800 Y7.800
G1 X13.346 Y7.800
G1 X13.346 Y-7.800
G1 X17.800 Y-7.800
G1 X17.801 Y0.000
G1 X17.401 Y0.000
G1 X17.400 Y7.400
G1 X13.746 Y7.400
G1 X13.746 Y-7.400
G1 X17.400 Y-7.400
G1 X17.401 Y0.000
G1 X17.001 Y0.000
G1 X17.000 Y7.000
G1 X14.146 Y7.000
G1 X14.146 Y-7.000
G1 X17.000 Y-7.000
G1 X17.001 Y0.000
G1 X16.601 Y0.000
G1 X16.600 Y6.600
G1 X14.546 Y6.600
G1 X14.546 Y-6.600
G1 X16.600 Y-6.600
G1 X16.601 Y0.000
G1 X16.201 Y0.000
G1 X16.200 Y6.200
G1 X14.946 Y6.200
G1 X14.946 Y-6.200
G1 X16.200 Y-6.200
G1 X16.201 Y0.000
G1 X15.801 Y0.000
G1 X15.800 Y5.800
G1 X15.346 Y5.800
G1 X15.346 Y-5.800
G1 X15.800 Y-5.800
G1 X15.801 Y0.000
G1 X15.801 Y0.000 Z3.900
G1 X15.801 Y0.000
G1 X15.800 Y-5.800
G1 X15.472 Y-5.800
G1 X15.472 Y5.800
G1 X15.800 Y5.800
G1 X15.801 Y0.000
G1 X16.201 Y0.000
G1 X16.200 Y-6.200
G1 X15.072 Y-6.200
G1 X15.072 Y6.200
G1 X16.200 Y6.200
G1 X16.201 Y0.000
G1 X16.601 Y0.000
G1 X16.600 Y-6.600
G1 X14.672 Y-6.600
G1 X14.672 Y6.600
G1 X16.600 Y6.600
G1 X16.601 Y0.000
G1 X17.001 Y0.000
G1 X17.000 Y-7.000
G1 X14.272 Y-7.000
G1 X14.272 Y7.000
G1 X17.000 Y7.000
G1 X17.001 Y0.000
G1 X17.401 Y0.000
G1 X17.400 Y-7.400
G1 X13.872 Y-7.400
G1 X13.872 Y7.400
G1 X17.400 Y7.400
G1 X17.401 Y0.000
G1 X17.801 Y0.000
G1 X17.800 Y-7.800
G1 X13.472 Y-7.800
G1 X13.472 Y7.800
G1 X17.800 Y7.800
G1 X17.801 Y0.000
G1 X18.201 Y0.000
G1 X18.200 Y-8.200
G1 X13.072 Y-8.200
G1 X13.072 Y8.200
G1 X18.200 Y8.200
G1 X18.201 Y0.000
G1 X18.601 Y0.000
G1 X18.600 Y-8.600
G1 X12.672 Y-8.600
G1 X12.672 Y8.600
G1 X18.600 Y8.600
G1 X18.601 Y0.000
G1 X19.001 Y0.000
G1 X19.000 Y-9.000
G1 X12.272 Y-9.000
G1 X12.272 Y9.000
G1 X19.000 Y9.000
G1 X19.001 Y0.000
G1 X19.401 Y0.000
G1 X19.400 Y-9.400
G1 X11.872 Y-9.400
G1 X11.872 Y9.400
G1 X19.400 Y9.400
G1 X19.401 Y0.000
G1 X19.801 Y0.000
G1 X19.800 Y-9.800
G1 X11.472 Y-9.800
G1 X11.472 Y9.800
G1 X19.800 Y9.800
G1 X19.801 Y0.000
G1 X19.801 Y0.000 Z3.900
G1 X19.801 Y0.000 Z4.300
G1 X19.801 Y0.000
G1 X19.800 Y9.800
G1 X11.554 Y9.800
G1 X11.554 Y-9.800
G1 X19.800 Y-9.800
G1 X19.801 Y0.000
G1 X19.401 Y0.000
G1 X19.400 Y9.400
G1 X11.954 Y9.400
G1 X11.954 Y-9.400
G1 X19.400 Y-9.400
G1 X19.401 Y0.000
G1 X19.001 Y0.000
G1 X19.000 Y9.000
G1 X12.354 Y9.000
G1 X12.354 Y-9.000
G1 X19.000 Y-9.000
G1 X19.001 Y0.000
G1 X18.601 Y0.000
G1 X18.600 Y8.600
G1 X12.754 Y8.600
G1 X12.754 Y-8.600
G1 X18.600 Y-8.600
G1 X18.601 Y0.000
G1 X18.201 Y0.000
G1 X18.200 Y8.200
G1 X13.154 Y8.200
G1 X13.154 Y-8.200
G1 X18.200 Y-8.200
G1 X18.201 Y0.000
G1 X17.801 Y0.000
G1 X17.800 Y7.800
G1 X13.554 Y7.800
G1 X13.554 Y-7.800
G1 X17.800 Y-7.800
G1 X17.801 Y0.000
G1 X17.401 Y0.000
G1 X17.400 Y7.400
G1 X13.954 Y7.400
G1 X13.954 Y-7.400
G1 X17.400 Y-7.400
G1 X17.401 Y0.000
G1 X17.001 Y0.000
G1 X17.000 Y7.000
G1 X14.354 Y7.000
G1 X14.354 Y-7.000
G1 X17.000 Y-7.000
G1 X17.001 Y0.000
G1 X16.601 Y0.000
G1 X16.600 Y6.600
G1 X14.754 Y6.600
G1 X14.754 Y-6.600
G1 X16.600 Y-6.600
G1 X16.601 Y0.000
G1 X16.201 Y0.000
G1 X16.200 Y6.200
G1 X15.154 Y6.200
G1 X15.154 Y-6.200
G1 X16.200 Y-6.200
G1 X16.201 Y0.000
G1 X15.801 Y0.000
G1 X15.800 Y5.800
G1 X15.554 Y5.800
G1 X15.554 Y-5.800
G1 X15.800 Y-5.800
G1 X15.801 Y0.000
G1 X15.801 Y0.000 Z4.700
G1 X15.801 Y0.000
G1 X15.800 Y-5.800
G1 X15.594 Y-5.800
G1 X15.594 Y5.800
G1 X15.800 Y5.800
G1 X15.801 Y0.000
G1 X16.201 Y0.000
G1 X16.200 Y-6.200
G1 X15.194 Y-6.200
G1 X15.194 Y6.200
G1 X16.200 Y6.200
G1 X16.201 Y0.000
G1 X16.601 Y0.000
G1 X16.600 Y-6.600
G1 X14.794 Y-6.600
G1 X14.794 Y6.600
G1 X16.600 Y6.600
G1 X16.601 Y0.000
G1 X17.001 Y0.000
G1 X17.000 Y-7.000
G1 X14.394 Y-7.000
G1 X14.394 Y7.000
G1 X17.000 Y7.000
G1 X17.001 Y0.000
G1 X17.401 Y0.000
G1 X17.400 Y-7.400
G1 X13.994 Y-7.400
G1 X13.994 Y7.400
G1 X17.400 Y7.400
G1 X17.401 Y0.000
G1 X17.801 Y0.000
G1 X17.800 Y-7.800
G1 X13.594 Y-7.800
G1 X13.594 Y7.800
G1 X17.800 Y7.800
G1 X17.801 Y0.000
G1 X18.201 Y0.000
G1 X18.200 Y-8.200
G1 X13.194 Y-8.200
G1 X13.194 Y8.200
G1 X18.200 Y8.200
G1 X18.201 Y0.000
G1 X18.601 Y0.000
G1 X18.600 Y-8.600
G1 X12.794 Y-8.600
G1 X12.794 Y8.600
G1 X18.600 Y8.600
G1 X18.601 Y0.000
G1 X19.001 Y0.000
G1 X19.000 Y-9.000
G1 X12.394 Y-9.000
G1 X12.394 Y9.000
G1 X19.000 Y9.000
G1 X19.001 Y0.000
G1 X19.401 Y0.000
G1 X19.400 Y-9.400
G1 X11.994 Y-9.400
G1 X11.994 Y9.400
G1 X19.400 Y9.400
G1 X19.401 Y0.000
G1 X19.801 Y0.000
G1 X19.800 Y-9.800
G1 X11.594 Y-9.800
G1 X11.594 Y9.800
G1 X19.800 Y9.800
G1 X19.801 Y0.000
G1 X19.801 Y0.000 Z4.700
M9
G1 Z10.000
G1 X6.200 Y0.000
G1 Z1.100
M7
G4 P150
G1 X6.000 Y0.000 Z1.100
G1 X6.000 Y0.000
G1 X5.999 Y9.800
G1 X-2.405 Y9.800
G1 X-2.405 Y-9.800
G1 X5.999 Y-9.800
G1 X6.000 Y0.000
G1 X5.600 Y0.000
G1 X5.599 Y9.400
G1 X-2.005 Y9.400
G1 X-2.005 Y-9.400
G1 X5.599 Y-9.400
G1 X5.600 Y0.000
G1 X5.200 Y0.000
G1 X5.199 Y9.000
G1 X-1.605 Y9.000
G1 X-1.605 Y-9.000
G1 X5.199 Y-9.000
G1 X5.200 Y0.000
G1 X4.800 Y0.000
G1 X4.799 Y8.600
G1 X-1.205 Y8.600
G1 X-1.205 Y-8.600
G1 X4.799 Y-8.600
G1 X4.800 Y0.000
G1 X4.400 Y0.000
G1 X4.399 Y8.200
G1 X-0.805 Y8.200
G1 X-0.805 Y-8.200
G1 X4.399 Y-8.200
G1 X4.400 Y0.000
G1 X4.000 Y0.000
G1 X3.999 Y7.800
G1 X-0.405 Y7.800
G1 X-0.405 Y-7.800
G1 X3.999 Y-7.800
G1 X4.000 Y0.000
G1 X3.600 Y0.000
G1 X3.599 Y7.400
G1 X-0.005 Y7.400
G1 X-0.005 Y-7.400
G1 X3.599 Y-7.400
G1 X3.600 Y0.000
G1 X3.200 Y0.000
G1 X3.199 Y7.000
G1 X0.395 Y7.000
G1 X0.395 Y-7.000
G1 X3.199 Y-7.000
G1 X3.200 Y0.000
G1 X2.800 Y0.000
G1 X2.799 Y6.600
G1 X0.795 Y6.600
G1 X0.795 Y-6.600
G1 X2.799 Y-6.600
G1 X2.800 Y0.000
G1 X2.400 Y0.000
G1 X2.399 Y6.200
G1 X1.195 Y6.200
G1 X1.195 Y-6.200
G1 X2.399 Y-6.200
G1 X2.400 Y0.000
G1 X2.000 Y0.000
G1 X1.999 Y5.800
G1 X1.595 Y5.800
G1 X1.595 Y-5.800
G1 X1.999 Y-5.800
G1 X2.000 Y0.000
G1 X1.093 Y0.000 Z1.500
G1 X1.093 Y0.000
G1 X1.092 Y-6.600
G1 X0.755 Y-6.600
G1 X0.755 Y6.600
G1 X1.092 Y6.600
G1 X1.093 Y0.000
G1 X1.493 Y0.000
G1 X1.492 Y-7.000
G1 X0.355 Y-7.000
G1 X0.355 Y7.000
G1 X1.492 Y7.000
G1 X1.493 Y0.000
G1 X1.893 Y0.000
G1 X1.892 Y-7.400
G1 X-0.045 Y-7.400
G1 X-0.045 Y7.400
G1 X1.892 Y7.400
G1 X1.893 Y0.000
G1 X2.293 Y0.000
G1 X2.292 Y-7.800
G1 X-0.445 Y-7.800
G1 X-0.445 Y7.800
G1 X2.292 Y7.800
G1 X2.293 Y0.000
G1 X2.693 Y0.000
G1 X2.692 Y-8.200
G1 X-0.845 Y-8.200
G1 X-0.845 Y8.200
G1 X2.692 Y8.200
G1 X2.693 Y0.000
G1 X3.093 Y0.000
G1 X3.092 Y-8.600
G1 X-1.245 Y-8.600
G1 X-1.245 Y8.600
G1 X3.092 Y8.600
G1 X3.093 Y0.000
G1 X3.493 Y0.000
G1 X3.492 Y-9.000
G1 X-1.645 Y-9.000
G1 X-1.645 Y9.000
G1 X3.492 Y9.000
G1 X3.493 Y0.000
G1 X3.893 Y0.000
G1 X3.892 Y-9.400
G1 X-2.045 Y-9.400
G1 X-2.045 Y9.400
G1 X3.892 Y9.400
G1 X3.893 Y0.000
G1 X4.293 Y0.000
G1 X4.292 Y-9.800
G1 X-2.445 Y-9.800
G1 X-2.445 Y9.800
G1 X4.292 Y9.800
G1 X4.293 Y0.000
G1 X4.293 Y0.000 Z1.500
G1 X3.755 Y0.000 Z1.900
G1 X3.755 Y0.000
G1 X3.754 Y9.800
G1 X-2.527 Y9.800
G1 X-2.527 Y-9.800
G1 X3.754 Y-9.800
G1 X3.755 Y0.000
G1 X3.355 Y0.000
G1 X3.354 Y9.400
G1 X-2.127 Y9.400
G1 X-2.127 Y-9.400
G1 X3.354 Y-9.400
G1 X3.355 Y0.000
G1 X2.955 Y0.000
G1 X2.954 Y9.000
G1 X-1.727 Y9.000
G1 X-1.727 Y-9.000
G1 X2.954 Y-9.000
G1 X2.955 Y0.000
G1 X2.555 Y0.000
G1 X2.554 Y8.600
G1 X-1.327 Y8.600
G1 X-1.327 Y-8.600
G1 X2.554 Y-8.600
G1 X2.555 Y0.000
G1 X2.155 Y0.000
G1 X2.154 Y8.200
G1 X-0.927 Y8.200
G1 X-0.927 Y-8.200
G1 X2.154 Y-8.200
G1 X2.155 Y0.000
G1 X1.755 Y0.000
G1 X1.754 Y7.800
G1 X-0.527 Y7.800
G1 X-0.527 Y-7.800
G1 X1.754 Y-7.800
G1 X1.755 Y0.000
G1 X1.355 Y0.000
G1 X1.354 Y7.400
G1 X-0.127 Y7.400
G1 X-0.127 Y-7.400
G1 X1.354 Y-7.400
G1 X1.355 Y0.000
G1 X0.955 Y0.000
G1 X0.954 Y7.000
G1 X0.273 Y7.000
G1 X0.273 Y-7.000
G1 X0.954 Y-7.000
G1 X0.955 Y0.000
G1 X0.561 Y0.000 Z2.300
G1 X0.561 Y0.000
G1 X0.560 Y-7.000
G1 X0.147 Y-7.000
G1 X0.147 Y7.000
G1 X0.560 Y7.000
G1 X0.561 Y0.000
G1 X0.961 Y0.000
G1 X0.960 Y-7.400
G1 X-0.253 Y-7.400
G1 X-0.253 Y7.400
G1 X0.960 Y7.400
G1 X0.961 Y0.000
G1 X1.361 Y0.000
G1 X1.360 Y-7.800
G1 X-0.653 Y-7.800
G1 X-0.653 Y7.800
G1 X1.360 Y7.800
G1 X1.361 Y0.000
G1 X1.761 Y0.000
G1 X1.760 Y-8.200
G1 X-1.053 Y-8.200
G1 X-1.053 Y8.200
G1 X1.760 Y8.200
G1 X1.761 Y0.000
G1 X2.161 Y0.000
G1 X2.160 Y-8.600
G1 X-1.453 Y-8.600
G1 X-1.453 Y8.600
G1 X2.160 Y8.600
G1 X2.161 Y0.000
G1 X2.561 Y0.000
G1 X2.560 Y-9.000
G1 X-1.853 Y-9.000
G1 X-1.853 Y9.000
G1 X2.560 Y9.000
G1 X2.561 Y0.000
G1 X2.961 Y0.000
G1 X2.960 Y-9.400
G1 X-2.253 Y-9.400
G1 X-2.253 Y9.400
G1 X2.960 Y9.400
G1 X2.961 Y0.000
G1 X3.361 Y0.000
G1 X3.360 Y-9.800
G1 X-2.653 Y-9.800
G1 X-2.653 Y9.800
G1 X3.360 Y9.800
G1 X3.361 Y0.000
G1 X3.361 Y0.000 Z2.300
G1 X3.060 Y0.000 Z2.700
G1 X3.060 Y0.000
G1 X3.059 Y9.800
G1 X-2.827 Y9.800
G1 X-2.827 Y-9.800
G1 X3.059 Y-9.800
G1 X3.060 Y0.000
G1 X2.660 Y0.000
G1 X2.659 Y9.400
G1 X-2.427 Y9.400
G1 X-2.427 Y-9.400
G1 X2.659 Y-9.400
G1 X2.660 Y0.000
G1 X2.260 Y0.000
G1 X2.259 Y9.000
G1 X-2.027 Y9.000
G1 X-2.027 Y-9.000
G1 X2.259 Y-9.000
G1 X2.260 Y0.000
G1 X1.860 Y0.000
G1 X1.859 Y8.600
G1 X-1.627 Y8.600
G1 X-1.627 Y-8.600
G1 X1.859 Y-8.600
G1 X1.860 Y0.000
G1 X1.460 Y0.000
G1 X1.459 Y8.200
G1 X-1.227 Y8.200
G1 X-1.227 Y-8.200
G1 X1.459 Y-8.200
G1 X1.460 Y0.000
G1 X1.060 Y0.000
G1 X1.059 Y7.800
G1 X-0.827 Y7.800
G1 X-0.827 Y-7.800
G1 X1.059 Y-7.800
G1 X1.060 Y0.000
G1 X0.660 Y0.000
G1 X0.659 Y7.400
G1 X-0.427 Y7.400
G1 X-0.427 Y-7.400
G1 X0.659 Y-7.400
G1 X0.660 Y0.000
G1 X0.260 Y0.000
G1 X0.259 Y7.000
G1 X-0.027 Y7.000
G1 X-0.027 Y-7.000
G1 X0.259 Y-7.000
G1 X0.260 Y0.000