;layer_height = 0.4
;line_width = 0.4
;layer_count = 10
;mesh = miura_base
G21 ;start of the code
G1 Z15 F300
G28 X0 Y0 ;Home
G92 X0 Y0 ;Consider this as current
G0 X50 Y50 F3000 ;Go-to Offset
G92 X0 Y0 ;Reset

G0 F3600 X-24.600 Y25.581 Z0.300 ;Go to start position
M7
G4 P150


G1 X-24.400 Y25.381 Z0.300
G1 X-24.400 Y-8.060
G1 X-15.346 Y-8.060
G1 X-5.693 Y8.660
G1 X-15.346 Y25.381
G1 X-24.400 Y25.381
G1 X-24.000 Y24.981
G1 X-24.000 Y-7.660
G1 X-15.577 Y-7.660
G1 X-6.155 Y8.660
G1 X-15.577 Y24.981
G1 X-24.000 Y24.981
G1 X-23.600 Y24.581
G1 X-23.600 Y-7.260
G1 X-15.808 Y-7.260
G1 X-6.617 Y8.660
G1 X-15.808 Y24.581
G1 X-23.600 Y24.581
G1 X-23.200 Y24.181
G1 X-23.200 Y-6.860
G1 X-16.039 Y-6.860
G1 X-7.078 Y8.660
G1 X-16.039 Y24.181
G1 X-23.200 Y24.181
G1 X-22.800 Y23.781
G1 X-22.800 Y-6.460
G1 X-16.270 Y-6.460
G1 X-7.540 Y8.660
G1 X-16.270 Y23.781
G1 X-22.800 Y23.781
G1 X-22.400 Y23.381
G1 X-22.400 Y-6.060
G1 X-16.501 Y-6.060
G1 X-8.002 Y8.660
G1 X-16.501 Y23.381
G1 X-22.400 Y23.381
G1 X-22.000 Y22.981
G1 X-22.000 Y-5.660
G1 X-16.732 Y-5.660
G1 X-8.464 Y8.660
G1 X-16.732 Y22.981
G1 X-22.000 Y22.981
G1 X-21.600 Y22.581
G1 X-21.600 Y-5.260
G1 X-16.963 Y-5.260
G1 X-8.926 Y8.660
G1 X-16.963 Y22.581
G1 X-21.600 Y22.581
G1 X-21.200 Y22.181
G1 X-21.200 Y-4.860
G1 X-17.194 Y-4.860
G1 X-9.388 Y8.660
G1 X-17.194 Y22.181
G1 X-21.200 Y22.181
G1 X-20.800 Y21.781
G1 X-20.800 Y-4.460
G1 X-17.425 Y-4.460
G1 X-9.850 Y8.660
G1 X-17.425 Y21.781
G1 X-20.800 Y21.781
G1 X-20.400 Y21.381
G1 X-20.400 Y-4.060
G1 X-17.656 Y-4.060
G1 X-10.312 Y8.660
G1 X-17.656 Y21.381
G1 X-20.400 Y21.381
G1 X-20.000 Y20.981
G1 X-20.000 Y-3.660
G1 X-17.887 Y-3.660
G1 X-10.774 Y8.660
G1 X-17.887 Y20.981
G1 X-20.000 Y20.981
G1 X-19.600 Y20.581
G1 X-19.600 Y-3.260
G1 X-18.118 Y-3.260
G1 X-11.235 Y8.660
G1 X-18.118 Y20.581
G1 X-19.600 Y20.581
G1 X-19.200 Y20.181
G1 X-19.200 Y-2.860
G1 X-18.349 Y-2.860
G1 X-11.697 Y8.660
G1 X-18.349 Y20.181
G1 X-19.200 Y20.181
G1 X-18.800 Y19.781
M9
G1 Z10.000
G1 X-24.600 Y-9.060
G1 Z0.300
M7
G4 P150
G1 X-24.400 Y-9.260 Z0.300
G1 X-24.400 Y-42.701
G1 X-5.989 Y-42.701
G1 X-19.465 Y-9.260
G1 X-24.400 Y-9.260
G1 X-24.000 Y-9.660
G1 X-24.000 Y-42.301
G1 X-6.581 Y-42.301
G1 X-19.735 Y-9.660
G1 X-24.000 Y-9.660
G1 X-23.600 Y-10.060
G1 X-23.600 Y-41.901
G1 X-7.174 Y-41.901
G1 X-20.005 Y-10.060
G1 X-23.600 Y-10.060
G1 X-23.200 Y-10.460
G1 X-23.200 Y-41.501
G1 X-7.766 Y-41.501
G1 X-20.275 Y-10.460
G1 X-23.200 Y-10.460
G1 X-22.800 Y-10.860
G1 X-22.800 Y-41.101
G1 X-8.359 Y-41.101
G1 X-20.545 Y-10.860
G1 X-22.800 Y-10.860
G1 X-22.400 Y-11.260
G1 X-22.400 Y-40.701
G1 X-8.951 Y-40.701
G1 X-20.815 Y-11.260
G1 X-22.400 Y-11.260
G1 X-22.000 Y-11.660
G1 X-22.000 Y-40.301
G1 X-9.544 Y-40.301
G1 X-21.086 Y-11.660
G1 X-22.000 Y-11.660
G1 X-21.600 Y-12.060

;Finish
M9
G1 Z10.000
G28 X-100 Y-100;Home