;layer_height = 0.4
;line_width = 0.4
;layer_count = 10
;mesh = double_base
G21 ;start of the code
G1 Z15 F300
G28 X0 Y0 ;Home
G92 X0 Y0 ;Consider this as current
G0 X50 Y50 F3000 ;Go-to Offset
G92 X0 Y0 ;Reset

G0 F3600 X-20.000 Y10.000 Z0.300 ;Go to start position
M7
G4 P150


G1 X-19.800 Y9.800 Z0.300
G1 X-19.800 Y9.800
G1 X-19.800 Y-9.800
G1 X-5.900 Y-9.800
G1 X-5.900 Y9.800
G1 X-19.800 Y9.800
G1 X-19.400 Y9.400
G1 X-19.400 Y-9.400
G1 X-6.300 Y-9.400
G1 X-6.300 Y9.400
G1 X-19.400 Y9.400
G1 X-19.000 Y9.000
G1 X-19.000 Y-9.000
G1 X-6.700 Y-9.000
G1 X-6.700 Y9.000
G1 X-19.000 Y9.000
G1 X-18.600 Y8.600
G1 X-18.600 Y-8.600
G1 X-7.100 Y-8.600
G1 X-7.100 Y8.600
G1 X-18.600 Y8.600
G1 X-18.200 Y8.200
G1 X-18.200 Y-8.200
G1 X-7.500 Y-8.200
G1 X-7.500 Y8.200
G1 X-18.200 Y8.200
G1 X-17.800 Y7.800
G1 X-17.800 Y-7.800
G1 X-7.900 Y-7.800
G1 X-7.900 Y7.800
G1 X-17.800 Y7.800
G1 X-17.400 Y7.400
G1 X-17.400 Y-7.400
G1 X-8.300 Y-7.400
G1 X-8.300 Y7.400
G1 X-17.400 Y7.400
G1 X-17.000 Y7.000
G1 X-17.000 Y-7.000
G1 X-8.700 Y-7.000
G1 X-8.700 Y7.000
G1 X-17.000 Y7.000
G1 X-16.600 Y6.600
G1 X-16.600 Y-6.600
G1 X-9.100 Y-6.600
G1 X-9.100 Y6.600
G1 X-16.600 Y6.600
G1 X-16.200 Y6.200
G1 X-16.200 Y-6.200
G1 X-9.500 Y-6.200
G1 X-9.500 Y6.200
G1 X-16.200 Y6.200
G1 X-15.800 Y5.800
G1 X-15.800 Y-5.800
G1 X-9.900 Y-5.800
G1 X-9.900 Y5.800
G1 X-15.800 Y5.800
G1 X-15.400 Y5.400
G1 X-15.400 Y-5.400
G1 X-10.300 Y-5.400
G1 X-10.300 Y5.400
G1 X-15.400 Y5.400
G1 X-15.000 Y5.000
G1 X-15.000 Y-5.000
G1 X-10.700 Y-5.000
G1 X-10.700 Y5.000
G1 X-15.000 Y5.000
G1 X-14.600 Y4.600
G1 X-14.600 Y-4.600
G1 X-11.100 Y-4.600
G1 X-11.100 Y4.600
G1 X-14.600 Y4.600
G1 X-14.200 Y4.200
G1 X-14.200 Y-4.200
G1 X-11.500 Y-4.200
G1 X-11.500 Y4.200
G1 X-14.200 Y4.200
G1 X-13.800 Y3.800
G1 X-13.800 Y-3.800
G1 X-11.900 Y-3.800
G1 X-11.900 Y3.800
G1 X-13.800 Y3.800
G1 X-13.400 Y3.400
G1 X-13.400 Y-3.400
G1 X-12.300 Y-3.400
G1 X-12.300 Y3.400
G1 X-13.400 Y3.400
G1 X-13.000 Y3.000
G1 X-13.000 Y-3.000
G1 X-12.700 Y-3.000
G1 X-12.700 Y3.000
G1 X-13.000 Y3.000
G1 X-13.000 Y3.000 Z0.700
G1 X-13.000 Y3.000
G1 X-12.700 Y3.000
G1 X-12.700 Y-3.000
G1 X-13.000 Y-3.000
G1 X-13.000 Y3.000
G1 X-13.400 Y3.400
G1 X-12.300 Y3.400
G1 X-12.300 Y-3.400
G1 X-13.400 Y-3.400
G1 X-13.400 Y3.400
G1 X-13.800 Y3.800
G1 X-11.900 Y3.800
G1 X-11.900 Y-3.800
G1 X-13.800 Y-3.800
G1 X-13.800 Y3.800
G1 X-14.200 Y4.200
G1 X-11.500 Y4.200
G1 X-11.500 Y-4.200
G1 X-14.200 Y-4.200
G1 X-14.200 Y4.200
G1 X-14.600 Y4.600
G1 X-11.100 Y4.600
G1 X-11.100 Y-4.600
G1 X-14.600 Y-4.600
G1 X-14.600 Y4.600
G1 X-15.000 Y5.000
G1 X-10.700 Y5.000
G1 X-10.700 Y-5.000
G1 X-15.000 Y-5.000
G1 X-15.000 Y5.000
G1 X-15.400 Y5.400
G1 X-10.300 Y5.400
G1 X-10.300 Y-5.400
G1 X-15.400 Y-5.400
G1 X-15.400 Y5.400
G1 X-15.800 Y5.800
G1 X-9.900 Y5.800
G1 X-9.900 Y-5.800
G1 X-15.800 Y-5.800
G1 X-15.800 Y5.800
G1 X-16.200 Y6.200
G1 X-9.500 Y6.200
G1 X-9.500 Y-6.200
G1 X-16.200 Y-6.200
G1 X-16.200 Y6.200
G1 X-16.600 Y6.600
G1 X-9.100 Y6.600
G1 X-9.100 Y-6.600
G1 X-16.600 Y-6.600
G1 X-16.600 Y6.600
G1 X-17.000 Y7.000
G1 X-8.700 Y7.000
G1 X-8.700 Y-7.000
G1 X-17.000 Y-7.000
G1 X-17.000 Y7.000
G1 X-17.400 Y7.400
G1 X-8.300 Y7.400
G1 X-8.300 Y-7.400
G1 X-17.400 Y-7.400
G1 X-17.400 Y7.400
G1 X-17.800 Y7.800
G1 X-7.900 Y7.800
G1 X-7.900 Y-7.800
G1 X-17.800 Y-7.800
G1 X-17.800 Y7.800
G1 X-18.200 Y8.200
G1 X-7.500 Y8.200
G1 X-7.500 Y-8.200
G1 X-18.200 Y-8.200
G1 X-18.200 Y8.200
G1 X-18.600 Y8.600
G1 X-7.100 Y8.600
G1 X-7.100 Y-8.600
G1 X-18.600 Y-8.600
G1 X-18.600 Y8.600
G1 X-19.000 Y9.000
G1 X-6.700 Y9.000
G1 X-6.700 Y-9.000
G1 X-19.000 Y-9.000
G1 X-19.000 Y9.000
G1 X-19.400 Y9.400
G1 X-6.300 Y9.400
G1 X-6.300 Y-9.400
G1 X-19.400 Y-9.400
G1 X-19.400 Y9.400
G1 X-19.800 Y9.800
G1 X-5.900 Y9.800
G1 X-5.900 Y-9.800
G1 X-19.800 Y-9.800
G1 X-19.800 Y9.800
G1 X-19.800 Y9.800 Z0.700
M9
G1 Z10.000
G1 X-4.600 Y10.000
G1 Z0.300
M7
G4 P150
G1 X-4.700 Y9.800 Z0.300
G1 X-4.700 Y9.800
G1 X-4.700 Y-9.800
G1 X4.700 Y-9.800
G1 X4.700 Y9.800
G1 X-4.700 Y9.800
G1 X-4.300 Y9.400
G1 X-4.300 Y-9.400
G1 X4.300 Y-9.400
G1 X4.300 Y9.400
G1 X-4.300 Y9.400
G1 X-3.900 Y9.000
G1 X-3.900 Y-9.000
G1 X3.900 Y-9.000
G1 X3.900 Y9.000
G1 X-3.900 Y9.000
G1 X-3.500 Y8.600
G1 X-3.500 Y-8.600
G1 X3.500 Y-8.600
G1 X3.500 Y8.600
G1 X-3.500 Y8.600
G1 X-3.100 Y8.200
G1 X-3.100 Y-8.200
G1 X3.100 Y-8.200
G1 X3.100 Y8.200
G1 X-3.100 Y8.200
G1 X-2.700 Y7.800
G1 X-2.700 Y-7.800
G1 X2.700 Y-7.800
G1 X2.700 Y7.800
G1 X-2.700 Y7.800
G1 X-2.300 Y7.400
G1 X-2.300 Y-7.400
G1 X2.300 Y-7.400
G1 X2.300 Y7.400
G1 X-2.300 Y7.400
G1 X-1.900 Y7.000
G1 X-1.900 Y-7.000
G1 X1.900 Y-7.000
G1 X1.900 Y7.000
G1 X-1.900 Y7.000
G1 X-1.500 Y6.600
G1 X-1.500 Y-6.600
G1 X1.500 Y-6.600
G1 X1.500 Y6.600
G1 X-1.500 Y6.600
G1 X-1.100 Y6.200
G1 X-1.100 Y-6.200
G1 X1.100 Y-6.200
G1 X1.100 Y6.200
G1 X-1.100 Y6.200
G1 X-0.700 Y5.800
G1 X-0.700 Y-5.800
G1 X0.700 Y-5.800
G1 X0.700 Y5.800
G1 X-0.700 Y5.800
G1 X-0.300 Y5.400
G1 X-0.300 Y-5.400
G1 X0.300 Y-5.400
G1 X0.300 Y5.400
G1 X-0.300 Y5.400
G1 X-0.300 Y5.400 Z0.700
G1 X-0.300 Y5.400
G1 X0.300 Y5.400
G1 X0.300 Y-5.400
G1 X-0.300 Y-5.400
G1 X-0.300 Y5.400
G1 X-0.700 Y5.800
G1 X0.700 Y5.800
G1 X0.700 Y-5.800
G1 X-0.700 Y-5.800
G1 X-0.700 Y5.800
G1 X-1.100 Y6.200
G1 X1.100 Y6.200
G1 X1.100 Y-6.200
G1 X-1.100 Y-6.200
G1 X-1.100 Y6.200
G1 X-1.500 Y6.600
G1 X1.500 Y6.600
G1 X1.500 Y-6.600
G1 X-1.500 Y-6.600
G1 X-1.500 Y6.600
G1 X-1.900 Y7.000
G1 X1.900 Y7.000
G1 X1.900 Y-7.000
G1 X-1.900 Y-7.000
G1 X-1.900 Y7.000
G1 X-2.300 Y7.400
G1 X2.300 Y7.400
G1 X2.300 Y-7.400
G1 X-2.300 Y-7.400
G1 X-2.300 Y7.400
G1 X-2.700 Y7.800
G1 X2.700 Y7.800
G1 X2.700 Y-7.800
G1 X-2.700 Y-7.800
G1 X-2.700 Y7.800
G1 X-3.100 Y8.200
G1 X3.100 Y8.200
G1 X3.100 Y-8.200
G1 X-3.100 Y-8.200
G1 X-3.100 Y8.200
G1 X-3.500 Y8.600
G1 X3.500 Y8.600
G1 X3.500 Y-8.600
G1 X-3.500 Y-8.600
G1 X-3.500 Y8.600
G1 X-3.900 Y9.000
G1 X3.900 Y9.000
G1 X3.900 Y-9.000
G1 X-3.900 Y-9.000
G1 X-3.900 Y9.000
G1 X-4.300 Y9.400
G1 X4.300 Y9.400
G1 X4.300 Y-9.400
G1 X-4.300 Y-9.400
G1 X-4.300 Y9.400
G1 X-4.700 Y9.800
G1 X4.700 Y9.800
G1 X4.700 Y-9.800
G1 X-4.700 Y-9.800
G1 X-4.700 Y9.800
G1 X-4.700 Y9.800 Z0.700
M9
G1 Z10.000
G1 X20.000 Y-10.000
G1 Z0.300
M7
G4 P150
G1 X19.800 Y-9.800 Z0.300
G1 X19.800 Y-9.800
G1 X19.800 Y9.800
G1 X5.900 Y9.800
G1 X5.900 Y-9.800
G1 X19.800 Y-9.800
G1 X19.400 Y-9.400
G1 X19.400 Y9.400
G1 X6.300 Y9.400
G1 X6.300 Y-9.400
G1 X19.400 Y-9.400
G1 X19.000 Y-9.000
G1 X19.000 Y9.000
G1 X6.700 Y9.000
G1 X6.700 Y-9.000
G1 X19.000 Y-9.000
G1 X18.600 Y-8.600
G1 X18.600 Y8.600
G1 X7.100 Y8.600
G1 X7.100 Y-8.600
G1 X18.600 Y-8.600
G1 X18.200 Y-8.200
G1 X18.200 Y8.200
G1 X7.500 Y8.200
G1 X7.500 Y-8.200
G1 X18.200 Y-8.200
G1 X17.800 Y-7.800
G1 X17.800 Y7.800
G1 X7.900 Y7.800
G1 X7.900 Y-7.800
G1 X17.800 Y-7.800
G1 X17.400 Y-7.400
G1 X17.400 Y7.400
G1 X8.300 Y7.400
G1 X8.300 Y-7.400
G1 X17.400 Y-7.400
G1 X17.000 Y-7.000
G1 X17.000 Y7.000
G1 X8.700 Y7.000
G1 X8.700 Y-7.000
G1 X17.000 Y-7.000
G1 X16.600 Y-6.600
G1 X16.600 Y6.600
G1 X9.100 Y6.600
G1 X9.100 Y-6.600
G1 X16.600 Y-6.600
G1 X16.200 Y-6.200
G1 X16.200 Y6.200
G1 X9.500 Y6.200
G1 X9.500 Y-6.200
G1 X16.200 Y-6.200
G1 X15.800 Y-5.800
G1 X15.800 Y5.800
G1 X9.900 Y5.800
G1 X9.900 Y-5.800
G1 X15.800 Y-5.800
G1 X15.400 Y-5.400
G1 X15.400 Y5.400
G1 X10.300 Y5.400
G1 X10.300 Y-5.400
G1 X15.400 Y-5.400
G1 X15.000 Y-5.000
G1 X15.000 Y5.000
G1 X10.700 Y5.000
G1 X10.700 Y-5.000
G1 X15.000 Y-5.000
G1 X14.600 Y-4.600
G1 X14.600 Y4.600
G1 X11.100 Y4.600
G1 X11.100 Y-4.600
G1 X14.600 Y-4.600
G1 X14.200 Y-4.200
G1 X14.200 Y4.200
G1 X11.500 Y4.200
G1 X11.500 Y-4.200
G1 X14.200 Y-4.200
G1 X13.800 Y-3.800
G1 X13.800 Y3.800
G1 X11.900 Y3.800
G1 X11.900 Y-3.800
G1 X13.800 Y-3.800
G1 X13.400 Y-3.400
G1 X13.400 Y3.400
G1 X12.300 Y3.400
G1 X12.300 Y-3.400
G1 X13.400 Y-3.400
G1 X13.000 Y-3.000
G1 X13.000 Y3.000
G1 X12.700 Y3.000
G1 X12.700 Y-3.000
G1 X13.000 Y-3.000
G1 X13.000 Y-3.000 Z0.700
G1 X13.000 Y-3.000
G1 X12.700 Y-3.000
G1 X12.700 Y3.000
G1 X13.000 Y3.000
G1 X13.000 Y-3.000
G1 X13.400 Y-3.400
G1 X12.300 Y-3.400
G1 X12.300 Y3.400
G1 X13.400 Y3.400
G1 X13.400 Y-3.400
G1 X13.800 Y-3.800
G1 X11.900 Y-3.800
G1 X11.900 Y3.800
G1 X13.800 Y3.800
G1 X13.800 Y-3.800
G1 X14.200 Y-4.200
G1 X11.500 Y-4.200
G1 X11.500 Y4.200
G1 X14.200 Y4.200
G1 X14.200 Y-4.200
G1 X14.600 Y-4.600
G1 X11.100 Y-4.600
G1 X11.100 Y4.600
G1 X14.600 Y4.600
G1 X14.600 Y-4.600
G1 X15.000 Y-5.000
G1 X10.700 Y-5.000
G1 X10.700 Y5.000
G1 X15.000 Y5.000
G1 X15.000 Y-5.000
G1 X15.400 Y-5.400
G1 X10.300 Y-5.400
G1 X10.300 Y5.400
G1 X15.400 Y5.400
G1 X15.400 Y-5.400
G1 X15.800 Y-5.800
G1 X9.900 Y-5.800
G1 X9.900 Y5.800
G1 X15.800 Y5.800
G1 X15.800 Y-5.800
G1 X16.200 Y-6.200
G1 X9.500 Y-6.200
G1 X9.500 Y6.200
G1 X16.200 Y6.200
G1 X16.200 Y-6.200
G1 X16.600 Y-6.600
G1 X9.100 Y-6.600
G1 X9.100 Y6.600
G1 X16.600 Y6.600
G1 X16.600 Y-6.600
G1 X17.000 Y-7.000
G1 X8.700 Y-7.000
G1 X8.700 Y7.000
G1 X17.000 Y7.000
G1 X17.000 Y-7.000
G1 X17.400 Y-7.400
G1 X8.300 Y-7.400
G1 X8.300 Y7.400
G1 X17.400 Y7.400
G1 X17.400 Y-7.400
G1 X17.800 Y-7.800
G1 X7.900 Y-7.800
G1 X7.900 Y7.800
G1 X17.800 Y7.800
G1 X17.800 Y-7.800
G1 X18.200 Y-8.200
G1 X7.500 Y-8.200
G1 X7.500 Y8.200
G1 X18.200 Y8.200
G1 X18.200 Y-8.200
G1 X18.600 Y-8.600
G1 X7.100 Y-8.600
G1 X7.100 Y8.600
G1 X18.600 Y8.600
G1 X18.600 Y-8.600
G1 X19.000 Y-9.000
G1 X6.700 Y-9.000
G1 X6.700 Y9.000
G1 X19.000 Y9.000
G1 X19.000 Y-9.000
G1 X19.400 Y-9.400
G1 X6.300 Y-9.400
G1 X6.300 Y9.400
G1 X19.400 Y9.400
G1 X19.400 Y-9.400
G1 X19.800 Y-9.800
G1 X5.900 Y-9.800
G1 X5.900 Y9.800
G1 X19.800 Y9.800
G1 X19.800 Y-9.800
G1 X19.800 Y-9.800 Z0.700
M9
G1 Z10.000
G1 X-20.000 Y0.000
G1 Z0.700
M7
G4 P150
G1 X-10.201 Y0.200 Z1.100
G1 X-10.201 Y0.200
G1 X10.200 Y0.200
G1 X10.200 Y-0.200
G1 X-10.201 Y-0.200
G1 X-10.201 Y0.000
G1 X-10.201 Y0.200
G1 X-10.601 Y0.600
G1 X10.600 Y0.600
G1 X10.600 Y-0.600
G1 X-10.601 Y-0.600
G1 X-10.601 Y0.000
G1 X-10.601 Y0.600
G1 X-11.001 Y1.000
G1 X11.000 Y1.000
G1 X11.000 Y-1.000
G1 X-11.001 Y-1.000
G1 X-11.001 Y0.000
G1 X-11.001 Y1.000
G1 X-11.401 Y1.400
G1 X11.400 Y1.400
G1 X11.400 Y-1.400
G1 X-11.401 Y-1.400
G1 X-11.401 Y0.000
G1 X-11.401 Y1.400
G1 X-11.801 Y1.800
G1 X11.800 Y1.800
G1 X11.800 Y-1.800
G1 X-11.801 Y-1.800
G1 X-11.801 Y0.000
G1 X-11.801 Y1.800
G1 X-12.201 Y2.200
G1 X12.200 Y2.200
G1 X12.200 Y-2.200
G1 X-12.201 Y-2.200
G1 X-12.201 Y0.000
G1 X-12.201 Y2.200
G1 X-12.601 Y2.600
G1 X12.600 Y2.600
G1 X12.600 Y-2.600
G1 X-12.601 Y-2.600
G1 X-12.601 Y0.000
G1 X-12.601 Y2.600
G1 X-13.001 Y3.000
G1 X13.000 Y3.000
G1 X13.000 Y-3.000
G1 X-13.001 Y-3.000
G1 X-13.001 Y0.000
G1 X-13.001 Y3.000
G1 X-13.401 Y3.400
G1 X13.400 Y3.400
G1 X13.400 Y-3.400
G1 X-13.401 Y-3.400
G1 X-13.401 Y0.000
G1 X-13.401 Y3.400
G1 X-13.801 Y3.800
G1 X13.800 Y3.800
G1 X13.800 Y-3.800
G1 X-13.801 Y-3.800
G1 X-13.801 Y0.000
G1 X-13.801 Y3.800
G1 X-14.201 Y4.200
G1 X14.200 Y4.200
G1 X14.200 Y-4.200
G1 X-14.201 Y-4.200
G1 X-14.201 Y0.000
G1 X-14.201 Y4.200
G1 X-14.601 Y4.600
G1 X14.600 Y4.600
G1 X14.600 Y-4.600
G1 X-14.601 Y-4.600
G1 X-14.601 Y0.000
G1 X-14.601 Y4.600
G1 X-15.000 Y5.000
G1 X15.000 Y5.000
G1 X15.000 Y-5.000
G1 X-15.000 Y-5.000
G1 X-15.001 Y0.000
G1 X-15.000 Y5.000
G1 X-15.400 Y5.400
G1 X15.400 Y5.400
G1 X15.400 Y-5.400
G1 X-15.400 Y-5.400
G1 X-15.401 Y0.000
G1 X-15.400 Y5.400
G1 X-15.800 Y5.800
G1 X15.800 Y5.800
G1 X15.800 Y-5.800
G1 X-15.800 Y-5.800
G1 X-15.801 Y0.000
G1 X-15.800 Y5.800
G1 X-16.200 Y6.200
G1 X16.200 Y6.200
G1 X16.200 Y-6.200
G1 X-16.200 Y-6.200
G1 X-16.201 Y0.000
G1 X-16.200 Y6.200
G1 X-16.600 Y6.600
G1 X16.600 Y6.600
G1 X16.600 Y-6.600
G1 X-16.600 Y-6.600
G1 X-16.601 Y0.000
G1 X-16.600 Y6.600
G1 X-17.000 Y7.000
G1 X17.000 Y7.000
G1 X17.000 Y-7.000
G1 X-17.000 Y-7.000
G1 X-17.001 Y0.000
G1 X-17.000 Y7.000
G1 X-17.400 Y7.400
G1 X17.400 Y7.400
G1 X17.400 Y-7.400
G1 X-17.400 Y-7.400
G1 X-17.401 Y0.000
G1 X-17.400 Y7.400
G1 X-17.800 Y7.800
G1 X17.800 Y7.800
G1 X17.800 Y-7.800
G1 X-17.800 Y-7.800
G1 X-17.801 Y0.000
G1 X-17.800 Y7.800
G1 X-18.200 Y8.200
G1 X18.200 Y8.200
G1 X18.200 Y-8.200
G1 X-18.200 Y-8.200
G1 X-18.201 Y0.000
G1 X-18.200 Y8.200
G1 X-18.600 Y8.600
G1 X18.600 Y8.600
G1 X18.600 Y-8.600
G1 X-18.600 Y-8.600
G1 X-18.601 Y0.000
G1 X-18.600 Y8.600
G1 X-19.000 Y9.000
G1 X19.000 Y9.000
G1 X19.000 Y-9.000
G1 X-19.000 Y-9.000
G1 X-19.001 Y0.000
G1 X-19.000 Y9.000
G1 X-19.400 Y9.400
G1 X19.400 Y9.400
G1 X19.400 Y-9.400
G1 X-19.400 Y-9.400
G1 X-19.401 Y0.000
G1 X-19.400 Y9.400
G1 X-19.800 Y9.800
G1 X19.800 Y9.800
G1 X19.800 Y-9.800
G1 X-19.800 Y-9.800
G1 X-19.801 Y0.000
G1 X-19.800 Y9.800
G1 X-19.800 Y9.800 Z1.100
M9
G1 Z10.000
G1 X-20.001 Y0.000
G1 Z1.500
M7
G4 P150
G1 X-19.801 Y0.000 Z1.500
G1 X-19.801 Y0.000
G1 X-19.800 Y-9.800
G1 X-7.048 Y-9.800
G1 X-7.048 Y9.800
G1 X-19.800 Y9.800
G1 X-19.801 Y0.000
G1 X-19.401 Y0.000
G1 X-19.400 Y-9.400
G1 X-7.448 Y-9.400
G1 X-7.448 Y9.400
G1 X-19.400 Y9.400
G1 X-19.401 Y0.000
G1 X-19.001 Y0.000
G1 X-19.000 Y-9.000
G1 X-7.848 Y-9.000
G1 X-7.848 Y9.000
G1 X-19.000 Y9.000
G1 X-19.001 Y0.000
G1 X-18.601 Y0.000
G1 X-18.600 Y-8.600
G1 X-8.248 Y-8.600
G1 X-8.248 Y8.600
G1 X-18.600 Y8.600
G1 X-18.601 Y0.000
G1 X-18.201 Y0.000
G1 X-18.200 Y-8.200
G1 X-8.648 Y-8.200
G1 X-8.648 Y8.200
G1 X-18.200 Y8.200
G1 X-18.201 Y0.000
G1 X-17.801 Y0.000
G1 X-17.800 Y-7.800
G1 X-9.048 Y-7.800
G1 X-9.048 Y7.800
G1 X-17.800 Y7.800
G1 X-17.801 Y0.000
G1 X-17.401 Y0.000
G1 X-17.400 Y-7.400
G1 X-9.448 Y-7.400
G1 X-9.448 Y7.400
G1 X-17.400 Y7.400
G1 X-17.401 Y0.000
G1 X-17.001 Y0.000
G1 X-17.000 Y-7.000
G1 X-9.848 Y-7.000
G1 X-9.848 Y7.000
G1 X-17.000 Y7.000
G1 X-17.001 Y0.000
G1 X-16.601 Y0.000
G1 X-16.600 Y-6.600
G1 X-10.248 Y-6.600
G1 X-10.248 Y6.600
G1 X-16.600 Y6.600
G1 X-16.601 Y0.000
G1 X-16.201 Y0.000
G1 X-16.200 Y-6.200
G1 X-10.648 Y-6.200
G1 X-10.648 Y6.200
G1 X-16.200 Y6.200
G1 X-16.201 Y0.000
G1 X-15.801 Y0.000
G1 X-15.800 Y-5.800
G1 X-11.048 Y-5.800
G1 X-11.048 Y5.800
G1 X-15.800 Y5.800
G1 X-15.801 Y0.000
G1 X-15.401 Y0.000
G1 X-15.400 Y-5.400
G1 X-11.448 Y-5.400
G1 X-11.448 Y5.400
G1 X-15.400 Y5.400
G1 X-15.401 Y0.000
G1 X-15.001 Y0.000
G1 X-15.000 Y-5.000
G1 X-11.848 Y-5.000
G1 X-11.848 Y5.000
G1 X-15.000 Y5.000
G1 X-15.001 Y0.000
G1 X-14.601 Y0.000
G1 X-14.601 Y-4.600
G1 X-12.248 Y-4.600
G1 X-12.248 Y4.600
G1 X-14.601 Y4.600
G1 X-14.601 Y0.000
G1 X-14.201 Y0.000
G1 X-14.201 Y-4.200
G1 X-12.648 Y-4.200
G1 X-12.648 Y4.200
G1 X-14.201 Y4.200
G1 X-14.201 Y0.000
G1 X-13.801 Y0.000
G1 X-13.801 Y-3.800
G1 X-13.048 Y-3.800
G1 X-13.048 Y3.800
G1 X-13.801 Y3.800
G1 X-13.801 Y0.000
G1 X-14.201 Y0.000 Z1.900
G1 X-14.201 Y0.000
G1 X-14.201 Y4.200
G1 X-13.507 Y4.200
G1 X-13.507 Y-4.200
G1 X-14.201 Y-4.200
G1 X-14.201 Y0.000
G1 X-14.601 Y0.000
G1 X-14.601 Y4.600
G1 X-13.107 Y4.600
G1 X-13.107 Y-4.600
G1 X-14.601 Y-4.600
G1 X-14.601 Y0.000
G1 X-15.001 Y0.000
G1 X-15.000 Y5.000
G1 X-12.707 Y5.000
G1 X-12.707 Y-5.000
G1 X-15.000 Y-5.000
G1 X-15.001 Y0.000
G1 X-15.401 Y0.000
G1 X-15.400 Y5.400
G1 X-12.307 Y5.400
G1 X-12.307 Y-5.400
G1 X-15.400 Y-5.400
G1 X-15.401 Y0.000
G1 X-15.801 Y0.000
G1 X-15.800 Y5.800
G1 X-11.907 Y5.800
G1 X-11.907 Y-5.800
G1 X-15.800 Y-5.800
G1 X-15.801 Y0.000
G1 X-16.201 Y0.000
G1 X-16.200 Y6.200
G1 X-11.507 Y6.200
G1 X-11.507 Y-6.200
G1 X-16.200 Y-6.200
G1 X-16.201 Y0.000
G1 X-16.601 Y0.000
G1 X-16.600 Y6.600
G1 X-11.107 Y6.600
G1 X-11.107 Y-6.600
G1 X-16.600 Y-6.600
G1 X-16.601 Y0.000
G1 X-17.001 Y0.000
G1 X-17.000 Y7.000
G1 X-10.707 Y7.000
G1 X-10.707 Y-7.000
G1 X-17.000 Y-7.000
G1 X-17.001 Y0.000
G1 X-17.401 Y0.000
G1 X-17.400 Y7.400
G1 X-10.307 Y7.400
G1 X-10.307 Y-7.400
G1 X-17.400 Y-7.400
G1 X-17.401 Y0.000
G1 X-17.801 Y0.000
G1 X-17.800 Y7.800
G1 X-9.907 Y7.800
G1 X-9.907 Y-7.800
G1 X-17.800 Y-7.800
G1 X-17.801 Y0.000
G1 X-18.201 Y0.000
G1 X-18.200 Y8.200
G1 X-9.507 Y8.200
G1 X-9.507 Y-8.200
G1 X-18.200 Y-8.200
G1 X-18.201 Y0.000
G1 X-18.601 Y0.000
G1 X-18.600 Y8.600
G1 X-9.107 Y8.600
G1 X-9.107 Y-8.600
G1 X-18.600 Y-8.600
G1 X-18.601 Y0.000
G1 X-19.001 Y0.000
G1 X-19.000 Y9.000
G1 X-8.707 Y9.000
G1 X-8.707 Y-9.000
G1 X-19.000 Y-9.000
G1 X-19.001 Y0.000
G1 X-19.401 Y0.000
G1 X-19.400 Y9.400
G1 X-8.307 Y9.400
G1 X-8.307 Y-9.400
G1 X-19.400 Y-9.400
G1 X-19.401 Y0.000
G1 X-19.801 Y0.000
G1 X-19.800 Y9.800
G1 X-7.907 Y9.800
G1 X-7.907 Y-9.800
G1 X-19.800 Y-9.800
G1 X-19.801 Y0.000
G1 X-19.801 Y0.000 Z1.900
G1 X-19.801 Y0.000 Z2.300
G1 X-19.801 Y0.000
G1 X-19.800 Y-9.800
G1 X-8.445 Y-9.800
G1 X-8.445 Y9.800
G1 X-19.800 Y9.800
G1 X-19.801 Y0.000
G1 X-19.401 Y0.000
G1 X-19.400 Y-9.400
G1 X-8.845 Y-9.400
G1 X-8.845 Y9.400
G1 X-19.400 Y9.400
G1 X-19.401 Y0.000
G1 X-19.001 Y0.000
G1 X-19.000 Y-9.000
G1 X-9.245 Y-9.000
G1 X-9.245 Y9.000
G1 X-19.000 Y9.000
G1 X-19.001 Y0.000
G1 X-18.601 Y0.000
G1 X-18.600 Y-8.600
G1 X-9.645 Y-8.600
G1 X-9.645 Y8.600
G1 X-18.600 Y8.600
G1 X-18.601 Y0.000
G1 X-18.201 Y0.000
G1 X-18.200 Y-8.200
G1 X-10.045 Y-8.200
G1 X-10.045 Y8.200
G1 X-18.200 Y8.200
G1 X-18.201 Y0.000
G1 X-17.801 Y0.000
G1 X-17.800 Y-7.800
G1 X-10.445 Y-7.800
G1 X-10.445 Y7.800
G1 X-17.800 Y7.800
G1 X-17.801 Y0.000
G1 X-17.401 Y0.000
G1 X-17.400 Y-7.400
G1 X-10.845 Y-7.400
G1 X-10.845 Y7.400
G1 X-17.400 Y7.400
G1 X-17.401 Y0.000
G1 X-17.001 Y0.000
G1 X-17.000 Y-7.000
G1 X-11.245 Y-7.000
G1 X-11.245 Y7.000
G1 X-17.000 Y7.000
G1 X-17.001 Y0.000
G1 X-16.601 Y0.000
G1 X-16.600 Y-6.600
G1 X-11.645 Y-6.600
G1 X-11.645 Y6.600
G1 X-16.600 Y6.600
G1 X-16.601 Y0.000
G1 X-16.201 Y0.000
G1 X-16.200 Y-6.200
G1 X-12.045 Y-6.200
G1 X-12.045 Y6.200
G1 X-16.200 Y6.200
G1 X-16.201 Y0.000
G1 X-15.801 Y0.000
G1 X-15.800 Y-5.800
G1 X-12.445 Y-5.800
G1 X-12.445 Y5.800
G1 X-15.800 Y5.800
G1 X-15.801 Y0.000
G1 X-15.401 Y0.000
G1 X-15.400 Y-5.400
G1 X-12.845 Y-5.400
G1 X-12.845 Y5.400
G1 X-15.400 Y5.400
G1 X-15.401 Y0.000
G1 X-15.001 Y0.000
G1 X-15.000 Y-5.000
G1 X-13.245 Y-5.000
G1 X-13.245 Y5.000
G1 X-15.000 Y5.000
G1 X-15.001 Y0.000
G1 X-14.601 Y0.000
G1 X-14.601 Y-4.600
G1 X-13.645 Y-4.600
G1 X-13.645 Y4.600
G1 X-14.601 Y4.600
G1 X-14.601 Y0.000
G1 X-14.201 Y0.000
G1 X-14.201 Y-4.200
G1 X-14.045 Y-4.200
G1 X-14.045 Y4.200
G1 X-14.201 Y4.200
G1 X-14.201 Y0.000
G1 X-14.601 Y0.000 Z2.700
G1 X-14.601 Y0.000
G1 X-14.601 Y4.600
G1 X-14.039 Y4.600
G1 X-14.039 Y-4.600
G1 X-14.601 Y-4.600
G1 X-14.601 Y0.000
G1 X-15.001 Y0.000
G1 X-15.000 Y5.000
G1 X-13.639 Y5.000
G1 X-13.639 Y-5.000
G1 X-15.000 Y-5.000
G1 X-15.001 Y0.000
G1 X-15.401 Y0.000
G1 X-15.400 Y5.400
G1 X-13.239 Y5.400
G1 X-13.239 Y-5.400
G1 X-15.400 Y-5.400
G1 X-15.401 Y0.000
G1 X-15.801 Y0.000
G1 X-15.800 Y5.800
G1 X-12.839 Y5.800
G1 X-12.839 Y-5.800
G1 X-15.800 Y-5.800
G1 X-15.801 Y0.000
G1 X-16.201 Y0.000
G1 X-16.200 Y6.200
G1 X-12.439 Y6.200
G1 X-12.439 Y-6.200
G1 X-16.200 Y-6.200
G1 X-16.201 Y0.000
G1 X-16.601 Y0.000
G1 X-16.600 Y6.600
G1 X-12.039 Y6.600
G1 X-12.039 Y-6.600
G1 X-16.600 Y-6.600
G1 X-16.601 Y0.000
G1 X-17.001 Y0.000
G1 X-17.000 Y7.000
G1 X-11.639 Y7.000
G1 X-11.639 Y-7.000
G1 X-17.000 Y-7.000
G1 X-17.001 Y0.000
G1 X-17.401 Y0.000
G1 X-17.400 Y7.400
G1 X-11.239 Y7.400
G1 X-11.239 Y-7.400
G1 X-17.400 Y-7.400
G1 X-17.401 Y0.000
G1 X-17.801 Y0.000
G1 X-17.800 Y7.800
G1 X-10.839 Y7.800
G1 X-10.839 Y-7.800
G1 X-17.800 Y-7.800
G1 X-17.801 Y0.000
G1 X-18.201 Y0.000
G1 X-18.200 Y8.200
G1 X-10.439 Y8.200
G1 X-10.439 Y-8.200
G1 X-18.200 Y-8.200
G1 X-18.201 Y0.000
G1 X-18.601 Y0.000
G1 X-18.600 Y8.600
G1 X-10.039 Y8.600
G1 X-10.039 Y-8.600
G1 X-18.600 Y-8.600
G1 X-18.601 Y0.000
G1 X-19.001 Y0.000
G1 X-19.000 Y9.000
G1 X-9.639 Y9.000
G1 X-9.639 Y-9.000
G1 X-19.000 Y-9.000
G1 X-19.001 Y0.000
G1 X-19.401 Y0.000
G1 X-19.400 Y9.400
G1 X-9.239 Y9.400
G1 X-9.239 Y-9.400
G1 X-19.400 Y-9.400
G1 X-19.401 Y0.000
G1 X-19.801 Y0.000
G1 X-19.800 Y9.800
G1 X-8.839 Y9.800
G1 X-8.839 Y-9.800
G1 X-19.800 Y-9.800
G1 X-19.801 Y0.000
G1 X-19.801 Y0.000 Z2.700
G1 X-19.801 Y0.000 Z3.100
G1 X-19.801 Y0.000
G1 X-19.800 Y-9.800
G1 X-9.140 Y-9.800
G1 X-9.140 Y9.800
G1 X-19.800 Y9.800
G1 X-19.801 Y0.000
G1 X-19.401 Y0.000
G1 X-19.400 Y-9.400
G1 X-9.540 Y-9.400
G1 X-9.540 Y9.400
G1 X-19.400 Y9.400
G1 X-19.401 Y0.000
G1 X-19.001 Y0.000
G1 X-19.000 Y-9.000
G1 X-9.940 Y-9.000
G1 X-9.940 Y9.000
G1 X-19.000 Y9.000
G1 X-19.001 Y0.000
G1 X-18.601 Y0.000
G1 X-18.600 Y-8.600
G1 X-10.340 Y-8.600
G1 X-10.340 Y8.600
G1 X-18.600 Y8.600
G1 X-18.601 Y0.000
G1 X-18.201 Y0.000
G1 X-18.200 Y-8.200
G1 X-10.740 Y-8.200
G1 X-10.740 Y8.200
G1 X-18.200 Y8.200
G1 X-18.201 Y0.000
G1 X-17.801 Y0.000
G1 X-17.800 Y-7.800
G1 X-11.140 Y-7.800
G1 X-11.140 Y7.800
G1 X-17.800 Y7.800
G1 X-17.801 Y0.000
G1 X-17.401 Y0.000
G1 X-17.400 Y-7.400
G1 X-11.540 Y-7.400
G1 X-11.540 Y7.400
G1 X-17.400 Y7.400
G1 X-17.401 Y0.000
G1 X-17.001 Y0.000
G1 X-17.000 Y-7.000
G1 X-11.940 Y-7.000
G1 X-11.940 Y7.000
G1 X-17.000 Y7.000
G1 X-17.001 Y0.000
G1 X-16.601 Y0.000
G1 X-16.600 Y-6.600
G1 X-12.340 Y-6.600
G1 X-12.340 Y6.600
G1 X-16.600 Y6.600
G1 X-16.601 Y0.000
G1 X-16.201 Y0.000
G1 X-16.200 Y-6.200
G1 X-12.740 Y-6.200
G1 X-12.740 Y6.200
G1 X-16.200 Y6.200
G1 X-16.201 Y0.000
G1 X-15.801 Y0.000
G1 X-15.800 Y-5.800
G1 X-13.140 Y-5.800
G1 X-13.140 Y5.800
G1 X-15.800 Y5.800
G1 X-15.801 Y0.000
G1 X-15.401 Y0.000
G1 X-15.400 Y-5.400
G1 X-13.540 Y-5.400
G1 X-13.540 Y5.400
G1 X-15.400 Y5.400
G1 X-15.401 Y0.000
G1 X-15.001 Y0.000
G1 X-15.000 Y-5.000
G1 X-13.940 Y-5.000
G1 X-13.940 Y5.000
G1 X-15.000 Y5.000
G1 X-15.001 Y0.000
G1 X-14.601 Y0.000
G1 X-14.601 Y-4.600
G1 X-14.340 Y-4.600
G1 X-14.340 Y4.600
G1 X-14.601 Y4.600
G1 X-14.601 Y0.000
G1 X-14.601 Y0.000 Z3.500
G1 X-14.601 Y0.000
G1 X-14.601 Y4.600
G1 X-14.572 Y4.600
G1 X-14.572 Y-4.600
G1 X-14.601 Y-4.600
G1 X-14.601 Y0.000
G1 X-15.001 Y0.000
G1 X-15.000 Y5.000
G1 X-14.172 Y5.000
G1 X-14.172 Y-5.000
G1 X-15.000 Y-5.000
G1 X-15.001 Y0.000
G1 X-15.401 Y0.000
G1 X-15.400 Y5.400
G1 X-13.772 Y5.400
G1 X-13.772 Y-5.400
G1 X-15.400 Y-5.400
G1 X-15.401 Y0.000
G1 X-15.801 Y0.000
G1 X-15.800 Y5.800
G1 X-13.372 Y5.800
G1 X-13.372 Y-5.800
G1 X-15.800 Y-5.800
G1 X-15.801 Y0.000
G1 X-16.201 Y0.000
G1 X-16.200 Y6.200
G1 X-12.972 Y6.200
G1 X-12.972 Y-6.200
G1 X-16.200 Y-6.200
G1 X-16.201 Y0.000
G1 X-16.601 Y0.000
G1 X-16.600 Y6.600
G1 X-12.572 Y6.600
G1 X-12.572 Y-6.600
G1 X-16.600 Y-6.600
G1 X-16.601 Y0.000
G1 X-17.001 Y0.000
G1 X-17.000 Y7.000
G1 X-12.172 Y7.000
G1 X-12.172 Y-7.000
G1 X-17.000 Y-7.000
G1 X-17.001 Y0.000
G1 X-17.401 Y0.000
G1 X-17.400 Y7.400
G1 X-11.772 Y7.400
G1 X-11.772 Y-7.400
G1 X-17.400 Y-7.400
G1 X-17.401 Y0.000
G1 X-17.801 Y0.000
G1 X-17.800 Y7.800
G1 X-11.372 Y7.800
G1 X-11.372 Y-7.800
G1 X-17.800 Y-7.800
G1 X-17.801 Y0.000
G1 X-18.201 Y0.000
G1 X-18.200 Y8.200
G1 X-10.972 Y8.200
G1 X-10.972 Y-8.200
G1 X-18.200 Y-8.200
G1 X-18.201 Y0.000
G1 X-18.601 Y0.000
G1 X-18.600 Y8.600
G1 X-10.572 Y8.600
G1 X-10.572 Y-8.600
G1 X-18.600 Y-8.600
G1 X-18.601 Y0.000
G1 X-19.001 Y0.000
G1 X-19.000 Y9.000
G1 X-10.172 Y9.000
G1 X-10.172 Y-9.000
G1 X-19.000 Y-9.000
G1 X-19.001 Y0.000
G1 X-19.401 Y0.000
G1 X-19.400 Y9.400
G1 X-9.772 Y9.400
G1 X-9.772 Y-9.400
G1 X-19.400 Y-9.400
G1 X-19.401 Y0.000
G1 X-19.801 Y0.000
G1 X-19.800 Y9.800
G1 X-9.372 Y9.800
G1 X-9.372 Y-9.800
G1 X-19.800 Y-9.800
G1 X-19.801 Y0.000
G1 X-19.801 Y0.000 Z3.500
G1 X-19.801 Y0.000 Z3.900
G1 X-19.801 Y0.000
G1 X-19.800 Y-9.800
G1 X-9.546 Y-9.800
G1 X-9.546 Y9.800
G1 X-19.800 Y9.800
G1 X-19.801 Y0.000
G1 X-19.401 Y0.000
G1 X-19.400 Y-9.400
G1 X-9.946 Y-9.400
G1 X-9.946 Y9.400
G1 X-19.400 Y9.400
G1 X-19.401 Y0.000
G1 X-19.001 Y0.000
G1 X-19.000 Y-9.000
G1 X-10.346 Y-9.000
G1 X-10.346 Y9.000
G1 X-19.000 Y9.000
G1 X-19.001 Y0.000
G1 X-18.601 Y0.000
G1 X-18.600 Y-8.600
G1 X-10.746 Y-8.600
G1 X-10.746 Y8.600
G1 X-18.600 Y8.600
G1 X-18.601 Y0.000
G1 X-18.201 Y0.000
G1 X-18.200 Y-8.200
G1 X-11.146 Y-8.200
G1 X-11.146 Y8.200
G1 X-18.200 Y8.200
G1 X-18.201 Y0.000
G1 X-17.801 Y0.000
G1 X-17.800 Y-7.800
G1 X-11.546 Y-7.800
G1 X-11.546 Y7.800
G1 X-17.800 Y7.800
G1 X-17.801 Y0.000
G1 X-17.401 Y0.000
G1 X-17.400 Y-7.400
G1 X-11.946 Y-7.400
G1 X-11.946 Y7.400
G1 X-17.400 Y7.400
G1 X-17.401 Y0.000
G1 X-17.001 Y0.000
G1 X-17.000 Y-7.000
G1 X-12.346 Y-7.000
G1 X-12.346 Y7.000
G1 X-17.000 Y7.000
G1 X-17.001 Y0.000
G1 X-16.601 Y0.000
G1 X-16.600 Y-6.600
G1 X-12.746 Y-6.600
G1 X-12.746 Y6.600
G1 X-16.600 Y6.600
G1 X-16.601 Y0.000
G1 X-16.201 Y0.000
G1 X-16.200 Y-6.200
G1 X-13.146 Y-6.200
G1 X-13.146 Y6.200
G1 X-16.200 Y6.200
G1 X-16.201 Y0.000
G1 X-15.801 Y0.000
G1 X-15.800 Y-5.800
G1 X-13.546 Y-5.800
G1 X-13.546 Y5.800
G1 X-15.800 Y5.800
G1 X-15.801 Y0.000
G1 X-15.401 Y0.000
G1 X-15.400 Y-5.400
G1 X-13.946 Y-5.400
G1 X-13.946 Y5.400
G1 X-15.400 Y5.400
G1 X-15.401 Y0.000
G1 X-15.001 Y0.000
G1 X-15.000 Y-5.000
G1 X-14.346 Y-5.000
G1 X-14.346 Y5.000
G1 X-15.000 Y5.000
G1 X-15.001 Y0.000
G1 X-15.001 Y0.000 Z4.300
G1 X-15.001 Y0.000
G1 X-15.000 Y5.000
G1 X-14.472 Y5.000
G1 X-14.472 Y-5.000
G1 X-15.000 Y-5.000
G1 X-15.001 Y0.000
G1 X-15.401 Y0.000
G1 X-15.400 Y5.400
G1 X-14.072 Y5.400
G1 X-14.072 Y-5.400
G1 X-15.400 Y-5.400
G1 X-15.401 Y0.000
G1 X-15.801 Y0.000
G1 X-15.800 Y5.800
G1 X-13.672 Y5.800
G1 X-13.672 Y-5.800
G1 X-15.800 Y-5.800
G1 X-15.801 Y0.000
G1 X-16.201 Y0.000
G1 X-16.200 Y6.200
G1 X-13.272 Y6.200
G1 X-13.272 Y-6.200
G1 X-16.200 Y-6.200
G1 X-16.201 Y0.000
G1 X-16.601 Y0.000
G1 X-16.600 Y6.600
G1 X-12.872 Y6.600
G1 X-12.872 Y-6.600
G1 X-16.600 Y-6.600
G1 X-16.601 Y0.000
G1 X-17.001 Y0.000
G1 X-17.000 Y7.000
G1 X-12.472 Y7.000
G1 X-12.472 Y-7.000
G1 X-17.000 Y-7.000
G1 X-17.001 Y0.000
G1 X-17.401 Y0.000
G1 X-17.400 Y7.400
G1 X-12.072 Y7.400
G1 X-12.072 Y-7.400
G1 X-17.400 Y-7.400
G1 X-17.401 Y0.000
G1 X-17.801 Y0.000
G1 X-17.800 Y7.800
G1 X-11.672 Y7.800
G1 X-11.672 Y-7.800
G1 X-17.800 Y-7.800
G1 X-17.801 Y0.000
G1 X-18.201 Y0.000
G1 X-18.200 Y8.200
G1 X-11.272 Y8.200
G1 X-11.272 Y-8.200
G1 X-18.200 Y-8.200
G1 X-18.201 Y0.000
G1 X-18.601 Y0.000
G1 X-18.600 Y8.600
G1 X-10.872 Y8.600
G1 X-10.872 Y-8.600
G1 X-18.600 Y-8.600
G1 X-18.601 Y0.000
G1 X-19.001 Y0.000
G1 X-19.000 Y9.000
G1 X-10.472 Y9.000
G1 X-10.472 Y-9.000
G1 X-19.000 Y-9.000
G1 X-19.001 Y0.000
G1 X-19.401 Y0.000
G1 X-19.400 Y9.400
G1 X-10.072 Y9.400
G1 X-10.072 Y-9.400
G1 X-19.400 Y-9.400
G1 X-19.401 Y0.000
G1 X-19.801 Y0.000
G1 X-19.800 Y9.800
G1 X-9.672 Y9.800
G1 X-9.672 Y-9.800
G1 X-19.800 Y-9.800
G1 X-19.801 Y0.000
G1 X-19.801 Y0.000 Z4.300
G1 X-19.801 Y0.000 Z4.700
G1 X-19.801 Y0.000
G1 X-19.800 Y-9.800
G1 X-9.754 Y-9.800
G1 X-9.754 Y9.800
G1 X-19.800 Y9.800
G1 X-19.801 Y0.000
G1 X-19.401 Y0.000
G1 X-19.400 Y-9.400
G1 X-10.154 Y-9.400
G1 X-10.154 Y9.400
G1 X-19.400 Y9.400
G1 X-19.401 Y0.000
G1 X-19.001 Y0.000
G1 X-19.000 Y-9.000
G1 X-10.554 Y-9.000
G1 X-10.554 Y9.000
G1 X-19.000 Y9.000
G1 X-19.001 Y0.000
G1 X-18.601 Y0.000
G1 X-18.600 Y-8.600
G1 X-10.954 Y-8.600
G1 X-10.954 Y8.600
G1 X-18.600 Y8.600
G1 X-18.601 Y0.000
G1 X-18.201 Y0.000
G1 X-18.200 Y-8.200
G1 X-11.354 Y-8.200
G1 X-11.354 Y8.200
G1 X-18.200 Y8.200
G1 X-18.201 Y0.000
G1 X-17.801 Y0.000
G1 X-17.800 Y-7.800
G1 X-11.754 Y-7.800
G1 X-11.754 Y7.800
G1 X-17.800 Y7.800
G1 X-17.801 Y0.000
G1 X-17.401 Y0.000
G1 X-17.400 Y-7.400
G1 X-12.154 Y-7.400
G1 X-12.154 Y7.400
G1 X-17.400 Y7.400
G1 X-17.401 Y0.000
G1 X-17.001 Y0.000
G1 X-17.000 Y-7.000
G1 X-12.554 Y-7.000
G1 X-12.554 Y7.000
G1 X-17.000 Y7.000
G1 X-17.001 Y0.000
G1 X-16.601 Y0.000
G1 X-16.600 Y-6.600
G1 X-12.954 Y-6.600
G1 X-12.954 Y6.600
G1 X-16.600 Y6.600
G1 X-16.601 Y0.000
G1 X-16.201 Y0.000
G1 X-16.200 Y-6.200
G1 X-13.354 Y-6.200
G1 X-13.354 Y6.200
G1 X-16.200 Y6.200
G1 X-16.201 Y0.000
G1 X-15.801 Y0.000
G1 X-15.800 Y-5.800
G1 X-13.754 Y-5.800
G1 X-13.754 Y5.800
G1 X-15.800 Y5.800
G1 X-15.801 Y0.000
G1 X-15.401 Y0.000
G1 X-15.400 Y-5.400
G1 X-14.154 Y-5.400
G1 X-14.154 Y5.400
G1 X-15.400 Y5.400
G1 X-15.401 Y0.000
G1 X-15.001 Y0.000
G1 X-15.000 Y-5.000
G1 X-14.554 Y-5.000
G1 X-14.554 Y5.000
G1 X-15.000 Y5.000
G1 X-15.001 Y0.000
G1 X-15.001 Y0.000 Z5.100
G1 X-15.001 Y0.000
G1 X-15.000 Y5.000
G1 X-14.594 Y5.000
G1 X-14.594 Y-5.000
G1 X-15.000 Y-5.000
G1 X-15.001 Y0.000
G1 X-15.401 Y0.000
G1 X-15.400 Y5.400
G1 X-14.194 Y5.400
G1 X-14.194 Y-5.400
G1 X-15.400 Y-5.400
G1 X-15.401 Y0.000
G1 X-15.801 Y0.000
G1 X-15.800 Y5.800
G1 X-13.794 Y5.800
G1 X-13.794 Y-5.800
G1 X-15.800 Y-5.800
G1 X-15.801 Y0.000
G1 X-16.201 Y0.000
G1 X-16.200 Y6.200
G1 X-13.394 Y6.200
G1 X-13.394 Y-6.200
G1 X-16.200 Y-6.200
G1 X-16.201 Y0.000
G1 X-16.601 Y0.000
G1 X-16.600 Y6.600
G1 X-12.994 Y6.600
G1 X-12.994 Y-6.600
G1 X-16.600 Y-6.600
G1 X-16.601 Y0.000
G1 X-17.001 Y0.000
G1 X-17.000 Y7.000
G1 X-12.594 Y7.000
G1 X-12.594 Y-7.000
G1 X-17.000 Y-7.000
G1 X-17.001 Y0.000
G1 X-17.401 Y0.000
G1 X-17.400 Y7.400
G1 X-12.194 Y7.400
G1 X-12.194 Y-7.400
G1 X-17.400 Y-7.400
G1 X-17.401 Y0.000
G1 X-17.801 Y0.000
G1 X-17.800 Y7.800
G1 X-11.794 Y7.800
G1 X-11.794 Y-7.800
G1 X-17.800 Y-7.800
G1 X-17.801 Y0.000
G1 X-18.201 Y0.000
G1 X-18.200 Y8.200
G1 X-11.394 Y8.200
G1 X-11.394 Y-8.200
G1 X-18.200 Y-8.200
G1 X-18.201 Y0.000
G1 X-18.601 Y0.000
G1 X-18.600 Y8.600
G1 X-10.994 Y8.600
G1 X-10.994 Y-8.600
G1 X-18.600 Y-8.600
G1 X-18.601 Y0.000
G1 X-19.001 Y0.000
G1 X-19.000 Y9.000
G1 X-10.594 Y9.000
G1 X-10.594 Y-9.000
G1 X-19.000 Y-9.000
G1 X-19.001 Y0.000
G1 X-19.401 Y0.000
G1 X-19.400 Y9.400
G1 X-10.194 Y9.400
G1 X-10.194 Y-9.400
G1 X-19.400 Y-9.400
G1 X-19.401 Y0.000
G1 X-19.801 Y0.000
G1 X-19.800 Y9.800
G1 X-9.794 Y9.800
G1 X-9.794 Y-9.800
G1 X-19.800 Y-9.800
G1 X-19.801 Y0.000
G1 X-19.801 Y0.000 Z5.100
M9
G1 Z10.000
G1 X20.001 Y0.000
G1 Z1.500
M7
G4 P150
G1 X19.801 Y0.000 Z1.500
G1 X19.801 Y0.000
G1 X19.800 Y9.800
G1 X7.048 Y9.800
G1 X7.048 Y-9.800
G1 X19.800 Y-9.800
G1 X19.801 Y0.000
G1 X19.401 Y0.000
G1 X19.400 Y9.400
G1 X7.448 Y9.400
G1 X7.448 Y-9.400
G1 X19.400 Y-9.400
G1 X19.401 Y0.000
G1 X19.001 Y0.000
G1 X19.000 Y9.000
G1 X7.848 Y9.000
G1 X7.848 Y-9.000
G1 X19.000 Y-9.000
G1 X19.001 Y0.000
G1 X18.601 Y0.000
G1 X18.600 Y8.600
G1 X8.248 Y8.600
G1 X8.248 Y-8.600
G1 X18.600 Y-8.600
G1 X18.601 Y0.000
G1 X18.201 Y0.000
G1 X18.200 Y8.200
G1 X8.648 Y8.200
G1 X8.648 Y-8.200
G1 X18.200 Y-8.200
G1 X18.201 Y0.000
G1 X17.801 Y0.000
G1 X17.800 Y7.800
G1 X9.048 Y7.800
G1 X9.048 Y-7.800
G1 X17.800 Y-7.800
G1 X17.801 Y0.000
G1 X17.401 Y0.000
G1 X17.400 Y7.400
G1 X9.448 Y7.400
G1 X9.448 Y-7.400
G1 X17.400 Y-7.400
G1 X17.401 Y0.000
G1 X17.001 Y0.000
G1 X17.000 Y7.000
G1 X9.848 Y7.000
G1 X9.848 Y-7.000
G1 X17.000 Y-7.000
G1 X17.001 Y0.000
G1 X16.601 Y0.000
G1 X16.600 Y6.600
G1 X10.248 Y6.600
G1 X10.248 Y-6.600
G1 X16.600 Y-6.600
G1 X16.601 Y0.000
G1 X16.201 Y0.000
G1 X16.200 Y6.200
G1 X10.648 Y6.200
G1 X10.648 Y-6.200
G1 X16.200 Y-6.200
G1 X16.201 Y0.000
G1 X15.801 Y0.000
G1 X15.800 Y5.800
G1 X11.048 Y5.800
G1 X11.048 Y-5.800
G1 X15.800 Y-5.800
G1 X15.801 Y0.000
G1 X15.401 Y0.000
G1 X15.400 Y5.400
G1 X11.448 Y5.400
G1 X11.448 Y-5.400
G1 X15.400 Y-5.400
G1 X15.401 Y0.000
G1 X15.001 Y0.000
G1 X15.000 Y5.000
G1 X11.848 Y5.000
G1 X11.848 Y-5.000
G1 X15.000 Y-5.000
G1 X15.001 Y0.000
G1 X14.601 Y0.000
G1 X14.601 Y4.600
G1 X12.248 Y4.600
G1 X12.248 Y-4.600
G1 X14.601 Y-4.600
G1 X14.601 Y0.000
G1 X14.201 Y0.000
G1 X14.201 Y4.200
G1 X12.648 Y4.200
G1 X12.648 Y-4.200
G1 X14.201 Y-4.200
G1 X14.201 Y0.000
G1 X13.801 Y0.000
G1 X13.801 Y3.800
G1 X13.048 Y3.800
G1 X13.048 Y-3.800
G1 X13.801 Y-3.800
G1 X13.801 Y0.000
G1 X14.201 Y0.000 Z1.900
G1 X14.201 Y0.000
G1 X14.201 Y-4.200
G1 X13.507 Y-4.200
G1 X13.507 Y4.200
G1 X14.201 Y4.200
G1 X14.201 Y0.000
G1 X14.601 Y0.000
G1 X14.601 Y-4.600
G1 X13.107 Y-4.600
G1 X13.107 Y4.600
G1 X14.601 Y4.600
G1 X14.601 Y0.000
G1 X15.001 Y0.000
G1 X15.000 Y-5.000
G1 X12.707 Y-5.000
G1 X12.707 Y5.000
G1 X15.000 Y5.000
G1 X15.001 Y0.000
G1 X15.401 Y0.000
G1 X15.400 Y-5.400
G1 X12.307 Y-5.400
G1 X12.307 Y5.400
G1 X15.400 Y5.400
G1 X15.401 Y0.000
G1 X15.801 Y0.000
G1 X15.800 Y-5.800
G1 X11.907 Y-5.800
G1 X11.907 Y5.800
G1 X15.800 Y5.800
G1 X15.801 Y0.000
G1 X16.201 Y0.000
G1 X16.200 Y-6.200
G1 X11.507 Y-6.200
G1 X11.507 Y6.200
G1 X16.200 Y6.200
G1 X16.201 Y0.000
G1 X16.601 Y0.000
G1 X16.600 Y-6.600
G1 X11.107 Y-6.600
G1 X11.107 Y6.600
G1 X16.600 Y6.600
G1 X16.601 Y0.000
G1 X17.001 Y0.000
G1 X17.000 Y-7.000
G1 X10.707 Y-7.000
G1 X10.707 Y7.000
G1 X17.000 Y7.000
G1 X17.001 Y0.000
G1 X17.401 Y0.000
G1 X17.400 Y-7.400
G1 X10.307 Y-7.400
G1 X10.307 Y7.400
G1 X17.400 Y7.400
G1 X17.401 Y0.000
G1 X17.801 Y0.000
G1 X17.800 Y-7.800
G1 X9.907 Y-7.800
G1 X9.907 Y7.800
G1 X17.800 Y7.800
G1 X17.801 Y0.000
G1 X18.201 Y0.000
G1 X18.200 Y-8.200
G1 X9.507 Y-8.200
G1 X9.507 Y8.200
G1 X18.200 Y8.200
G1 X18.201 Y0.000
G1 X18.601 Y0.000
G1 X18.600 Y-8.600
G1 X9.107 Y-8.600
G1 X9.107 Y8.600
G1 X18.600 Y8.600
G1 X18.601 Y0.000
G1 X19.001 Y0.000
G1 X19.000 Y-9.000
G1 X8.707 Y-9.000
G1 X8.707 Y9.000
G1 X19.000 Y9.000
G1 X19.001 Y0.000
G1 X19.401 Y0.000
G1 X19.400 Y-9.400
G1 X8.307 Y-9.400
G1 X8.307 Y9.400
G1 X19.400 Y9.400
G1 X19.401 Y0.000
G1 X19.801 Y0.000
G1 X19.800 Y-9.800
G1 X7.907 Y-9.800
G1 X7.907 Y9.800
G1 X19.800 Y9.800
G1 X19.801 Y0.000
G1 X19.801 Y0.000 Z1.900
G1 X19.801 Y0.000 Z2.300
G1 X19.801 Y0.000
G1 X19.800 Y9.800
G1 X8.445 Y9.800
G1 X8.445 Y-9.800
G1 X19.800 Y-9.800
G1 X19.801 Y0.000
G1 X19.401 Y0.000
G1 X19.400 Y9.400
G1 X8.845 Y9.400
G1 X8.845 Y-9.400
G1 X19.400 Y-9.400
G1 X19.401 Y0.000
G1 X19.001 Y0.000
G1 X19.000 Y9.000
G1 X9.245 Y9.000
G1 X9.245 Y-9.000
G1 X19.000 Y-9.000
G1 X19.001 Y0.000
G1 X18.601 Y0.000
G1 X18.600 Y8.600
G1 X9.645 Y8.600
G1 X9.645 Y-8.600
G1 X18.600 Y-8.600
G1 X18.601 Y0.000
G1 X18.201 Y0.000
G1 X18.200 Y8.200
G1 X10.045 Y8.200
G1 X10.045 Y-8.200
G1 X18.200 Y-8.200
G1 X18.201 Y0.000
G1 X17.801 Y0.000
G1 X17.800 Y7.800
G1 X10.445 Y7.800
G1 X10.445 Y-7.800
G1 X17.800 Y-7.800
G1 X17.801 Y0.000
G1 X17.401 Y0.000
G1 X17.400 Y7.400
G1 X10.845 Y7.400
G1 X10.845 Y-7.400
G1 X17.400 Y-7.400
G1 X17.401 Y0.000
G1 X17.001 Y0.000
G1 X17.000 Y7.000
G1 X11.245 Y7.000
G1 X11.245 Y-7.000
G1 X17.000 Y-7.000
G1 X17.001 Y0.000
G1 X16.601 Y0.000
G1 X16.600 Y6.600
G1 X11.645 Y6.600
G1 X11.645 Y-6.600
G1 X16.600 Y-6.600
G1 X16.601 Y0.000
G1 X16.201 Y0.000
G1 X16.200 Y6.200
G1 X12.045 Y6.200
G1 X12.045 Y-6.200
G1 X16.200 Y-6.200
G1 X16.201 Y0.000
G1 X15.801 Y0.000
G1 X15.800 Y5.800
G1 X12.445 Y5.800
G1 X12.445 Y-5.800
G1 X15.800 Y-5.800
G1 X15.801 Y0.000
G1 X15.401 Y0.000
G1 X15.400 Y5.400
G1 X12.845 Y5.400
G1 X12.845 Y-5.400
G1 X15.400 Y-5.400
G1 X15.401 Y0.000
G1 X15.001 Y0.000
G1 X15.000 Y5.000
G1 X13.245 Y5.000
G1 X13.245 Y-5.000
G1 X15.000 Y-5.000
G1 X15.001 Y0.000
G1 X14.601 Y0.000
G1 X14.601 Y4.600
G1 X13.645 Y4.600
G1 X13.645 Y-4.600
G1 X14.601 Y-4.600
G1 X14.601 Y0.000
G1 X14.201 Y0.000
G1 X14.201 Y4.200
G1 X14.045 Y4.200
G1 X14.045 Y-4.200
G1 X14.201 Y-4.200
G1 X14.201 Y0.000
G1 X14.601 Y0.000 Z2.700
G1 X14.601 Y0.000
G1 X14.601 Y-4.600
G1 X14.039 Y-4.600
G1 X14.039 Y4.600
G1 X14.601 Y4.600
G1 X14.601 Y0.000
G1 X15.001 Y0.000
G1 X15.000 Y-5.000
G1 X13.639 Y-5.000
G1 X13.639 Y5.000
G1 X15.000 Y5.000
G1 X15.001 Y0.000
G1 X15.401 Y0.000
G1 X15.400 Y-5.400
G1 X13.239 Y-5.400
G1 X13.239 Y5.400
G1 X15.400 Y5.400
G1 X15.401 Y0.000
G1 X15.801 Y0.000
G1 X15.800 Y-5.800
G1 X12.839 Y-5.800
G1 X12.839 Y5.800
G1 X15.800 Y5.800
G1 X15.801 Y0.000
G1 X16.201 Y0.000
G1 X16.200 Y-6.200
G1 X12.439 Y-6.200
G1 X12.439 Y6.200
G1 X16.200 Y6.200
G1 X16.201 Y0.000
G1 X16.601 Y0.000
G1 X16.600 Y-6.600
G1 X12.039 Y-6.600
G1 X12.039 Y6.600
G1 X16.600 Y6.600
G1 X16.601 Y0.000
G1 X17.001 Y0.000
G1 X17.000 Y-7.000
G1 X11.639 Y-7.000
G1 X11.639 Y7.000
G1 X17.000 Y7.000
G1 X17.001 Y0.000
G1 X17.401 Y0.000
G1 X17.400 Y-7.400
G1 X11.239 Y-7.400
G1 X11.239 Y7.400
G1 X17.400 Y7.400
G1 X17.401 Y0.000
G1 X17.801 Y0.000
G1 X17.800 Y-7.800
G1 X10.839 Y-7.800
G1 X10.839 Y7.800
G1 X17.800 Y7.800
G1 X17.801 Y0.000
G1 X18.201 Y0.000
G1 X18.200 Y-8.200
G1 X10.439 Y-8.200
G1 X10.439 Y8.200
G1 X18.200 Y8.200
G1 X18.201 Y0.000
G1 X18.601 Y0.000
G1 X18.600 Y-8.600
G1 X10.039 Y-8.600
G1 X10.039 Y8.600
G1 X18.600 Y8.600
G1 X18.601 Y0.000
G1 X19.001 Y0.000
G1 X19.000 Y-9.000
G1 X9.639 Y-9.000
G1 X9.639 Y9.000
G1 X19.000 Y9.000
G1 X19.001 Y0.000
G1 X19.401 Y0.000
G1 X19.400 Y-9.400
G1 X9.239 Y-9.400
G1 X9.239 Y9.400
G1 X19.400 Y9.400
G1 X19.401 Y0.000
G1 X19.801 Y0.000
G1 X19.800 Y-9.800
G1 X8.839 Y-9.800
G1 X8.839 Y9.800
G1 X19.800 Y9.800
G1 X19.801 Y0.000
G1 X19.801 Y0.000 Z2.700
G1 X19.801 Y0.000 Z3.100
G1 X19.801 Y0.000
G1 X19.800 Y9.800
G1 X9.140 Y9.800
G1 X9.140 Y-9.800
G1 X19.800 Y-9.800
G1 X19.801 Y0.000
G1 X19.401 Y0.000
G1 X19.400 Y9.400
G1 X9.540 Y9.400
G1 X9.540 Y-9.400
G1 X19.400 Y-9.400
G1 X19.401 Y0.000
G1 X19.001 Y0.000
G1 X19.000 Y9.000
G1 X9.940 Y9.000
G1 X9.940 Y-9.000
G1 X19.000 Y-9.000
G1 X19.001 Y0.000
G1 X18.601 Y0.000
G1 X18.600 Y8.600
G1 X10.340 Y8.600
G1 X10.340 Y-8.600
G1 X18.600 Y-8.600
G1 X18.601 Y0.000
G1 X18.201 Y0.000
G1 X18.200 Y8.200
G1 X10.740 Y8.200
G1 X10.740 Y-8.200
G1 X18.200 Y-8.200
G1 X18.201 Y0.000
G1 X17.801 Y0.000
G1 X17.800 Y7.800
G1 X11.140 Y7.800
G1 X11.140 Y-7.800
G1 X17.800 Y-7.800
G1 X17.801 Y0.000
G1 X17.401 Y0.000
G1 X17.400 Y7.400
G1 X11.540 Y7.400
G1 X11.540 Y-7.400
G1 X17.400 Y-7.400
G1 X17.401 Y0.000
G1 X17.001 Y0.000
G1 X17.000 Y7.000
G1 X11.940 Y7.000
G1 X11.940 Y-7.000
G1 X17.000 Y-7.000
G1 X17.001 Y0.000
G1 X16.601 Y0.000
G1 X16.600 Y6.600
G1 X12.340 Y6.600
G1 X12.340 Y-6.600
G1 X16.600 Y-6.600
G1 X16.601 Y0.000
G1 X16.201 Y0.000
G1 X16.200 Y6.200
G1 X12.740 Y6.200
G1 X12.740 Y-6.200
G1 X16.200 Y-6.200
G1 X16.201 Y0.000
G1 X15.801 Y0.000
G1 X15.800 Y5.800
G1 X13.140 Y5.800
G1 X13.140 Y-5.800
G1 X15.800 Y-5.800
G1 X15.801 Y0.000
G1 X15.401 Y0.000
G1 X15.400 Y5.400
G1 X13.540 Y5.400
G1 X13.540 Y-5.400
G1 X15.400 Y-5.400
G1 X15.401 Y0.000
G1 X15.001 Y0.000
G1 X15.000 Y5.000
G1 X13.940 Y5.000
G1 X13.940 Y-5.000
G1 X15.000 Y-5.000
G1 X15.001 Y0.000
G1 X14.601 Y0.000
G1 X14.601 Y4.600
G1 X14.340 Y4.600
G1 X14.340 Y-4.600
G1 X14.601 Y-4.600
G1 X14.601 Y0.000
G1 X14.601 Y0.000 Z3.500
G1 X14.601 Y0.000
G1 X14.601 Y-4.600
G1 X14.572 Y-4.600
G1 X14.572 Y4.600
G1 X14.601 Y4.600
G1 X14.601 Y0.000
G1 X15.001 Y0.000
G1 X15.000 Y-5.000
G1 X14.172 Y-5.000
G1 X14.172 Y5.000
G1 X15.000 Y5.000
G1 X15.001 Y0.000
G1 X15.401 Y0.000
G1 X15.400 Y-5.400
G1 X13.772 Y-5.400
G1 X13.772 Y5.400
G1 X15.400 Y5.400
G1 X15.401 Y0.000
G1 X15.801 Y0.000
G1 X15.800 Y-5.800
G1 X13.372 Y-5.800
G1 X13.372 Y5.800
G1 X15.800 Y5.800
G1 X15.801 Y0.000
G1 X16.201 Y0.000
G1 X16.200 Y-6.200
G1 X12.972 Y-6.200
G1 X12.972 Y6.200
G1 X16.200 Y6.200
G1 X16.201 Y0.000
G1 X16.601 Y0.000
G1 X16.600 Y-6.600
G1 X12.572 Y-6.600
G1 X12.572 Y6.600
G1 X16.600 Y6.600
G1 X16.601 Y0.000
G1 X17.001 Y0.000
G1 X17.000 Y-7.000
G1 X12.172 Y-7.000
G1 X12.172 Y7.000
G1 X17.000 Y7.000
G1 X17.001 Y0.000
G1 X17.401 Y0.000
G1 X17.400 Y-7.400
G1 X11.772 Y-7.400
G1 X11.772 Y7.400
G1 X17.400 Y7.400
G1 X17.401 Y0.000
G1 X17.801 Y0.000
G1 X17.800 Y-7.800
G1 X11.372 Y-7.800
G1 X11.372 Y7.800
G1 X17.800 Y7.800
G1 X17.801 Y0.000
G1 X18.201 Y0.000
G1 X18.200 Y-8.200
G1 X10.972 Y-8.200
G1 X10.972 Y8.200
G1 X18.200 Y8.200
G1 X18.201 Y0.000
G1 X18.601 Y0.000
G1 X18.600 Y-8.600
G1 X10.572 Y-8.600
G1 X10.572 Y8.600
G1 X18.600 Y8.600
G1 X18.601 Y0.000
G1 X19.001 Y0.000
G1 X19.000 Y-9.000
G1 X10.172 Y-9.000
G1 X10.172 Y9.000
G1 X19.000 Y9.000
G1 X19.001 Y0.000
G1 X19.401 Y0.000
G1 X19.400 Y-9.400
G1 X9.772 Y-9.400
G1 X9.772 Y9.400
G1 X19.400 Y9.400
G1 X19.401 Y0.000
G1 X19.801 Y0.000
G1 X19.800 Y-9.800
G1 X9.372 Y-9.800
G1 X9.372 Y9.800
G1 X19.800 Y9.800
G1 X19.801 Y0.000
G1 X19.801 Y0.000 Z3.500
G1 X19.801 Y0.000 Z3.900
G1 X19.801 Y0.000
G1 X19.800 Y9.800
G1 X9.546 Y9.800
G1 X9.546 Y-9.800
G1 X19.800 Y-9.800
G1 X19.801 Y0.000
G1 X19.401 Y0.000
G1 X19.400 Y9.400
G1 X9.946 Y9.400
G1 X9.946 Y-9.400
G1 X19.400 Y-9.400
G1 X19.401 Y0.000
G1 X19.001 Y0.000
G1 X19.000 Y9.000
G1 X10.346 Y9.000
G1 X10.346 Y-9.000
G1 X19.000 Y-9.000
G1 X19.001 Y0.000
G1 X18.601 Y0.000
G1 X18.600 Y8.600
G1 X10.746 Y8.600
G1 X10.746 Y-8.600
G1 X18.600 Y-8.600
G1 X18.601 Y0.000
G1 X18.201 Y0.000
G1 X18.200 Y8.200
G1 X11.146 Y8.200
G1 X11.146 Y-8.200
G1 X18.200 Y-8.200
G1 X18.201 Y0.000
G1 X17.801 Y0.000
G1 X17.800 Y7.800
G1 X11.546 Y7.800
G1 X11.546 Y-7.800
G1 X17.800 Y-7.800
G1 X17.801 Y0.000
G1 X17.401 Y0.000
G1 X17.400 Y7.400
G1 X11.946 Y7.400
G1 X11.946 Y-7.400
G1 X17.400 Y-7.400
G1 X17.401 Y0.000
G1 X17.001 Y0.000
G1 X17.000 Y7.000
G1 X12.346 Y7.000
G1 X12.346 Y-7.000
G1 X17.000 Y-7.000
G1 X17.001 Y0.000
G1 X16.601 Y0.000
G1 X16.600 Y6.600
G1 X12.746 Y6.600
G1 X12.746 Y-6.600
G1 X16.600 Y-6.600
G1 X16.601 Y0.000
G1 X16.201 Y0.000
G1 X16.200 Y6.200
G1 X13.146 Y6.200
G1 X13.146 Y-6.200
G1 X16.200 Y-6.200
G1 X16.201 Y0.000
G1 X15.801 Y0.000
G1 X15.800 Y5.800
G1 X13.546 Y5.800
G1 X13.546 Y-5.800
G1 X15.800 Y-5.800
G1 X15.801 Y0.000
G1 X15.401 Y0.000
G1 X15.400 Y5.400
G1 X13.946 Y5.400
G1 X13.946 Y-5.400
G1 X15.400 Y-5.400
G1 X15.401 Y0.000
G1 X15.001 Y0.000
G1 X15.000 Y5.000
G1 X14.346 Y5.000
G1 X14.346 Y-5.000
G1 X15.000 Y-5.000
G1 X15.001 Y0.000
G1 X15.001 Y0.000 Z4.300
G1 X15.001 Y0.000
G1 X15.000 Y-5.000
G1 X14.472 Y-5.000
G1 X14.472 Y5.000
G1 X15.000 Y5.000
G1 X15.001 Y0.000
G1 X15.401 Y0.000
G1 X15.400 Y-5.400
G1 X14.072 Y-5.400
G1 X14.072 Y5.400
G1 X15.400 Y5.400
G1 X15.401 Y0.000
G1 X15.801 Y0.000
G1 X15.800 Y-5.800
G1 X13.672 Y-5.800
G1 X13.672 Y5.800
G1 X15.800 Y5.800
G1 X15.801 Y0.000
G1 X16.201 Y0.000
G1 X16.200 Y-6.200
G1 X13.272 Y-6.200
G1 X13.272 Y6.200
G1 X16.200 Y6.200
G1 X16.201 Y0.000
G1 X16.601 Y0.000
G1 X16.600 Y-6.600
G1 X12.872 Y-6.600
G1 X12.872 Y6.600
G1 X16.600 Y6.600
G1 X16.601 Y0.000
G1 X17.001 Y0.000
G1 X17.000 Y-7.000
G1 X12.472 Y-7.000
G1 X12.472 Y7.000
G1 X17.000 Y7.000
G1 X17.001 Y0.000
G1 X17.401 Y0.000
G1 X17.400 Y-7.400
G1 X12.072 Y-7.400
G1 X12.072 Y7.400
G1 X17.400 Y7.400
G1 X17.401 Y0.000
G1 X17.801 Y0.000
G1 X17.800 Y-7.800
G1 X11.672 Y-7.800
G1 X11.672 Y7.800
G1 X17.800 Y7.800
G1 X17.801 Y0.000
G1 X18.201 Y0.000
G1 X18.200 Y-8.200
G1 X11.272 Y-8.200
G1 X11.272 Y8.200
G1 X18.200 Y8.200
G1 X18.201 Y0.000
G1 X18.601 Y0.000
G1 X18.600 Y-8.600
G1 X10.872 Y-8.600
G1 X10.872 Y8.600
G1 X18.600 Y8.600
G1 X18.601 Y0.000
G1 X19.001 Y0.000
G1 X19.000 Y-9.000
G1 X10.472 Y-9.000
G1 X10.472 Y9.000
G1 X19.000 Y9.000
G1 X19.001 Y0.000
G1 X19.401 Y0.000
G1 X19.400 Y-9.400
G1 X10.072 Y-9.400
G1 X10.072 Y9.400
G1 X19.400 Y9.400
G1 X19.401 Y0.000
G1 X19.801 Y0.000
G1 X19.800 Y-9.800
G1 X9.672 Y-9.800
G1 X9.672 Y9.800
G1 X19.800 Y9.800
G1 X19.801 Y0.000
G1 X19.801 Y0.000 Z4.300
G1 X19.801 Y0.000 Z4.700
G1 X19.801 Y0.000
G1 X19.800 Y9.800
G1 X9.754 Y9.800
G1 X9.754 Y-9.800
G1 X19.800 Y-9.800
G1 X19.801 Y0.000
G1 X19.401 Y0.000
G1 X19.400 Y9.400
G1 X10.154 Y9.400
G1 X10.154 Y-9.400
G1 X19.400 Y-9.400
G1 X19.401 Y0.000
G1 X19.001 Y0.000
G1 X19.000 Y9.000
G1 X10.554 Y9.000
G1 X10.554 Y-9.000
G1 X19.000 Y-9.000
G1 X19.001 Y0.000
G1 X18.601 Y0.000
G1 X18.600 Y8.600
G1 X10.954 Y8.600
G1 X10.954 Y-8.600
G1 X18.600 Y-8.600
G1 X18.601 Y0.000
G1 X18.201 Y0.000
G1 X18.200 Y8.200
G1 X11.354 Y8.200
G1 X11.354 Y-8.200
G1 X18.200 Y-8.200
G1 X18.201 Y0.000
G1 X17.801 Y0.000
G1 X17.800 Y7.800
G1 X11.754 Y7.800
G1 X11.754 Y-7.800
G1 X17.800 Y-7.800
G1 X17.801 Y0.000
G1 X17.401 Y0.000
G1 X17.400 Y7.400
G1 X12.154 Y7.400
G1 X12.154 Y-7.400
G1 X17.400 Y-7.400
G1 X17.401 Y0.000
G1 X17.001 Y0.000
G1 X17.000 Y7.000
G1 X12.554 Y7.000
G1 X12.554 Y-7.000
G1 X17.000 Y-7.000
G1 X17.001 Y0.000
G1 X16.601 Y0.000
G1 X16.600 Y6.600
G1 X12.954 Y6.600
G1 X12.954 Y-6.600
G1 X16.600 Y-6.600
G1 X16.601 Y0.000
G1 X16.201 Y0.000
G1 X16.200 Y6.200
G1 X13.354 Y6.200
G1 X13.354 Y-6.200
G1 X16.200 Y-6.200
G1 X16.201 Y0.000
G1 X15.801 Y0.000
G1 X15.800 Y5.800
G1 X13.754 Y5.800
G1 X13.754 Y-5.800
G1 X15.800 Y-5.800
G1 X15.801 Y0.000
G1 X15.401 Y0.000
G1 X15.400 Y5.400
G1 X14.154 Y5.400
G1 X14.154 Y-5.400
G1 X15.400 Y-5.400
G1 X15.401 Y0.000
G1 X15.001 Y0.000
G1 X15.000 Y5.000
G1 X14.554 Y5.000
G1 X14.554 Y-5.000
G1 X15.000 Y-5.000
G1 X15.001 Y0.000
G1 X15.001 Y0.000 Z5.100
G1 X15.001 Y0.000
G1 X15.000 Y-5.000
G1 X14.594 Y-5.000
G1 X14.594 Y5.000
G1 X15.000 Y5.000
G1 X15.001 Y0.000
G1 X15.401 Y0.000
G1 X15.400 Y-5.400
G1 X14.194 Y-5.400
G1 X14.194 Y5.400
G1 X15.400 Y5.400
G1 X15.401 Y0.000
G1 X15.801 Y0.000
G1 X15.800 Y-5.800
G1 X13.794 Y-5.800
G1 X13.794 Y5.800
G1 X15.800 Y5.800
G1 X15.801 Y0.000
G1 X16.201 Y0.000
G1 X16.200 Y-6.200
G1 X13.394 Y-6.200
G1 X13.394 Y6.200
G1 X16.200 Y6.200
G1 X16.201 Y0.000
G1 X16.601 Y0.000
G1 X16.600 Y-6.600
G1 X12.994 Y-6.600
G1 X12.994 Y6.600
G1 X16.600 Y6.600
G1 X16.601 Y0.000
G1 X17.001 Y0.000
G1 X17.000 Y-7.000
G1 X12.594 Y-7.000
G1 X12.594 Y7.000
G1 X17.000 Y7.000
G1 X17.001 Y0.000
G1 X17.401 Y0.000
G1 X17.400 Y-7.400
G1 X12.194 Y-7.400
G1 X12.194 Y7.400
G1 X17.400 Y7.400
G1 X17.401 Y0.000
G1 X17.801 Y0.000
G1 X17.800 Y-7.800
G1 X11.794 Y-7.800
G1 X11.794 Y7.800
G1 X17.800 Y7.800
G1 X17.801 Y0.000
G1 X18.201 Y0.000
G1 X18.200 Y-8.200
G1 X11.394 Y-8.200
G1 X11.394 Y8.200
G1 X18.200 Y8.200
G1 X18.201 Y0.000
G1 X18.601 Y0.000
G1 X18.600 Y-8.600
G1 X10.994 Y-8.600
G1 X10.994 Y8.600
G1 X18.600 Y8.600
G1 X18.601 Y0.000
G1 X19.001 Y0.000
G1 X19.000 Y-9.000
G1 X10.594 Y-9.000
G1 X10.594 Y9.000
G1 X19.000 Y9.000
G1 X19.001 Y0.000
G1 X19.401 Y0.000
G1 X19.400 Y-9.400
G1 X10.194 Y-9.400
G1 X10.194 Y9.400
G1 X19.400 Y9.400
G1 X19.401 Y0.000
G1 X19.801 Y0.000
G1 X19.800 Y-9.800
G1 X9.794 Y-9.800
G1 X9.794 Y9.800
G1 X19.800 Y9.800
G1 X19.801 Y0.000
G1 X19.801 Y0.000 Z5.100
M9
G1 Z10.000
G1 X-3.552 Y0.000
G1 Z1.500
M7
G4 P150
G1 X-3.352 Y0.000 Z1.500
G1 X-3.352 Y0.000
G1 X-3.351 Y-9.800
G1 X3.351 Y-9.800
G1 X3.351 Y9.800
G1 X-3.351 Y9.800
G1 X-3.352 Y0.000
G1 X-2.952 Y0.000
G1 X-2.951 Y-9.400
G1 X2.951 Y-9.400
G1 X2.951 Y9.400
G1 X-2.951 Y9.400
G1 X-2.952 Y0.000
G1 X-2.552 Y0.000
G1 X-2.551 Y-9.000
G1 X2.551 Y-9.000
G1 X2.551 Y9.000
G1 X-2.551 Y9.000
G1 X-2.552 Y0.000
G1 X-2.152 Y0.000
G1 X-2.151 Y-8.600
G1 X2.151 Y-8.600
G1 X2.151 Y8.600
G1 X-2.151 Y8.600
G1 X-2.152 Y0.000
G1 X-1.752 Y0.000
G1 X-1.751 Y-8.200
G1 X1.751 Y-8.200
G1 X1.751 Y8.200
G1 X-1.751 Y8.200
G1 X-1.752 Y0.000
G1 X-1.352 Y0.000
G1 X-1.351 Y-7.800
G1 X1.351 Y-7.800
G1 X1.351 Y7.800
G1 X-1.351 Y7.800
G1 X-1.352 Y0.000
G1 X-0.952 Y0.000
G1 X-0.951 Y-7.400
G1 X0.951 Y-7.400
G1 X0.951 Y7.400
G1 X-0.951 Y7.400
G1 X-0.952 Y0.000
G1 X-0.552 Y0.000
G1 X-0.551 Y-7.000
G1 X0.551 Y-7.000
G1 X0.551 Y7.000
G1 X-0.551 Y7.000
G1 X-0.552 Y0.000
G1 X-0.152 Y0.000
G1 X-0.151 Y-6.600
G1 X0.151 Y-6.600
G1 X0.151 Y6.600
G1 X-0.151 Y6.600
G1 X-0.152 Y0.000
G1 X-0.093 Y0.000 Z1.900
G1 X-0.093 Y0.000
G1 X-0.092 Y7.400
G1 X0.092 Y7.400
G1 X0.092 Y-7.400
G1 X-0.092 Y-7.400
G1 X-0.093 Y0.000
G1 X-0.493 Y0.000
G1 X-0.492 Y7.800
G1 X0.492 Y7.800
G1 X0.492 Y-7.800
G1 X-0.492 Y-7.800
G1 X-0.493 Y0.000
G1 X-0.893 Y0.000
G1 X-0.892 Y8.200
G1 X0.892 Y8.200
G1 X0.892 Y-8.200
G1 X-0.892 Y-8.200
G1 X-0.893 Y0.000
G1 X-1.293 Y0.000
G1 X-1.292 Y8.600
G1 X1.292 Y8.600
G1 X1.292 Y-8.600
G1 X-1.292 Y-8.600
G1 X-1.293 Y0.000
G1 X-1.693 Y0.000
G1 X-1.692 Y9.000
G1 X1.692 Y9.000
G1 X1.692 Y-9.000
G1 X-1.692 Y-9.000
G1 X-1.693 Y0.000
G1 X-2.093 Y0.000
G1 X-2.092 Y9.400
G1 X2.092 Y9.400
G1 X2.092 Y-9.400
G1 X-2.092 Y-9.400
G1 X-2.093 Y0.000
G1 X-2.493 Y0.000
G1 X-2.492 Y9.800
G1 X2.492 Y9.800
G1 X2.492 Y-9.800
G1 X-2.492 Y-9.800
G1 X-2.493 Y0.000
G1 X-2.493 Y0.000 Z1.900
G1 X-1.955 Y0.000 Z2.300
G1 X-1.955 Y0.000
G1 X-1.954 Y-9.800
G1 X1.954 Y-9.800
G1 X1.954 Y9.800
G1 X-1.954 Y9.800
G1 X-1.955 Y0.000
G1 X-1.555 Y0.000
G1 X-1.554 Y-9.400
G1 X1.554 Y-9.400
G1 X1.554 Y9.400
G1 X-1.554 Y9.400
G1 X-1.555 Y0.000
G1 X-1.155 Y0.000
G1 X-1.154 Y-9.000
G1 X1.154 Y-9.000
G1 X1.154 Y9.000
G1 X-1.154 Y9.000
G1 X-1.155 Y0.000
G1 X-0.755 Y0.000
G1 X-0.754 Y-8.600
G1 X0.754 Y-8.600
G1 X0.754 Y8.600
G1 X-0.754 Y8.600
G1 X-0.755 Y0.000
G1 X-0.355 Y0.000
G1 X-0.354 Y-8.200
G1 X0.354 Y-8.200
G1 X0.354 Y8.200
G1 X-0.354 Y8.200
G1 X-0.355 Y0.000
M9
G1 Z10.000
G1 X1.760 Y0.799
G1 Z2.700
M7
G4 P150
G1 X1.560 Y0.999 Z2.700
G1 X1.560 Y0.999
G1 X1.560 Y9.800
G1 X-1.560 Y9.800
G1 X-1.560 Y0.999
G1 X1.560 Y0.999
G1 X1.160 Y1.399
G1 X1.160 Y9.400
G1 X-1.160 Y9.400
G1 X-1.160 Y1.399
G1 X1.160 Y1.399
G1 X0.760 Y1.799
G1 X0.760 Y9.000
G1 X-0.760 Y9.000
G1 X-0.760 Y1.799
G1 X0.760 Y1.799
G1 X0.360 Y2.199
G1 X0.360 Y8.600
G1 X-0.360 Y8.600
G1 X-0.360 Y2.199
G1 X0.360 Y2.199
G1 X0.059 Y2.199 Z3.100
G1 X0.059 Y2.199
G1 X-0.059 Y2.199
G1 X-0.059 Y8.600
G1 X0.059 Y8.600
G1 X0.059 Y2.199
G1 X0.459 Y1.799
G1 X-0.459 Y1.799
G1 X-0.459 Y9.000
G1 X0.459 Y9.000
G1 X0.459 Y1.799
G1 X0.859 Y1.399
G1 X-0.859 Y1.399
G1 X-0.859 Y9.400
G1 X0.859 Y9.400
G1 X0.859 Y1.399
G1 X1.259 Y0.999
G1 X-1.259 Y0.999
G1 X-1.259 Y9.800
G1 X1.259 Y9.800
G1 X1.259 Y0.999
G1 X1.259 Y0.999 Z3.100
G1 X1.027 Y0.999 Z3.500
G1 X1.027 Y0.999
G1 X1.027 Y9.800
G1 X-1.027 Y9.800
G1 X-1.027 Y0.999
G1 X1.027 Y0.999
G1 X0.627 Y1.399
G1 X0.627 Y9.400
G1 X-0.627 Y9.400
G1 X-0.627 Y1.399
G1 X0.627 Y1.399
G1 X0.227 Y1.799
G1 X0.227 Y9.000
G1 X-0.227 Y9.000
G1 X-0.227 Y1.799
G1 X0.227 Y1.799
G1 X0.053 Y1.799 Z3.900
G1 X0.053 Y1.799
G1 X-0.053 Y1.799
G1 X-0.053 Y9.000
G1 X0.053 Y9.000
G1 X0.053 Y1.799
G1 X0.453 Y1.399
G1 X-0.453 Y1.399
G1 X-0.453 Y9.400
G1 X0.453 Y9.400
G1 X0.453 Y1.399
G1 X0.853 Y0.999
G1 X-0.853 Y0.999
G1 X-0.853 Y9.800
G1 X0.853 Y9.800
G1 X0.853 Y0.999
G1 X0.853 Y0.999 Z3.900
M9
G1 Z10.000
G1 X-1.760 Y-0.799
G1 Z2.700
M7
G4 P150
G1 X-1.560 Y-0.999 Z2.700
G1 X-1.560 Y-0.999
G1 X-1.560 Y-9.800
G1 X1.560 Y-9.800
G1 X1.560 Y-0.999
G1 X-1.560 Y-0.999
G1 X-1.160 Y-1.399
G1 X-1.160 Y-9.400
G1 X1.160 Y-9.400
G1 X1.160 Y-1.399
G1 X-1.160 Y-1.399
G1 X-0.760 Y-1.799
G1 X-0.760 Y-9.000
G1 X0.760 Y-9.000
G1 X0.760 Y-1.799
G1 X-0.760 Y-1.799
G1 X-0.360 Y-2.199
G1 X-0.360 Y-8.600
G1 X0.360 Y-8.600
G1 X0.360 Y-2.199
G1 X-0.360 Y-2.199
G1 X-0.059 Y-2.199 Z3.100
G1 X-0.059 Y-2.199
G1 X0.059 Y-2.199
G1 X0.059 Y-8.600
G1 X-0.059 Y-8.600
G1 X-0.059 Y-2.199
G1 X-0.459 Y-1.799
G1 X0.459 Y-1.799
G1 X0.459 Y-9.000
G1 X-0.459 Y-9.000
G1 X-0.459 Y-1.799
G1 X-0.859 Y-1.399
G1 X0.859 Y-1.399
G1 X0.859 Y-9.400
G1 X-0.859 Y-9.400
G1 X-0.859 Y-1.399
G1 X-1.259 Y-0.999
G1 X1.259 Y-0.999
G1 X1.259 Y-9.800
G1 X-1.259 Y-9.800
G1 X-1.259 Y-0.999
G1 X-1.259 Y-0.999 Z3.100
G1 X-1.027 Y-0.999 Z3.500
G1 X-1.027 Y-0.999
G1 X-1.027 Y-9.800
G1 X1.027 Y-9.800
G1 X1.027 Y-0.999
G1 X-1.027 Y-0.999
G1 X-0.627 Y-1.399
G1 X-0.627 Y-9.400
G1 X0.627 Y-9.400
G1 X0.627 Y-1.399
G1 X-0.627 Y-1.399
G1 X-0.227 Y-1.799
G1 X-0.227 Y-9.000
G1 X0.227 Y-9.000
G1 X0.227 Y-1.799
G1 X-0.227 Y-1.799
G1 X-0.053 Y-1.799 Z3.900
G1 X-0.053 Y-1.799
G1 X0.053 Y-1.799
G1 X0.053 Y-9.000
G1 X-0.053 Y-9.000
G1 X-0.053 Y-1.799
G1 X-0.453 Y-1.399
G1 X0.453 Y-1.399
G1 X0.453 Y-9.400
G1 X-0.453 Y-9.400
G1 X-0.453 Y-1.399
G1 X-0.853 Y-0.999
G1 X0.853 Y-0.999
G1 X0.853 Y-9.800
G1 X-0.853 Y-9.800
G1 X-0.853 Y-0.999
G1 X-0.853 Y-0.999 Z3.900