;layer_height = 0.4
;line_width = 0.4
;layer_count = 10
;mesh = double_top
G21 ;start of the code
G1 Z15 F300
G28 X0 Y0 ;Home
G92 X0 Y0 ;Consider this as current
G0 X50 Y50 F3000 ;Go-to Offset
G92 X0 Y0 ;Reset

G0 F3600 X-20.000 Y0.000 Z0.300 ;Go to start position
M7
G4 P150


G1 X-19.801 Y0.000 Z0.300
G1 X-19.801 Y0.000
G1 X-19.800 Y-9.800
G1 X19.800 Y-9.800
G1 X19.800 Y9.800
G1 X-19.800 Y9.800
G1 X-19.801 Y0.000
G1 X-19.401 Y0.000
G1 X-19.400 Y-9.400
G1 X19.400 Y-9.400
G1 X19.400 Y9.400
G1 X-19.400 Y9.400
G1 X-19.401 Y0.000
G1 X-19.001 Y0.000
G1 X-19.000 Y-9.000
G1 X19.000 Y-9.000
G1 X19.000 Y9.000
G1 X-19.000 Y9.000
G1 X-19.001 Y0.000
G1 X-18.601 Y0.000
G1 X-18.600 Y-8.600
G1 X18.600 Y-8.600
G1 X18.600 Y8.600
G1 X-18.600 Y8.600
G1 X-18.601 Y0.000
G1 X-18.201 Y0.000
G1 X-18.200 Y-8.200
G1 X18.200 Y-8.200
G1 X18.200 Y8.200
G1 X-18.200 Y8.200
G1 X-18.201 Y0.000
G1 X-17.801 Y0.000
G1 X-17.800 Y-7.800
G1 X17.800 Y-7.800
G1 X17.800 Y7.800
G1 X-17.800 Y7.800
G1 X-17.801 Y0.000
G1 X-17.401 Y0.000
G1 X-17.400 Y-7.400
G1 X17.400 Y-7.400
G1 X17.400 Y7.400
G1 X-17.400 Y7.400
G1 X-17.401 Y0.000
G1 X-17.001 Y0.000
G1 X-17.000 Y-7.000
G1 X17.000 Y-7.000
G1 X17.000 Y7.000
G1 X-17.000 Y7.000
G1 X-17.001 Y0.000
G1 X-16.601 Y0.000
G1 X-16.600 Y-6.600
G1 X16.600 Y-6.600
G1 X16.600 Y6.600
G1 X-16.600 Y6.600
G1 X-16.601 Y0.000
G1 X-16.201 Y0.000
G1 X-16.200 Y-6.200
G1 X16.200 Y-6.200
G1 X16.200 Y6.200
G1 X-16.200 Y6.200
G1 X-16.201 Y0.000
G1 X-15.801 Y0.000
G1 X-15.800 Y-5.800
G1 X15.800 Y-5.800
G1 X15.800 Y5.800
G1 X-15.800 Y5.800
G1 X-15.801 Y0.000
G1 X-15.401 Y0.000
G1 X-15.400 Y-5.400
G1 X15.400 Y-5.400
G1 X15.400 Y5.400
G1 X-15.400 Y5.400
G1 X-15.401 Y0.000
G1 X-15.001 Y0.000
G1 X-15.000 Y-5.000
G1 X15.000 Y-5.000
G1 X15.000 Y5.000
G1 X-15.000 Y5.000
G1 X-15.001 Y0.000
G1 X-14.601 Y0.000
G1 X-14.601 Y-4.600
G1 X14.600 Y-4.600
G1 X14.600 Y4.600
G1 X-14.601 Y4.600
G1 X-14.601 Y0.000
G1 X-14.201 Y0.000
G1 X-14.201 Y-4.200
G1 X14.200 Y-4.200
G1 X14.200 Y4.200
G1 X-14.201 Y4.200
G1 X-14.201 Y0.000
G1 X-13.801 Y0.000
G1 X-13.801 Y-3.800
G1 X13.800 Y-3.800
G1 X13.800 Y3.800
G1 X-13.801 Y3.800
G1 X-13.801 Y0.000
G1 X-13.401 Y0.000
G1 X-13.401 Y-3.400
G1 X13.400 Y-3.400
G1 X13.400 Y3.400
G1 X-13.401 Y3.400
G1 X-13.401 Y0.000
G1 X-13.001 Y0.000
G1 X-13.001 Y-3.000
G1 X13.000 Y-3.000
G1 X13.000 Y3.000
G1 X-13.001 Y3.000
G1 X-13.001 Y0.000
G1 X-12.601 Y0.000
G1 X-12.601 Y-2.600
G1 X12.600 Y-2.600
G1 X12.600 Y2.600
G1 X-12.601 Y2.600
G1 X-12.601 Y0.000
G1 X-12.201 Y0.000
G1 X-12.201 Y-2.200
G1 X12.200 Y-2.200
G1 X12.200 Y2.200
G1 X-12.201 Y2.200
G1 X-12.201 Y0.000
G1 X-11.801 Y0.000
G1 X-11.801 Y-1.800
G1 X11.800 Y-1.800
G1 X11.800 Y1.800
G1 X-11.801 Y1.800
G1 X-11.801 Y0.000
G1 X-11.401 Y0.000
G1 X-11.401 Y-1.400
G1 X11.400 Y-1.400
G1 X11.400 Y1.400
G1 X-11.401 Y1.400
G1 X-11.401 Y0.000
G1 X-11.001 Y0.000
G1 X-11.001 Y-1.000
G1 X11.000 Y-1.000
G1 X11.000 Y1.000
G1 X-11.001 Y1.000
G1 X-11.001 Y0.000
G1 X-10.601 Y0.000
G1 X-10.601 Y-0.600
G1 X10.600 Y-0.600
G1 X10.600 Y0.600
G1 X-10.601 Y0.600
G1 X-10.601 Y0.000
G1 X-10.201 Y0.000
G1 X-10.201 Y-0.200
G1 X10.200 Y-0.200
G1 X10.200 Y0.200
G1 X-10.201 Y0.200
G1 X-10.201 Y0.000
G1 X-10.201 Y0.000 Z0.700
G1 X-10.201 Y0.000
G1 X-10.201 Y0.200
G1 X10.200 Y0.200
G1 X10.200 Y-0.200
G1 X-10.201 Y-0.200
G1 X-10.201 Y0.000
G1 X-10.601 Y0.000
G1 X-10.601 Y0.600
G1 X10.600 Y0.600
G1 X10.600 Y-0.600
G1 X-10.601 Y-0.600
G1 X-10.601 Y0.000
G1 X-11.001 Y0.000
G1 X-11.001 Y1.000
G1 X11.000 Y1.000
G1 X11.000 Y-1.000
G1 X-11.001 Y-1.000
G1 X-11.001 Y0.000
G1 X-11.401 Y0.000
G1 X-11.401 Y1.400
G1 X11.400 Y1.400
G1 X11.400 Y-1.400
G1 X-11.401 Y-1.400
G1 X-11.401 Y0.000
G1 X-11.801 Y0.000
G1 X-11.801 Y1.800
G1 X11.800 Y1.800
G1 X11.800 Y-1.800
G1 X-11.801 Y-1.800
G1 X-11.801 Y0.000
G1 X-12.201 Y0.000
G1 X-12.201 Y2.200
G1 X12.200 Y2.200
G1 X12.200 Y-2.200
G1 X-12.201 Y-2.200
G1 X-12.201 Y0.000
G1 X-12.601 Y0.000
G1 X-12.601 Y2.600
G1 X12.600 Y2.600
G1 X12.600 Y-2.600
G1 X-12.601 Y-2.600
G1 X-12.601 Y0.000
G1 X-13.001 Y0.000
G1 X-13.001 Y3.000
G1 X13.000 Y3.000
G1 X13.000 Y-3.000
G1 X-13.001 Y-3.000
G1 X-13.001 Y0.000
G1 X-13.401 Y0.000
G1 X-13.401 Y3.400
G1 X13.400 Y3.400
G1 X13.400 Y-3.400
G1 X-13.401 Y-3.400
G1 X-13.401 Y0.000
G1 X-13.801 Y0.000
G1 X-13.801 Y3.800
G1 X13.800 Y3.800
G1 X13.800 Y-3.800
G1 X-13.801 Y-3.800
G1 X-13.801 Y0.000
G1 X-14.201 Y0.000
G1 X-14.201 Y4.200
G1 X14.200 Y4.200
G1 X14.200 Y-4.200
G1 X-14.201 Y-4.200
G1 X-14.201 Y0.000
G1 X-14.601 Y0.000
G1 X-14.601 Y4.600
G1 X14.600 Y4.600
G1 X14.600 Y-4.600
G1 X-14.601 Y-4.600
G1 X-14.601 Y0.000
G1 X-15.001 Y0.000
G1 X-15.000 Y5.000
G1 X15.000 Y5.000
G1 X15.000 Y-5.000
G1 X-15.000 Y-5.000
G1 X-15.001 Y0.000
G1 X-15.401 Y0.000
G1 X-15.400 Y5.400
G1 X15.400 Y5.400
G1 X15.400 Y-5.400
G1 X-15.400 Y-5.400
G1 X-15.401 Y0.000
G1 X-15.801 Y0.000
G1 X-15.800 Y5.800
G1 X15.800 Y5.800
G1 X15.800 Y-5.800
G1 X-15.800 Y-5.800
G1 X-15.801 Y0.000
G1 X-16.201 Y0.000
G1 X-16.200 Y6.200
G1 X16.200 Y6.200
G1 X16.200 Y-6.200
G1 X-16.200 Y-6.200
G1 X-16.201 Y0.000
G1 X-16.601 Y0.000
G1 X-16.600 Y6.600
G1 X16.600 Y6.600
G1 X16.600 Y-6.600
G1 X-16.600 Y-6.600
G1 X-16.601 Y0.000
G1 X-17.001 Y0.000
G1 X-17.000 Y7.000
G1 X17.000 Y7.000
G1 X17.000 Y-7.000
G1 X-17.000 Y-7.000
G1 X-17.001 Y0.000
G1 X-17.401 Y0.000
G1 X-17.400 Y7.400
G1 X17.400 Y7.400
G1 X17.400 Y-7.400
G1 X-17.400 Y-7.400
G1 X-17.401 Y0.000
G1 X-17.801 Y0.000
G1 X-17.800 Y7.800
G1 X17.800 Y7.800
G1 X17.800 Y-7.800
G1 X-17.800 Y-7.800
G1 X-17.801 Y0.000
G1 X-18.201 Y0.000
G1 X-18.200 Y8.200
G1 X18.200 Y8.200
G1 X18.200 Y-8.200
G1 X-18.200 Y-8.200
G1 X-18.201 Y0.000
G1 X-18.601 Y0.000
G1 X-18.600 Y8.600
G1 X18.600 Y8.600
G1 X18.600 Y-8.600
G1 X-18.600 Y-8.600
G1 X-18.601 Y0.000
G1 X-19.001 Y0.000
G1 X-19.000 Y9.000
G1 X19.000 Y9.000
G1 X19.000 Y-9.000
G1 X-19.000 Y-9.000
G1 X-19.001 Y0.000
G1 X-19.401 Y0.000
G1 X-19.400 Y9.400
G1 X19.400 Y9.400
G1 X19.400 Y-9.400
G1 X-19.400 Y-9.400
G1 X-19.401 Y0.000
G1 X-19.801 Y0.000
G1 X-19.800 Y9.800
G1 X19.800 Y9.800
G1 X19.800 Y-9.800
G1 X-19.800 Y-9.800
G1 X-19.801 Y0.000
G1 X-19.801 Y0.000 Z0.700
M9
G1 Z10.000
G1 X-0.805 Y-10.000
G1 Z1.100
M7
G4 P150
G1 X-0.605 Y-9.800 Z1.100
G1 X-0.605 Y-9.800
G1 X0.605 Y-9.800
G1 X0.605 Y9.800
G1 X-0.605 Y9.800
G1 X-0.605 Y-9.800
G1 X-0.205 Y-9.400
G1 X0.205 Y-9.400
G1 X0.205 Y9.400
G1 X-0.205 Y9.400
G1 X-0.205 Y-9.400
G1 X-0.245 Y-9.400 Z1.500
G1 X-0.245 Y-9.400
G1 X-0.245 Y9.400
G1 X0.245 Y9.400
G1 X0.245 Y-9.400
G1 X-0.245 Y-9.400
G1 X-0.645 Y-9.800
G1 X-0.645 Y9.800
G1 X0.645 Y9.800
G1 X0.645 Y-9.800
G1 X-0.645 Y-9.800
G1 X-0.645 Y-9.800 Z1.500
G1 X-0.727 Y-9.800 Z1.900
G1 X-0.727 Y-9.800
G1 X0.727 Y-9.800
G1 X0.727 Y9.800
G1 X-0.727 Y9.800
G1 X-0.727 Y-9.800
G1 X-0.327 Y-9.400
G1 X0.327 Y-9.400
G1 X0.327 Y9.400
G1 X-0.327 Y9.400
G1 X-0.327 Y-9.400