;layer_height = 0.4
;line_width = 0.4
;layer_count = 10
;mesh = single_60
G21 ;start of the code
G1 Z15 F300
G28 X0 Y0 ;Home
G92 X0 Y0 ;Consider this as current
G0 X50 Y50 F3000 ;Go-to Offset
G92 X0 Y0 ;Reset

G0 F3600 X-12.800 Y0.000 Z0.300 ;Go to start position
M7
G4 P150


G1 X-12.800 Y0.000 Z0.300
G1 X-12.800 Y-9.800
G1 X-0.600 Y-9.800
G1 X-0.600 Y9.800
G1 X-12.800 Y9.800
G1 X-12.800 Y0.000
G1 X-12.400 Y0.000
G1 X-12.400 Y-9.400
G1 X-1.000 Y-9.400
G1 X-1.000 Y9.400
G1 X-12.400 Y9.400
G1 X-12.400 Y0.000
G1 X-12.000 Y0.000
G1 X-12.000 Y-9.000
G1 X-1.400 Y-9.000
G1 X-1.400 Y9.000
G1 X-12.000 Y9.000
G1 X-12.000 Y0.000
G1 X-11.600 Y0.000
G1 X-11.600 Y-8.600
G1 X-1.800 Y-8.600
G1 X-1.800 Y8.600
G1 X-11.600 Y8.600
G1 X-11.600 Y0.000
G1 X-11.200 Y0.000
G1 X-11.200 Y-8.200
G1 X-2.200 Y-8.200
G1 X-2.200 Y8.200
G1 X-11.200 Y8.200
G1 X-11.200 Y0.000
G1 X-10.800 Y0.000
G1 X-10.800 Y-7.800
G1 X-2.600 Y-7.800
G1 X-2.600 Y7.800
G1 X-10.800 Y7.800
G1 X-10.800 Y0.000
G1 X-10.400 Y0.000
G1 X-10.400 Y-7.400
G1 X-3.000 Y-7.400
G1 X-3.000 Y7.400
G1 X-10.400 Y7.400
G1 X-10.400 Y0.000
G1 X-10.000 Y0.000
G1 X-10.000 Y-7.000
G1 X-3.400 Y-7.000
G1 X-3.400 Y7.000
G1 X-10.000 Y7.000
G1 X-10.000 Y0.000
G1 X-9.600 Y0.000
G1 X-9.600 Y-6.600
G1 X-3.800 Y-6.600
G1 X-3.800 Y6.600
G1 X-9.600 Y6.600
G1 X-9.600 Y0.000
G1 X-9.200 Y0.000
G1 X-9.200 Y-6.200
G1 X-4.200 Y-6.200
G1 X-4.200 Y6.200
G1 X-9.200 Y6.200
G1 X-9.200 Y0.000
G1 X-8.800 Y0.000
G1 X-8.800 Y-5.800
G1 X-4.600 Y-5.800
G1 X-4.600 Y5.800
G1 X-8.800 Y5.800
G1 X-8.800 Y0.000
G1 X-8.400 Y0.000
G1 X-8.400 Y-5.400
G1 X-5.000 Y-5.400
G1 X-5.000 Y5.400
G1 X-8.400 Y5.400
G1 X-8.400 Y0.000
G1 X-8.000 Y0.000
G1 X-8.000 Y-5.000
G1 X-5.400 Y-5.000
G1 X-5.400 Y5.000
G1 X-8.000 Y5.000
G1 X-8.000 Y0.000
G1 X-7.600 Y0.000
G1 X-7.600 Y-4.600
G1 X-5.800 Y-4.600
G1 X-5.800 Y4.600
G1 X-7.600 Y4.600
G1 X-7.600 Y0.000
G1 X-7.200 Y0.000
G1 X-7.200 Y-4.200
G1 X-6.200 Y-4.200
G1 X-6.200 Y4.200
G1 X-7.200 Y4.200
G1 X-7.200 Y0.000
G1 X-6.800 Y0.000
G1 X-6.800 Y0.000 Z0.700
G1 X-6.800 Y0.000
G1 X-7.200 Y0.000
G1 X-7.200 Y4.200
G1 X-6.200 Y4.200
G1 X-6.200 Y-4.200
G1 X-7.200 Y-4.200
G1 X-7.200 Y0.000
G1 X-7.600 Y0.000
G1 X-7.600 Y4.600
G1 X-5.800 Y4.600
G1 X-5.800 Y-4.600
G1 X-7.600 Y-4.600
G1 X-7.600 Y0.000
G1 X-8.000 Y0.000
G1 X-8.000 Y5.000
G1 X-5.400 Y5.000
G1 X-5.400 Y-5.000
G1 X-8.000 Y-5.000
G1 X-8.000 Y0.000
G1 X-8.400 Y0.000
G1 X-8.400 Y5.400
G1 X-5.000 Y5.400
G1 X-5.000 Y-5.400
G1 X-8.400 Y-5.400
G1 X-8.400 Y0.000
G1 X-8.800 Y0.000
G1 X-8.800 Y5.800
G1 X-4.600 Y5.800
G1 X-4.600 Y-5.800
G1 X-8.800 Y-5.800
G1 X-8.800 Y0.000
G1 X-9.200 Y0.000
G1 X-9.200 Y6.200
G1 X-4.200 Y6.200
G1 X-4.200 Y-6.200
G1 X-9.200 Y-6.200
G1 X-9.200 Y0.000
G1 X-9.600 Y0.000
G1 X-9.600 Y6.600
G1 X-3.800 Y6.600
G1 X-3.800 Y-6.600
G1 X-9.600 Y-6.600
G1 X-9.600 Y0.000
G1 X-10.000 Y0.000
G1 X-10.000 Y7.000
G1 X-3.400 Y7.000
G1 X-3.400 Y-7.000
G1 X-10.000 Y-7.000
G1 X-10.000 Y0.000
G1 X-10.400 Y0.000
G1 X-10.400 Y7.400
G1 X-3.000 Y7.400
G1 X-3.000 Y-7.400
G1 X-10.400 Y-7.400
G1 X-10.400 Y0.000
G1 X-10.800 Y0.000
G1 X-10.800 Y7.800
G1 X-2.600 Y7.800
G1 X-2.600 Y-7.800
G1 X-10.800 Y-7.800
G1 X-10.800 Y0.000
G1 X-11.200 Y0.000
G1 X-11.200 Y8.200
G1 X-2.200 Y8.200
G1 X-2.200 Y-8.200
G1 X-11.200 Y-8.200
G1 X-11.200 Y0.000
G1 X-11.600 Y0.000
G1 X-11.600 Y8.600
G1 X-1.800 Y8.600
G1 X-1.800 Y-8.600
G1 X-11.600 Y-8.600
G1 X-11.600 Y0.000
G1 X-12.000 Y0.000
G1 X-12.000 Y9.000
G1 X-1.400 Y9.000
G1 X-1.400 Y-9.000
G1 X-12.000 Y-9.000
G1 X-12.000 Y0.000
G1 X-12.400 Y0.000
G1 X-12.400 Y9.400
G1 X-1.000 Y9.400
G1 X-1.000 Y-9.400
G1 X-12.400 Y-9.400
G1 X-12.400 Y0.000
G1 X-12.800 Y0.000
G1 X-12.800 Y9.800
G1 X-0.600 Y9.800
G1 X-0.600 Y-9.800
G1 X-12.800 Y-9.800
G1 X-12.800 Y0.000 Z0.700
M9
G1 Z10.000
G1 X12.800 Y0.000
G1 Z0.300
M7
G4 P150
G1 X12.800 Y0.000 Z0.300
G1 X12.800 Y9.800
G1 X0.600 Y9.800
G1 X0.600 Y-9.800
G1 X12.800 Y-9.800
G1 X12.800 Y0.000
G1 X12.400 Y0.000
G1 X12.400 Y9.400
G1 X1.000 Y9.400
G1 X1.000 Y-9.400
G1 X12.400 Y-9.400
G1 X12.400 Y0.000
G1 X12.000 Y0.000
G1 X12.000 Y9.000
G1 X1.400 Y9.000
G1 X1.400 Y-9.000
G1 X12.000 Y-9.000
G1 X12.000 Y0.000
G1 X11.600 Y0.000
G1 X11.600 Y8.600
G1 X1.800 Y8.600
G1 X1.800 Y-8.600
G1 X11.600 Y-8.600
G1 X11.600 Y0.000
G1 X11.200 Y0.000
G1 X11.200 Y8.200
G1 X2.200 Y8.200
G1 X2.200 Y-8.200
G1 X11.200 Y-8.200
G1 X11.200 Y0.000
G1 X10.800 Y0.000
G1 X10.800 Y7.800
G1 X2.600 Y7.800
G1 X2.600 Y-7.800
G1 X10.800 Y-7.800
G1 X10.800 Y0.000
G1 X10.400 Y0.000
G1 X10.400 Y7.400
G1 X3.000 Y7.400
G1 X3.000 Y-7.400
G1 X10.400 Y-7.400
G1 X10.400 Y0.000
G1 X10.000 Y0.000
G1 X10.000 Y7.000
G1 X3.400 Y7.000
G1 X3.400 Y-7.000
G1 X10.000 Y-7.000
G1 X10.000 Y0.000
G1 X9.600 Y0.000
G1 X9.600 Y6.600
G1 X3.800 Y6.600
G1 X3.800 Y-6.600
G1 X9.600 Y-6.600
G1 X9.600 Y0.000
G1 X9.200 Y0.000
G1 X9.200 Y6.200
G1 X4.200 Y6.200
G1 X4.200 Y-6.200
G1 X9.200 Y-6.200
G1 X9.200 Y0.000
G1 X8.800 Y0.000
G1 X8.800 Y5.800
G1 X4.600 Y5.800
G1 X4.600 Y-5.800
G1 X8.800 Y-5.800
G1 X8.800 Y0.000
G1 X8.400 Y0.000
G1 X8.400 Y5.400
G1 X5.000 Y5.400
G1 X5.000 Y-5.400
G1 X8.400 Y-5.400
G1 X8.400 Y0.000
G1 X8.000 Y0.000
G1 X8.000 Y5.000
G1 X5.400 Y5.000
G1 X5.400 Y-5.000
G1 X8.000 Y-5.000
G1 X8.000 Y0.000
G1 X7.600 Y0.000
G1 X7.600 Y4.600
G1 X5.800 Y4.600
G1 X5.800 Y-4.600
G1 X7.600 Y-4.600
G1 X7.600 Y0.000
G1 X7.200 Y0.000
G1 X7.200 Y4.200
G1 X6.200 Y4.200
G1 X6.200 Y-4.200
G1 X7.200 Y-4.200
G1 X7.200 Y0.000
G1 X6.800 Y0.000
G1 X6.800 Y0.000 Z0.700
G1 X6.800 Y0.000
G1 X7.200 Y0.000
G1 X7.200 Y-4.200
G1 X6.200 Y-4.200
G1 X6.200 Y4.200
G1 X7.200 Y4.200
G1 X7.200 Y0.000
G1 X7.600 Y0.000
G1 X7.600 Y-4.600
G1 X5.800 Y-4.600
G1 X5.800 Y4.600
G1 X7.600 Y4.600
G1 X7.600 Y0.000
G1 X8.000 Y0.000
G1 X8.000 Y-5.000
G1 X5.400 Y-5.000
G1 X5.400 Y5.000
G1 X8.000 Y5.000
G1 X8.000 Y0.000
G1 X8.400 Y0.000
G1 X8.400 Y-5.400
G1 X5.000 Y-5.400
G1 X5.000 Y5.400
G1 X8.400 Y5.400
G1 X8.400 Y0.000
G1 X8.800 Y0.000
G1 X8.800 Y-5.800
G1 X4.600 Y-5.800
G1 X4.600 Y5.800
G1 X8.800 Y5.800
G1 X8.800 Y0.000
G1 X9.200 Y0.000
G1 X9.200 Y-6.200
G1 X4.200 Y-6.200
G1 X4.200 Y6.200
G1 X9.200 Y6.200
G1 X9.200 Y0.000
G1 X9.600 Y0.000
G1 X9.600 Y-6.600
G1 X3.800 Y-6.600
G1 X3.800 Y6.600
G1 X9.600 Y6.600
G1 X9.600 Y0.000
G1 X10.000 Y0.000
G1 X10.000 Y-7.000
G1 X3.400 Y-7.000
G1 X3.400 Y7.000
G1 X10.000 Y7.000
G1 X10.000 Y0.000
G1 X10.400 Y0.000
G1 X10.400 Y-7.400
G1 X3.000 Y-7.400
G1 X3.000 Y7.400
G1 X10.400 Y7.400
G1 X10.400 Y0.000
G1 X10.800 Y0.000
G1 X10.800 Y-7.800
G1 X2.600 Y-7.800
G1 X2.600 Y7.800
G1 X10.800 Y7.800
G1 X10.800 Y0.000
G1 X11.200 Y0.000
G1 X11.200 Y-8.200
G1 X2.200 Y-8.200
G1 X2.200 Y8.200
G1 X11.200 Y8.200
G1 X11.200 Y0.000
G1 X11.600 Y0.000
G1 X11.600 Y-8.600
G1 X1.800 Y-8.600
G1 X1.800 Y8.600
G1 X11.600 Y8.600
G1 X11.600 Y0.000
G1 X12.000 Y0.000
G1 X12.000 Y-9.000
G1 X1.400 Y-9.000
G1 X1.400 Y9.000
G1 X12.000 Y9.000
G1 X12.000 Y0.000
G1 X12.400 Y0.000
G1 X12.400 Y-9.400
G1 X1.000 Y-9.400
G1 X1.000 Y9.400
G1 X12.400 Y9.400
G1 X12.400 Y0.000
G1 X12.800 Y0.000
G1 X12.800 Y-9.800
G1 X0.600 Y-9.800
G1 X0.600 Y9.800
G1 X12.800 Y9.800
G1 X12.800 Y0.000 Z0.700
M9
G1 Z10.000
G1 X-12.800 Y-9.800
G1 Z1.100
M7
G4 P150
G1 X12.800 Y-9.800
G1 X12.800 Y-9.400
G4 P5
G1 X-12.800 Y-9.400
G4 P5
G1 X-12.800 Y-9.000
G4 P5
G1 X12.800 Y-9.000
G4 P5
G1 X12.800 Y-8.600
G4 P5
G1 X-12.800 Y-8.600
G4 P5
G1 X-12.800 Y-8.200
G4 P5
G1 X12.800 Y-8.200
G4 P5
G1 X12.800 Y-7.800
G4 P5
G1 X-12.800 Y-7.800
G4 P5
G1 X-12.800 Y-7.400
G4 P5
G1 X12.800 Y-7.400
G4 P5
G1 X12.800 Y-7.000
G4 P5
G1 X-12.800 Y-7.000
G4 P5
G1 X-12.800 Y-6.600
G4 P5
G1 X12.800 Y-6.600
G4 P5
G1 X12.800 Y-6.200
G4 P5
G1 X-12.800 Y-6.200
G4 P5
G1 X-12.800 Y-5.800
G4 P5
G1 X12.800 Y-5.800
G4 P5
G1 X12.800 Y-5.400
G4 P5
G1 X-12.800 Y-5.400
G4 P5
G1 X-12.800 Y-5.000
G4 P5
G1 X12.800 Y-5.000
G4 P5
G1 X12.800 Y-4.600
G4 P5
G1 X-12.800 Y-4.600
G4 P5
G1 X-12.800 Y-4.200
G4 P5
G1 X12.800 Y-4.200
G4 P5
G1 X12.800 Y-3.800
G4 P5
G1 X-12.800 Y-3.800
G4 P5
G1 X-12.800 Y-3.400
G4 P5
G1 X12.800 Y-3.400
G4 P5
G1 X12.800 Y-3.000
G4 P5
G1 X-12.800 Y-3.000
G4 P5
G1 X-12.800 Y-2.600
G4 P5
G1 X12.800 Y-2.600
G4 P5
G1 X12.800 Y-2.200
G4 P5
G1 X-12.800 Y-2.200
G4 P5
G1 X-12.800 Y-1.800
G4 P5
G1 X12.800 Y-1.800
G4 P5
G1 X12.800 Y-1.400
G4 P5
G1 X-12.800 Y-1.400
G4 P5
G1 X-12.800 Y-1.000
G4 P5
G1 X12.800 Y-1.000
G4 P5
G1 X12.800 Y-0.600
G4 P5
G1 X-12.800 Y-0.600
G4 P5
G1 X-12.800 Y-0.200
G4 P5
G1 X12.800 Y-0.200
G4 P5
G1 X12.800 Y0.200
G4 P5
G1 X-12.800 Y0.200
G4 P5
G1 X-12.800 Y0.600
G4 P5
G1 X12.800 Y0.600
G4 P5
G1 X12.800 Y1.000
G4 P5
G1 X-12.800 Y1.000
G4 P5
G1 X-12.800 Y1.400
G4 P5
G1 X12.800 Y1.400
G4 P5
G1 X12.800 Y1.800
G4 P5
G1 X-12.800 Y1.800
G4 P5
G1 X-12.800 Y2.200
G4 P5
G1 X12.800 Y2.200
G4 P5
G1 X12.800 Y2.600
G4 P5
G1 X-12.800 Y2.600
G4 P5
G1 X-12.800 Y3.000
G4 P5
G1 X12.800 Y3.000
G4 P5
G1 X12.800 Y3.400
G4 P5
G1 X-12.800 Y3.400
G4 P5
G1 X-12.800 Y3.800
G4 P5
G1 X12.800 Y3.800
G4 P5
G1 X12.800 Y4.200
G4 P5
G1 X-12.800 Y4.200
G4 P5
G1 X-12.800 Y4.600
G4 P5
G1 X12.800 Y4.600
G4 P5
G1 X12.800 Y5.000
G4 P5
G1 X-12.800 Y5.000
G4 P5
G1 X-12.800 Y5.400
G4 P5
G1 X12.800 Y5.400
G4 P5
G1 X12.800 Y5.800
G4 P5
G1 X-12.800 Y5.800
G4 P5
G1 X-12.800 Y6.200
G4 P5
G1 X12.800 Y6.200
G4 P5
G1 X12.800 Y6.600
G4 P5
G1 X-12.800 Y6.600
G4 P5
G1 X-12.800 Y7.000
G4 P5
G1 X12.800 Y7.000
G4 P5
G1 X12.800 Y7.400
G4 P5
G1 X-12.800 Y7.400
G4 P5
G1 X-12.800 Y7.800
G4 P5
G1 X12.800 Y7.800
G4 P5
G1 X12.800 Y8.200
G4 P5
G1 X-12.800 Y8.200
G4 P5
G1 X-12.800 Y8.600
G4 P5
G1 X12.800 Y8.600
G4 P5
G1 X12.800 Y9.000
G4 P5
G1 X-12.800 Y9.000
G4 P5
G1 X-12.800 Y9.400
G4 P5
G1 X12.800 Y9.400
G4 P5
G1 X12.800 Y9.800
G4 P5
G1 X-12.800 Y9.800
G4 P5
M9
G1 Z10.000
G1 X-12.800 Y0.000
G1 Z1.500
M7
G4 P150
G1 X-12.800 Y0.000 Z1.500
G1 X-12.800 Y-9.800
G1 X-1.000 Y-9.800
G1 X-1.000 Y9.800
G1 X-12.800 Y9.800
G1 X-12.800 Y0.000
G1 X-12.400 Y0.000
G1 X-12.400 Y-9.400
G1 X-1.400 Y-9.400
G1 X-1.400 Y9.400
G1 X-12.400 Y9.400
G1 X-12.400 Y0.000
G1 X-12.000 Y0.000
G1 X-12.000 Y-9.000
G1 X-1.800 Y-9.000
G1 X-1.800 Y9.000
G1 X-12.000 Y9.000
G1 X-12.000 Y0.000
G1 X-11.600 Y0.000
G1 X-11.600 Y-8.600
G1 X-2.200 Y-8.600
G1 X-2.200 Y8.600
G1 X-11.600 Y8.600
G1 X-11.600 Y0.000
G1 X-11.200 Y0.000
G1 X-11.200 Y-8.200
G1 X-2.600 Y-8.200
G1 X-2.600 Y8.200
G1 X-11.200 Y8.200
G1 X-11.200 Y0.000
G1 X-10.800 Y0.000
G1 X-10.800 Y-7.800
G1 X-3.000 Y-7.800
G1 X-3.000 Y7.800
G1 X-10.800 Y7.800
G1 X-10.800 Y0.000
G1 X-10.400 Y0.000
G1 X-10.400 Y-7.400
G1 X-3.400 Y-7.400
G1 X-3.400 Y7.400
G1 X-10.400 Y7.400
G1 X-10.400 Y0.000
G1 X-10.000 Y0.000
G1 X-10.000 Y-7.000
G1 X-3.800 Y-7.000
G1 X-3.800 Y7.000
G1 X-10.000 Y7.000
G1 X-10.000 Y0.000
G1 X-9.600 Y0.000
G1 X-9.600 Y-6.600
G1 X-4.200 Y-6.600
G1 X-4.200 Y6.600
G1 X-9.600 Y6.600
G1 X-9.600 Y0.000
G1 X-9.200 Y0.000
G1 X-9.200 Y-6.200
G1 X-4.600 Y-6.200
G1 X-4.600 Y6.200
G1 X-9.200 Y6.200
G1 X-9.200 Y0.000
G1 X-8.800 Y0.000
G1 X-8.800 Y-5.800
G1 X-5.000 Y-5.800
G1 X-5.000 Y5.800
G1 X-8.800 Y5.800
G1 X-8.800 Y0.000
G1 X-8.400 Y0.000
G1 X-8.400 Y-5.400
G1 X-5.400 Y-5.400
G1 X-5.400 Y5.400
G1 X-8.400 Y5.400
G1 X-8.400 Y0.000
G1 X-8.000 Y0.000
G1 X-8.000 Y-5.000
G1 X-5.800 Y-5.000
G1 X-5.800 Y5.000
G1 X-8.000 Y5.000
G1 X-8.000 Y0.000
G1 X-7.600 Y0.000
G1 X-7.600 Y-4.600
G1 X-6.200 Y-4.600
G1 X-6.200 Y4.600
G1 X-7.600 Y4.600
G1 X-7.600 Y0.000
G1 X-7.200 Y0.000
G1 X-7.200 Y-4.200
G1 X-6.600 Y-4.200
G1 X-6.600 Y4.200
G1 X-7.200 Y4.200
G1 X-7.200 Y0.000
G1 X-6.800 Y0.000
G1 X-7.200 Y0.000 Z1.900
G1 X-7.200 Y0.000
G1 X-7.600 Y0.000
G1 X-7.600 Y4.600
G1 X-7.017 Y4.600
G1 X-7.017 Y-4.600
G1 X-7.600 Y-4.600
G1 X-7.600 Y0.000
G1 X-8.000 Y0.000
G1 X-8.000 Y5.000
G1 X-6.617 Y5.000
G1 X-6.617 Y-5.000
G1 X-8.000 Y-5.000
G1 X-8.000 Y0.000
G1 X-8.400 Y0.000
G1 X-8.400 Y5.400
G1 X-6.217 Y5.400
G1 X-6.217 Y-5.400
G1 X-8.400 Y-5.400
G1 X-8.400 Y0.000
G1 X-8.800 Y0.000
G1 X-8.800 Y5.800
G1 X-5.817 Y5.800
G1 X-5.817 Y-5.800
G1 X-8.800 Y-5.800
G1 X-8.800 Y0.000
G1 X-9.200 Y0.000
G1 X-9.200 Y6.200
G1 X-5.417 Y6.200
G1 X-5.417 Y-6.200
G1 X-9.200 Y-6.200
G1 X-9.200 Y0.000
G1 X-9.600 Y0.000
G1 X-9.600 Y6.600
G1 X-5.017 Y6.600
G1 X-5.017 Y-6.600
G1 X-9.600 Y-6.600
G1 X-9.600 Y0.000
G1 X-10.000 Y0.000
G1 X-10.000 Y7.000
G1 X-4.617 Y7.000
G1 X-4.617 Y-7.000
G1 X-10.000 Y-7.000
G1 X-10.000 Y0.000
G1 X-10.400 Y0.000
G1 X-10.400 Y7.400
G1 X-4.217 Y7.400
G1 X-4.217 Y-7.400
G1 X-10.400 Y-7.400
G1 X-10.400 Y0.000
G1 X-10.800 Y0.000
G1 X-10.800 Y7.800
G1 X-3.817 Y7.800
G1 X-3.817 Y-7.800
G1 X-10.800 Y-7.800
G1 X-10.800 Y0.000
G1 X-11.200 Y0.000
G1 X-11.200 Y8.200
G1 X-3.417 Y8.200
G1 X-3.417 Y-8.200
G1 X-11.200 Y-8.200
G1 X-11.200 Y0.000
G1 X-11.600 Y0.000
G1 X-11.600 Y8.600
G1 X-3.017 Y8.600
G1 X-3.017 Y-8.600
G1 X-11.600 Y-8.600
G1 X-11.600 Y0.000
G1 X-12.000 Y0.000
G1 X-12.000 Y9.000
G1 X-2.617 Y9.000
G1 X-2.617 Y-9.000
G1 X-12.000 Y-9.000
G1 X-12.000 Y0.000
G1 X-12.400 Y0.000
G1 X-12.400 Y9.400
G1 X-2.217 Y9.400
G1 X-2.217 Y-9.400
G1 X-12.400 Y-9.400
G1 X-12.400 Y0.000
G1 X-12.800 Y0.000
G1 X-12.800 Y9.800
G1 X-1.817 Y9.800
G1 X-1.817 Y-9.800
G1 X-12.800 Y-9.800
G1 X-12.800 Y0.000 Z1.900
G1 X-12.800 Y0.000 Z2.300
G1 X-12.800 Y-9.800
G1 X-2.128 Y-9.800
G1 X-2.128 Y9.800
G1 X-12.800 Y9.800
G1 X-12.800 Y0.000
G1 X-12.400 Y0.000
G1 X-12.400 Y-9.400
G1 X-2.528 Y-9.400
G1 X-2.528 Y9.400
G1 X-12.400 Y9.400
G1 X-12.400 Y0.000
G1 X-12.000 Y0.000
G1 X-12.000 Y-9.000
G1 X-2.928 Y-9.000
G1 X-2.928 Y9.000
G1 X-12.000 Y9.000
G1 X-12.000 Y0.000
G1 X-11.600 Y0.000
G1 X-11.600 Y-8.600
G1 X-3.328 Y-8.600
G1 X-3.328 Y8.600
G1 X-11.600 Y8.600
G1 X-11.600 Y0.000
G1 X-11.200 Y0.000
G1 X-11.200 Y-8.200
G1 X-3.728 Y-8.200
G1 X-3.728 Y8.200
G1 X-11.200 Y8.200
G1 X-11.200 Y0.000
G1 X-10.800 Y0.000
G1 X-10.800 Y-7.800
G1 X-4.128 Y-7.800
G1 X-4.128 Y7.800
G1 X-10.800 Y7.800
G1 X-10.800 Y0.000
G1 X-10.400 Y0.000
G1 X-10.400 Y-7.400
G1 X-4.528 Y-7.400
G1 X-4.528 Y7.400
G1 X-10.400 Y7.400
G1 X-10.400 Y0.000
G1 X-10.000 Y0.000
G1 X-10.000 Y-7.000
G1 X-4.928 Y-7.000
G1 X-4.928 Y7.000
G1 X-10.000 Y7.000
G1 X-10.000 Y0.000
G1 X-9.600 Y0.000
G1 X-9.600 Y-6.600
G1 X-5.328 Y-6.600
G1 X-5.328 Y6.600
G1 X-9.600 Y6.600
G1 X-9.600 Y0.000
G1 X-9.200 Y0.000
G1 X-9.200 Y-6.200
G1 X-5.728 Y-6.200
G1 X-5.728 Y6.200
G1 X-9.200 Y6.200
G1 X-9.200 Y0.000
G1 X-8.800 Y0.000
G1 X-8.800 Y-5.800
G1 X-6.128 Y-5.800
G1 X-6.128 Y5.800
G1 X-8.800 Y5.800
G1 X-8.800 Y0.000
G1 X-8.400 Y0.000
G1 X-8.400 Y-5.400
G1 X-6.528 Y-5.400
G1 X-6.528 Y5.400
G1 X-8.400 Y5.400
G1 X-8.400 Y0.000
G1 X-8.000 Y0.000
G1 X-8.000 Y-5.000
G1 X-6.928 Y-5.000
G1 X-6.928 Y5.000
G1 X-8.000 Y5.000
G1 X-8.000 Y0.000
G1 X-7.600 Y0.000
G1 X-7.600 Y0.000 Z2.700
G1 X-7.600 Y0.000
G1 X-8.000 Y0.000
G1 X-8.000 Y5.000
G1 X-7.155 Y5.000
G1 X-7.155 Y-5.000
G1 X-8.000 Y-5.000
G1 X-8.000 Y0.000
G1 X-8.400 Y0.000
G1 X-8.400 Y5.400
G1 X-6.755 Y5.400
G1 X-6.755 Y-5.400
G1 X-8.400 Y-5.400
G1 X-8.400 Y0.000
G1 X-8.800 Y0.000
G1 X-8.800 Y5.800
G1 X-6.355 Y5.800
G1 X-6.355 Y-5.800
G1 X-8.800 Y-5.800
G1 X-8.800 Y0.000
G1 X-9.200 Y0.000
G1 X-9.200 Y6.200
G1 X-5.955 Y6.200
G1 X-5.955 Y-6.200
G1 X-9.200 Y-6.200
G1 X-9.200 Y0.000
G1 X-9.600 Y0.000
G1 X-9.600 Y6.600
G1 X-5.555 Y6.600
G1 X-5.555 Y-6.600
G1 X-9.600 Y-6.600
G1 X-9.600 Y0.000
G1 X-10.000 Y0.000
G1 X-10.000 Y7.000
G1 X-5.155 Y7.000
G1 X-5.155 Y-7.000
G1 X-10.000 Y-7.000
G1 X-10.000 Y0.000
G1 X-10.400 Y0.000
G1 X-10.400 Y7.400
G1 X-4.755 Y7.400
G1 X-4.755 Y-7.400
G1 X-10.400 Y-7.400
G1 X-10.400 Y0.000
G1 X-10.800 Y0.000
G1 X-10.800 Y7.800
G1 X-4.355 Y7.800
G1 X-4.355 Y-7.800
G1 X-10.800 Y-7.800
G1 X-10.800 Y0.000
G1 X-11.200 Y0.000
G1 X-11.200 Y8.200
G1 X-3.955 Y8.200
G1 X-3.955 Y-8.200
G1 X-11.200 Y-8.200
G1 X-11.200 Y0.000
G1 X-11.600 Y0.000
G1 X-11.600 Y8.600
G1 X-3.555 Y8.600
G1 X-3.555 Y-8.600
G1 X-11.600 Y-8.600
G1 X-11.600 Y0.000
G1 X-12.000 Y0.000
G1 X-12.000 Y9.000
G1 X-3.155 Y9.000
G1 X-3.155 Y-9.000
G1 X-12.000 Y-9.000
G1 X-12.000 Y0.000
G1 X-12.400 Y0.000
G1 X-12.400 Y9.400
G1 X-2.755 Y9.400
G1 X-2.755 Y-9.400
G1 X-12.400 Y-9.400
G1 X-12.400 Y0.000
G1 X-12.800 Y0.000
G1 X-12.800 Y9.800
G1 X-2.355 Y9.800
G1 X-2.355 Y-9.800
G1 X-12.800 Y-9.800
G1 X-12.800 Y0.000 Z2.700
G1 X-12.800 Y0.000 Z3.100
G1 X-12.800 Y-9.800
G1 X-2.529 Y-9.800
G1 X-2.529 Y9.800
G1 X-12.800 Y9.800
G1 X-12.800 Y0.000
G1 X-12.400 Y0.000
G1 X-12.400 Y-9.400
G1 X-2.929 Y-9.400
G1 X-2.929 Y9.400
G1 X-12.400 Y9.400
G1 X-12.400 Y0.000
G1 X-12.000 Y0.000
G1 X-12.000 Y-9.000
G1 X-3.329 Y-9.000
G1 X-3.329 Y9.000
G1 X-12.000 Y9.000
G1 X-12.000 Y0.000
G1 X-11.600 Y0.000
G1 X-11.600 Y-8.600
G1 X-3.729 Y-8.600
G1 X-3.729 Y8.600
G1 X-11.600 Y8.600
G1 X-11.600 Y0.000
G1 X-11.200 Y0.000
G1 X-11.200 Y-8.200
G1 X-4.129 Y-8.200
G1 X-4.129 Y8.200
G1 X-11.200 Y8.200
G1 X-11.200 Y0.000
G1 X-10.800 Y0.000
G1 X-10.800 Y-7.800
G1 X-4.529 Y-7.800
G1 X-4.529 Y7.800
G1 X-10.800 Y7.800
G1 X-10.800 Y0.000
G1 X-10.400 Y0.000
G1 X-10.400 Y-7.400
G1 X-4.929 Y-7.400
G1 X-4.929 Y7.400
G1 X-10.400 Y7.400
G1 X-10.400 Y0.000
G1 X-10.000 Y0.000
G1 X-10.000 Y-7.000
G1 X-5.329 Y-7.000
G1 X-5.329 Y7.000
G1 X-10.000 Y7.000
G1 X-10.000 Y0.000
G1 X-9.600 Y0.000
G1 X-9.600 Y-6.600
G1 X-5.729 Y-6.600
G1 X-5.729 Y6.600
G1 X-9.600 Y6.600
G1 X-9.600 Y0.000
G1 X-9.200 Y0.000
G1 X-9.200 Y-6.200
G1 X-6.129 Y-6.200
G1 X-6.129 Y6.200
G1 X-9.200 Y6.200
G1 X-9.200 Y0.000
G1 X-8.800 Y0.000
G1 X-8.800 Y-5.800
G1 X-6.529 Y-5.800
G1 X-6.529 Y5.800
G1 X-8.800 Y5.800
G1 X-8.800 Y0.000
G1 X-8.400 Y0.000
G1 X-8.400 Y-5.400
G1 X-6.929 Y-5.400
G1 X-6.929 Y5.400
G1 X-8.400 Y5.400
G1 X-8.400 Y0.000
G1 X-8.000 Y0.000
G1 X-8.000 Y-5.000
G1 X-7.329 Y-5.000
G1 X-7.329 Y5.000
G1 X-8.000 Y5.000
G1 X-8.000 Y0.000
G1 X-7.600 Y0.000
G1 X-7.600 Y0.000 Z3.500
G1 X-7.600 Y0.000
G1 X-8.000 Y0.000
G1 X-8.000 Y5.000
G1 X-7.462 Y5.000
G1 X-7.462 Y-5.000
G1 X-8.000 Y-5.000
G1 X-8.000 Y0.000
G1 X-8.400 Y0.000
G1 X-8.400 Y5.400
G1 X-7.062 Y5.400
G1 X-7.062 Y-5.400
G1 X-8.400 Y-5.400
G1 X-8.400 Y0.000
G1 X-8.800 Y0.000
G1 X-8.800 Y5.800
G1 X-6.662 Y5.800
G1 X-6.662 Y-5.800
G1 X-8.800 Y-5.800
G1 X-8.800 Y0.000
G1 X-9.200 Y0.000
G1 X-9.200 Y6.200
G1 X-6.262 Y6.200
G1 X-6.262 Y-6.200
G1 X-9.200 Y-6.200
G1 X-9.200 Y0.000
G1 X-9.600 Y0.000
G1 X-9.600 Y6.600
G1 X-5.862 Y6.600
G1 X-5.862 Y-6.600
G1 X-9.600 Y-6.600
G1 X-9.600 Y0.000
G1 X-10.000 Y0.000
G1 X-10.000 Y7.000
G1 X-5.462 Y7.000
G1 X-5.462 Y-7.000
G1 X-10.000 Y-7.000
G1 X-10.000 Y0.000
G1 X-10.400 Y0.000
G1 X-10.400 Y7.400
G1 X-5.062 Y7.400
G1 X-5.062 Y-7.400
G1 X-10.400 Y-7.400
G1 X-10.400 Y0.000
G1 X-10.800 Y0.000
G1 X-10.800 Y7.800
G1 X-4.662 Y7.800
G1 X-4.662 Y-7.800
G1 X-10.800 Y-7.800
G1 X-10.800 Y0.000
G1 X-11.200 Y0.000
G1 X-11.200 Y8.200
G1 X-4.262 Y8.200
G1 X-4.262 Y-8.200
G1 X-11.200 Y-8.200
G1 X-11.200 Y0.000
G1 X-11.600 Y0.000
G1 X-11.600 Y8.600
G1 X-3.862 Y8.600
G1 X-3.862 Y-8.600
G1 X-11.600 Y-8.600
G1 X-11.600 Y0.000
G1 X-12.000 Y0.000
G1 X-12.000 Y9.000
G1 X-3.462 Y9.000
G1 X-3.462 Y-9.000
G1 X-12.000 Y-9.000
G1 X-12.000 Y0.000
G1 X-12.400 Y0.000
G1 X-12.400 Y9.400
G1 X-3.062 Y9.400
G1 X-3.062 Y-9.400
G1 X-12.400 Y-9.400
G1 X-12.400 Y0.000
G1 X-12.800 Y0.000
G1 X-12.800 Y9.800
G1 X-2.662 Y9.800
G1 X-2.662 Y-9.800
G1 X-12.800 Y-9.800
G1 X-12.800 Y0.000 Z3.500
G1 X-12.800 Y0.000 Z3.900
G1 X-12.800 Y-9.800
G1 X-2.763 Y-9.800
G1 X-2.763 Y9.800
G1 X-12.800 Y9.800
G1 X-12.800 Y0.000
G1 X-12.400 Y0.000
G1 X-12.400 Y-9.400
G1 X-3.163 Y-9.400
G1 X-3.163 Y9.400
G1 X-12.400 Y9.400
G1 X-12.400 Y0.000
G1 X-12.000 Y0.000
G1 X-12.000 Y-9.000
G1 X-3.563 Y-9.000
G1 X-3.563 Y9.000
G1 X-12.000 Y9.000
G1 X-12.000 Y0.000
G1 X-11.600 Y0.000
G1 X-11.600 Y-8.600
G1 X-3.963 Y-8.600
G1 X-3.963 Y8.600
G1 X-11.600 Y8.600
G1 X-11.600 Y0.000
G1 X-11.200 Y0.000
G1 X-11.200 Y-8.200
G1 X-4.363 Y-8.200
G1 X-4.363 Y8.200
G1 X-11.200 Y8.200
G1 X-11.200 Y0.000
G1 X-10.800 Y0.000
G1 X-10.800 Y-7.800
G1 X-4.763 Y-7.800
G1 X-4.763 Y7.800
G1 X-10.800 Y7.800
G1 X-10.800 Y0.000
G1 X-10.400 Y0.000
G1 X-10.400 Y-7.400
G1 X-5.163 Y-7.400
G1 X-5.163 Y7.400
G1 X-10.400 Y7.400
G1 X-10.400 Y0.000
G1 X-10.000 Y0.000
G1 X-10.000 Y-7.000
G1 X-5.563 Y-7.000
G1 X-5.563 Y7.000
G1 X-10.000 Y7.000
G1 X-10.000 Y0.000
G1 X-9.600 Y0.000
G1 X-9.600 Y-6.600
G1 X-5.963 Y-6.600
G1 X-5.963 Y6.600
G1 X-9.600 Y6.600
G1 X-9.600 Y0.000
G1 X-9.200 Y0.000
G1 X-9.200 Y-6.200
G1 X-6.363 Y-6.200
G1 X-6.363 Y6.200
G1 X-9.200 Y6.200
G1 X-9.200 Y0.000
G1 X-8.800 Y0.000
G1 X-8.800 Y-5.800
G1 X-6.763 Y-5.800
G1 X-6.763 Y5.800
G1 X-8.800 Y5.800
G1 X-8.800 Y0.000
G1 X-8.400 Y0.000
G1 X-8.400 Y-5.400
G1 X-7.163 Y-5.400
G1 X-7.163 Y5.400
G1 X-8.400 Y5.400
G1 X-8.400 Y0.000
G1 X-8.000 Y0.000
G1 X-8.000 Y-5.000
G1 X-7.563 Y-5.000
G1 X-7.563 Y5.000
G1 X-8.000 Y5.000
G1 X-8.000 Y0.000
G1 X-7.600 Y0.000
G1 X-8.000 Y0.000 Z4.300
G1 X-8.000 Y0.000
G1 X-8.400 Y0.000
G1 X-8.400 Y5.400
G1 X-7.236 Y5.400
G1 X-7.236 Y-5.400
G1 X-8.400 Y-5.400
G1 X-8.400 Y0.000
G1 X-8.800 Y0.000
G1 X-8.800 Y5.800
G1 X-6.836 Y5.800
G1 X-6.836 Y-5.800
G1 X-8.800 Y-5.800
G1 X-8.800 Y0.000
G1 X-9.200 Y0.000
G1 X-9.200 Y6.200
G1 X-6.436 Y6.200
G1 X-6.436 Y-6.200
G1 X-9.200 Y-6.200
G1 X-9.200 Y0.000
G1 X-9.600 Y0.000
G1 X-9.600 Y6.600
G1 X-6.036 Y6.600
G1 X-6.036 Y-6.600
G1 X-9.600 Y-6.600
G1 X-9.600 Y0.000
G1 X-10.000 Y0.000
G1 X-10.000 Y7.000
G1 X-5.636 Y7.000
G1 X-5.636 Y-7.000
G1 X-10.000 Y-7.000
G1 X-10.000 Y0.000
G1 X-10.400 Y0.000
G1 X-10.400 Y7.400
G1 X-5.236 Y7.400
G1 X-5.236 Y-7.400
G1 X-10.400 Y-7.400
G1 X-10.400 Y0.000
G1 X-10.800 Y0.000
G1 X-10.800 Y7.800
G1 X-4.836 Y7.800
G1 X-4.836 Y-7.800
G1 X-10.800 Y-7.800
G1 X-10.800 Y0.000
G1 X-11.200 Y0.000
G1 X-11.200 Y8.200
G1 X-4.436 Y8.200
G1 X-4.436 Y-8.200
G1 X-11.200 Y-8.200
G1 X-11.200 Y0.000
G1 X-11.600 Y0.000
G1 X-11.600 Y8.600
G1 X-4.036 Y8.600
G1 X-4.036 Y-8.600
G1 X-11.600 Y-8.600
G1 X-11.600 Y0.000
G1 X-12.000 Y0.000
G1 X-12.000 Y9.000
G1 X-3.636 Y9.000
G1 X-3.636 Y-9.000
G1 X-12.000 Y-9.000
G1 X-12.000 Y0.000
G1 X-12.400 Y0.000
G1 X-12.400 Y9.400
G1 X-3.236 Y9.400
G1 X-3.236 Y-9.400
G1 X-12.400 Y-9.400
G1 X-12.400 Y0.000
G1 X-12.800 Y0.000
G1 X-12.800 Y9.800
G1 X-2.836 Y9.800
G1 X-2.836 Y-9.800
G1 X-12.800 Y-9.800
G1 X-12.800 Y0.000 Z4.300
G1 X-12.800 Y0.000 Z4.700
G1 X-12.800 Y-9.800
G1 X-2.883 Y-9.800
G1 X-2.883 Y9.800
G1 X-12.800 Y9.800
G1 X-12.800 Y0.000
G1 X-12.400 Y0.000
G1 X-12.400 Y-9.400
G1 X-3.283 Y-9.400
G1 X-3.283 Y9.400
G1 X-12.400 Y9.400
G1 X-12.400 Y0.000
G1 X-12.000 Y0.000
G1 X-12.000 Y-9.000
G1 X-3.683 Y-9.000
G1 X-3.683 Y9.000
G1 X-12.000 Y9.000
G1 X-12.000 Y0.000
G1 X-11.600 Y0.000
G1 X-11.600 Y-8.600
G1 X-4.083 Y-8.600
G1 X-4.083 Y8.600
G1 X-11.600 Y8.600
G1 X-11.600 Y0.000
G1 X-11.200 Y0.000
G1 X-11.200 Y-8.200
G1 X-4.483 Y-8.200
G1 X-4.483 Y8.200
G1 X-11.200 Y8.200
G1 X-11.200 Y0.000
G1 X-10.800 Y0.000
G1 X-10.800 Y-7.800
G1 X-4.883 Y-7.800
G1 X-4.883 Y7.800
G1 X-10.800 Y7.800
G1 X-10.800 Y0.000
G1 X-10.400 Y0.000
G1 X-10.400 Y-7.400
G1 X-5.283 Y-7.400
G1 X-5.283 Y7.400
G1 X-10.400 Y7.400
G1 X-10.400 Y0.000
G1 X-10.000 Y0.000
G1 X-10.000 Y-7.000
G1 X-5.683 Y-7.000
G1 X-5.683 Y7.000
G1 X-10.000 Y7.000
G1 X-10.000 Y0.000
G1 X-9.600 Y0.000
G1 X-9.600 Y-6.600
G1 X-6.083 Y-6.600
G1 X-6.083 Y6.600
G1 X-9.600 Y6.600
G1 X-9.600 Y0.000
G1 X-9.200 Y0.000
G1 X-9.200 Y-6.200
G1 X-6.483 Y-6.200
G1 X-6.483 Y6.200
G1 X-9.200 Y6.200
G1 X-9.200 Y0.000
G1 X-8.800 Y0.000
G1 X-8.800 Y-5.800
G1 X-6.883 Y-5.800
G1 X-6.883 Y5.800
G1 X-8.800 Y5.800
G1 X-8.800 Y0.000
G1 X-8.400 Y0.000
G1 X-8.400 Y-5.400
G1 X-7.283 Y-5.400
G1 X-7.283 Y5.400
G1 X-8.400 Y5.400
G1 X-8.400 Y0.000
G1 X-8.000 Y0.000
G1 X-8.000 Y0.000 Z5.100
G1 X-8.000 Y0.000
G1 X-8.400 Y0.000
G1 X-8.400 Y5.400
G1 X-7.307 Y5.400
G1 X-7.307 Y-5.400
G1 X-8.400 Y-5.400
G1 X-8.400 Y0.000
G1 X-8.800 Y0.000
G1 X-8.800 Y5.800
G1 X-6.907 Y5.800
G1 X-6.907 Y-5.800
G1 X-8.800 Y-5.800
G1 X-8.800 Y0.000
G1 X-9.200 Y0.000
G1 X-9.200 Y6.200
G1 X-6.507 Y6.200
G1 X-6.507 Y-6.200
G1 X-9.200 Y-6.200
G1 X-9.200 Y0.000
G1 X-9.600 Y0.000
G1 X-9.600 Y6.600
G1 X-6.107 Y6.600
G1 X-6.107 Y-6.600
G1 X-9.600 Y-6.600
G1 X-9.600 Y0.000
G1 X-10.000 Y0.000
G1 X-10.000 Y7.000
G1 X-5.707 Y7.000
G1 X-5.707 Y-7.000
G1 X-10.000 Y-7.000
G1 X-10.000 Y0.000
G1 X-10.400 Y0.000
G1 X-10.400 Y7.400
G1 X-5.307 Y7.400
G1 X-5.307 Y-7.400
G1 X-10.400 Y-7.400
G1 X-10.400 Y0.000
G1 X-10.800 Y0.000
G1 X-10.800 Y7.800
G1 X-4.907 Y7.800
G1 X-4.907 Y-7.800
G1 X-10.800 Y-7.800
G1 X-10.800 Y0.000
G1 X-11.200 Y0.000
G1 X-11.200 Y8.200
G1 X-4.507 Y8.200
G1 X-4.507 Y-8.200
G1 X-11.200 Y-8.200
G1 X-11.200 Y0.000
G1 X-11.600 Y0.000
G1 X-11.600 Y8.600
G1 X-4.107 Y8.600
G1 X-4.107 Y-8.600
G1 X-11.600 Y-8.600
G1 X-11.600 Y0.000
G1 X-12.000 Y0.000
G1 X-12.000 Y9.000
G1 X-3.707 Y9.000
G1 X-3.707 Y-9.000
G1 X-12.000 Y-9.000
G1 X-12.000 Y0.000
G1 X-12.400 Y0.000
G1 X-12.400 Y9.400
G1 X-3.307 Y9.400
G1 X-3.307 Y-9.400
G1 X-12.400 Y-9.400
G1 X-12.400 Y0.000
G1 X-12.800 Y0.000
G1 X-12.800 Y9.800
G1 X-2.907 Y9.800
G1 X-2.907 Y-9.800
G1 X-12.800 Y-9.800
G1 X-12.800 Y0.000 Z5.100
M9
G1 Z10.000
G1 X12.800 Y0.000
G1 Z1.500
M7
G4 P150
G1 X12.800 Y0.000 Z1.500
G1 X12.800 Y9.800
G1 X1.000 Y9.800
G1 X1.000 Y-9.800
G1 X12.800 Y-9.800
G1 X12.800 Y0.000
G1 X12.400 Y0.000
G1 X12.400 Y9.400
G1 X1.400 Y9.400
G1 X1.400 Y-9.400
G1 X12.400 Y-9.400
G1 X12.400 Y0.000
G1 X12.000 Y0.000
G1 X12.000 Y9.000
G1 X1.800 Y9.000
G1 X1.800 Y-9.000
G1 X12.000 Y-9.000
G1 X12.000 Y0.000
G1 X11.600 Y0.000
G1 X11.600 Y8.600
G1 X2.200 Y8.600
G1 X2.200 Y-8.600
G1 X11.600 Y-8.600
G1 X11.600 Y0.000
G1 X11.200 Y0.000
G1 X11.200 Y8.200
G1 X2.600 Y8.200
G1 X2.600 Y-8.200
G1 X11.200 Y-8.200
G1 X11.200 Y0.000
G1 X10.800 Y0.000
G1 X10.800 Y7.800
G1 X3.000 Y7.800
G1 X3.000 Y-7.800
G1 X10.800 Y-7.800
G1 X10.800 Y0.000
G1 X10.400 Y0.000
G1 X10.400 Y7.400
G1 X3.400 Y7.400
G1 X3.400 Y-7.400
G1 X10.400 Y-7.400
G1 X10.400 Y0.000
G1 X10.000 Y0.000
G1 X10.000 Y7.000
G1 X3.800 Y7.000
G1 X3.800 Y-7.000
G1 X10.000 Y-7.000
G1 X10.000 Y0.000
G1 X9.600 Y0.000
G1 X9.600 Y6.600
G1 X4.200 Y6.600
G1 X4.200 Y-6.600
G1 X9.600 Y-6.600
G1 X9.600 Y0.000
G1 X9.200 Y0.000
G1 X9.200 Y6.200
G1 X4.600 Y6.200
G1 X4.600 Y-6.200
G1 X9.200 Y-6.200
G1 X9.200 Y0.000
G1 X8.800 Y0.000
G1 X8.800 Y5.800
G1 X5.000 Y5.800
G1 X5.000 Y-5.800
G1 X8.800 Y-5.800
G1 X8.800 Y0.000
G1 X8.400 Y0.000
G1 X8.400 Y5.400
G1 X5.400 Y5.400
G1 X5.400 Y-5.400
G1 X8.400 Y-5.400
G1 X8.400 Y0.000
G1 X8.000 Y0.000
G1 X8.000 Y5.000
G1 X5.800 Y5.000
G1 X5.800 Y-5.000
G1 X8.000 Y-5.000
G1 X8.000 Y0.000
G1 X7.600 Y0.000
G1 X7.600 Y4.600
G1 X6.200 Y4.600
G1 X6.200 Y-4.600
G1 X7.600 Y-4.600
G1 X7.600 Y0.000
G1 X7.200 Y0.000
G1 X7.200 Y4.200
G1 X6.600 Y4.200
G1 X6.600 Y-4.200
G1 X7.200 Y-4.200
G1 X7.200 Y0.000
G1 X6.800 Y0.000
G1 X7.200 Y0.000 Z1.900
G1 X7.200 Y0.000
G1 X7.600 Y0.000
G1 X7.600 Y-4.600
G1 X7.017 Y-4.600
G1 X7.017 Y4.600
G1 X7.600 Y4.600
G1 X7.600 Y0.000
G1 X8.000 Y0.000
G1 X8.000 Y-5.000
G1 X6.617 Y-5.000
G1 X6.617 Y5.000
G1 X8.000 Y5.000
G1 X8.000 Y0.000
G1 X8.400 Y0.000
G1 X8.400 Y-5.400
G1 X6.217 Y-5.400
G1 X6.217 Y5.400
G1 X8.400 Y5.400
G1 X8.400 Y0.000
G1 X8.800 Y0.000
G1 X8.800 Y-5.800
G1 X5.817 Y-5.800
G1 X5.817 Y5.800
G1 X8.800 Y5.800
G1 X8.800 Y0.000
G1 X9.200 Y0.000
G1 X9.200 Y-6.200
G1 X5.417 Y-6.200
G1 X5.417 Y6.200
G1 X9.200 Y6.200
G1 X9.200 Y0.000
G1 X9.600 Y0.000
G1 X9.600 Y-6.600
G1 X5.017 Y-6.600
G1 X5.017 Y6.600
G1 X9.600 Y6.600
G1 X9.600 Y0.000
G1 X10.000 Y0.000
G1 X10.000 Y-7.000
G1 X4.617 Y-7.000
G1 X4.617 Y7.000
G1 X10.000 Y7.000
G1 X10.000 Y0.000
G1 X10.400 Y0.000
G1 X10.400 Y-7.400
G1 X4.217 Y-7.400
G1 X4.217 Y7.400
G1 X10.400 Y7.400
G1 X10.400 Y0.000
G1 X10.800 Y0.000
G1 X10.800 Y-7.800
G1 X3.817 Y-7.800
G1 X3.817 Y7.800
G1 X10.800 Y7.800
G1 X10.800 Y0.000
G1 X11.200 Y0.000
G1 X11.200 Y-8.200
G1 X3.417 Y-8.200
G1 X3.417 Y8.200
G1 X11.200 Y8.200
G1 X11.200 Y0.000
G1 X11.600 Y0.000
G1 X11.600 Y-8.600
G1 X3.017 Y-8.600
G1 X3.017 Y8.600
G1 X11.600 Y8.600
G1 X11.600 Y0.000
G1 X12.000 Y0.000
G1 X12.000 Y-9.000
G1 X2.617 Y-9.000
G1 X2.617 Y9.000
G1 X12.000 Y9.000
G1 X12.000 Y0.000
G1 X12.400 Y0.000
G1 X12.400 Y-9.400
G1 X2.217 Y-9.400
G1 X2.217 Y9.400
G1 X12.400 Y9.400
G1 X12.400 Y0.000
G1 X12.800 Y0.000
G1 X12.800 Y-9.800
G1 X1.817 Y-9.800
G1 X1.817 Y9.800
G1 X12.800 Y9.800
G1 X12.800 Y0.000 Z1.900
G1 X12.800 Y0.000 Z2.300
G1 X12.800 Y9.800
G1 X2.128 Y9.800
G1 X2.128 Y-9.800
G1 X12.800 Y-9.800
G1 X12.800 Y0.000
G1 X12.400 Y0.000
G1 X12.400 Y9.400
G1 X2.528 Y9.400
G1 X2.528 Y-9.400
G1 X12.400 Y-9.400
G1 X12.400 Y0.000
G1 X12.000 Y0.000
G1 X12.000 Y9.000
G1 X2.928 Y9.000
G1 X2.928 Y-9.000
G1 X12.000 Y-9.000
G1 X12.000 Y0.000
G1 X11.600 Y0.000
G1 X11.600 Y8.600
G1 X3.328 Y8.600
G1 X3.328 Y-8.600
G1 X11.600 Y-8.600
G1 X11.600 Y0.000
G1 X11.200 Y0.000
G1 X11.200 Y8.200
G1 X3.728 Y8.200
G1 X3.728 Y-8.200
G1 X11.200 Y-8.200
G1 X11.200 Y0.000
G1 X10.800 Y0.000
G1 X10.800 Y7.800
G1 X4.128 Y7.800
G1 X4.128 Y-7.800
G1 X10.800 Y-7.800
G1 X10.800 Y0.000
G1 X10.400 Y0.000
G1 X10.400 Y7.400
G1 X4.528 Y7.400
G1 X4.528 Y-7.400
G1 X10.400 Y-7.400
G1 X10.400 Y0.000
G1 X10.000 Y0.000
G1 X10.000 Y7.000
G1 X4.928 Y7.000
G1 X4.928 Y-7.000
G1 X10.000 Y-7.000
G1 X10.000 Y0.000
G1 X9.600 Y0.000
G1 X9.600 Y6.600
G1 X5.328 Y6.600
G1 X5.328 Y-6.600
G1 X9.600 Y-6.600
G1 X9.600 Y0.000
G1 X9.200 Y0.000
G1 X9.200 Y6.200
G1 X5.728 Y6.200
G1 X5.728 Y-6.200
G1 X9.200 Y-6.200
G1 X9.200 Y0.000
G1 X8.800 Y0.000
G1 X8.800 Y5.800
G1 X6.128 Y5.800
G1 X6.128 Y-5.800
G1 X8.800 Y-5.800
G1 X8.800 Y0.000
G1 X8.400 Y0.000
G1 X8.400 Y5.400
G1 X6.528 Y5.400
G1 X6.528 Y-5.400
G1 X8.400 Y-5.400
G1 X8.400 Y0.000
G1 X8.000 Y0.000
G1 X8.000 Y5.000
G1 X6.928 Y5.000
G1 X6.928 Y-5.000
G1 X8.000 Y-5.000
G1 X8.000 Y0.000
G1 X7.600 Y0.000
G1 X7.600 Y0.000 Z2.700
G1 X7.600 Y0.000
G1 X8.000 Y0.000
G1 X8.000 Y-5.000
G1 X7.155 Y-5.000
G1 X7.155 Y5.000
G1 X8.000 Y5.000
G1 X8.000 Y0.000
G1 X8.400 Y0.000
G1 X8.400 Y-5.400
G1 X6.755 Y-5.400
G1 X6.755 Y5.400
G1 X8.400 Y5.400
G1 X8.400 Y0.000
G1 X8.800 Y0.000
G1 X8.800 Y-5.800
G1 X6.355 Y-5.800
G1 X6.355 Y5.800
G1 X8.800 Y5.800
G1 X8.800 Y0.000
G1 X9.200 Y0.000
G1 X9.200 Y-6.200
G1 X5.955 Y-6.200
G1 X5.955 Y6.200
G1 X9.200 Y6.200
G1 X9.200 Y0.000
G1 X9.600 Y0.000
G1 X9.600 Y-6.600
G1 X5.555 Y-6.600
G1 X5.555 Y6.600
G1 X9.600 Y6.600
G1 X9.600 Y0.000
G1 X10.000 Y0.000
G1 X10.000 Y-7.000
G1 X5.155 Y-7.000
G1 X5.155 Y7.000
G1 X10.000 Y7.000
G1 X10.000 Y0.000
G1 X10.400 Y0.000
G1 X10.400 Y-7.400
G1 X4.755 Y-7.400
G1 X4.755 Y7.400
G1 X10.400 Y7.400
G1 X10.400 Y0.000
G1 X10.800 Y0.000
G1 X10.800 Y-7.800
G1 X4.355 Y-7.800
G1 X4.355 Y7.800
G1 X10.800 Y7.800
G1 X10.800 Y0.000
G1 X11.200 Y0.000
G1 X11.200 Y-8.200
G1 X3.955 Y-8.200
G1 X3.955 Y8.200
G1 X11.200 Y8.200
G1 X11.200 Y0.000
G1 X11.600 Y0.000
G1 X11.600 Y-8.600
G1 X3.555 Y-8.600
G1 X3.555 Y8.600
G1 X11.600 Y8.600
G1 X11.600 Y0.000
G1 X12.000 Y0.000
G1 X12.000 Y-9.000
G1 X3.155 Y-9.000
G1 X3.155 Y9.000
G1 X12.000 Y9.000
G1 X12.000 Y0.000
G1 X12.400 Y0.000
G1 X12.400 Y-9.400
G1 X2.755 Y-9.400
G1 X2.755 Y9.400
G1 X12.400 Y9.400
G1 X12.400 Y0.000
G1 X12.800 Y0.000
G1 X12.800 Y-9.800
G1 X2.355 Y-9.800
G1 X2.355 Y9.800
G1 X12.800 Y9.800
G1 X12.800 Y0.000 Z2.700
G1 X12.800 Y0.000 Z3.100
G1 X12.800 Y9.800
G1 X2.529 Y9.800
G1 X2.529 Y-9.800
G1 X12.800 Y-9.800
G1 X12.800 Y0.000
G1 X12.400 Y0.000
G1 X12.400 Y9.400
G1 X2.929 Y9.400
G1 X2.929 Y-9.400
G1 X12.400 Y-9.400
G1 X12.400 Y0.000
G1 X12.000 Y0.000
G1 X12.000 Y9.000
G1 X3.329 Y9.000
G1 X3.329 Y-9.000
G1 X12.000 Y-9.000
G1 X12.000 Y0.000
G1 X11.600 Y0.000
G1 X11.600 Y8.600
G1 X3.729 Y8.600
G1 X3.729 Y-8.600
G1 X11.600 Y-8.600
G1 X11.600 Y0.000
G1 X11.200 Y0.000
G1 X11.200 Y8.200
G1 X4.129 Y8.200
G1 X4.129 Y-8.200
G1 X11.200 Y-8.200
G1 X11.200 Y0.000
G1 X10.800 Y0.000
G1 X10.800 Y7.800
G1 X4.529 Y7.800
G1 X4.529 Y-7.800
G1 X10.800 Y-7.800
G1 X10.800 Y0.000
G1 X10.400 Y0.000
G1 X10.400 Y7.400
G1 X4.929 Y7.400
G1 X4.929 Y-7.400
G1 X10.400 Y-7.400
G1 X10.400 Y0.000
G1 X10.000 Y0.000
G1 X10.000 Y7.000
G1 X5.329 Y7.000
G1 X5.329 Y-7.000
G1 X10.000 Y-7.000
G1 X10.000 Y0.000
G1 X9.600 Y0.000
G1 X9.600 Y6.600
G1 X5.729 Y6.600
G1 X5.729 Y-6.600
G1 X9.600 Y-6.600
G1 X9.600 Y0.000
G1 X9.200 Y0.000
G1 X9.200 Y6.200
G1 X6.129 Y6.200
G1 X6.129 Y-6.200
G1 X9.200 Y-6.200
G1 X9.200 Y0.000
G1 X8.800 Y0.000
G1 X8.800 Y5.800
G1 X6.529 Y5.800
G1 X6.529 Y-5.800
G1 X8.800 Y-5.800
G1 X8.800 Y0.000
G1 X8.400 Y0.000
G1 X8.400 Y5.400
G1 X6.929 Y5.400
G1 X6.929 Y-5.400
G1 X8.400 Y-5.400
G1 X8.400 Y0.000
G1 X8.000 Y0.000
G1 X8.000 Y5.000
G1 X7.329 Y5.000
G1 X7.329 Y-5.000
G1 X8.000 Y-5.000
G1 X8.000 Y0.000
G1 X7.600 Y0.000
G1 X7.600 Y0.000 Z3.500
G1 X7.600 Y0.000
G1 X8.000 Y0.000
G1 X8.000 Y-5.000
G1 X7.462 Y-5.000
G1 X7.462 Y5.000
G1 X8.000 Y5.000
G1 X8.000 Y0.000
G1 X8.400 Y0.000
G1 X8.400 Y-5.400
G1 X7.062 Y-5.400
G1 X7.062 Y5.400
G1 X8.400 Y5.400
G1 X8.400 Y0.000
G1 X8.800 Y0.000
G1 X8.800 Y-5.800
G1 X6.662 Y-5.800
G1 X6.662 Y5.800
G1 X8.800 Y5.800
G1 X8.800 Y0.000
G1 X9.200 Y0.000
G1 X9.200 Y-6.200
G1 X6.262 Y-6.200
G1 X6.262 Y6.200
G1 X9.200 Y6.200
G1 X9.200 Y0.000
G1 X9.600 Y0.000
G1 X9.600 Y-6.600
G1 X5.862 Y-6.600
G1 X5.862 Y6.600
G1 X9.600 Y6.600
G1 X9.600 Y0.000
G1 X10.000 Y0.000
G1 X10.000 Y-7.000
G1 X5.462 Y-7.000
G1 X5.462 Y7.000
G1 X10.000 Y7.000
G1 X10.000 Y0.000
G1 X10.400 Y0.000
G1 X10.400 Y-7.400
G1 X5.062 Y-7.400
G1 X5.062 Y7.400
G1 X10.400 Y7.400
G1 X10.400 Y0.000
G1 X10.800 Y0.000
G1 X10.800 Y-7.800
G1 X4.662 Y-7.800
G1 X4.662 Y7.800
G1 X10.800 Y7.800
G1 X10.800 Y0.000
G1 X11.200 Y0.000
G1 X11.200 Y-8.200
G1 X4.262 Y-8.200
G1 X4.262 Y8.200
G1 X11.200 Y8.200
G1 X11.200 Y0.000
G1 X11.600 Y0.000
G1 X11.600 Y-8.600
G1 X3.862 Y-8.600
G1 X3.862 Y8.600
G1 X11.600 Y8.600
G1 X11.600 Y0.000
G1 X12.000 Y0.000
G1 X12.000 Y-9.000
G1 X3.462 Y-9.000
G1 X3.462 Y9.000
G1 X12.000 Y9.000
G1 X12.000 Y0.000
G1 X12.400 Y0.000
G1 X12.400 Y-9.400
G1 X3.062 Y-9.400
G1 X3.062 Y9.400
G1 X12.400 Y9.400
G1 X12.400 Y0.000
G1 X12.800 Y0.000
G1 X12.800 Y-9.800
G1 X2.662 Y-9.800
G1 X2.662 Y9.800
G1 X12.800 Y9.800
G1 X12.800 Y0.000 Z3.500
G1 X12.800 Y0.000 Z3.900
G1 X12.800 Y9.800
G1 X2.763 Y9.800
G1 X2.763 Y-9.800
G1 X12.800 Y-9.800
G1 X12.800 Y0.000
G1 X12.400 Y0.000
G1 X12.400 Y9.400
G1 X3.163 Y9.400
G1 X3.163 Y-9.400
G1 X12.400 Y-9.400
G1 X12.400 Y0.000
G1 X12.000 Y0.000
G1 X12.000 Y9.000
G1 X3.563 Y9.000
G1 X3.563 Y-9.000
G1 X12.000 Y-9.000
G1 X12.000 Y0.000
G1 X11.600 Y0.000
G1 X11.600 Y8.600
G1 X3.963 Y8.600
G1 X3.963 Y-8.600
G1 X11.600 Y-8.600
G1 X11.600 Y0.000
G1 X11.200 Y0.000
G1 X11.200 Y8.200
G1 X4.363 Y8.200
G1 X4.363 Y-8.200
G1 X11.200 Y-8.200
G1 X11.200 Y0.000
G1 X10.800 Y0.000
G1 X10.800 Y7.800
G1 X4.763 Y7.800
G1 X4.763 Y-7.800
G1 X10.800 Y-7.800
G1 X10.800 Y0.000
G1 X10.400 Y0.000
G1 X10.400 Y7.400
G1 X5.163 Y7.400
G1 X5.163 Y-7.400
G1 X10.400 Y-7.400
G1 X10.400 Y0.000
G1 X10.000 Y0.000
G1 X10.000 Y7.000
G1 X5.563 Y7.000
G1 X5.563 Y-7.000
G1 X10.000 Y-7.000
G1 X10.000 Y0.000
G1 X9.600 Y0.000
G1 X9.600 Y6.600
G1 X5.963 Y6.600
G1 X5.963 Y-6.600
G1 X9.600 Y-6.600
G1 X9.600 Y0.000
G1 X9.200 Y0.000
G1 X9.200 Y6.200
G1 X6.363 Y6.200
G1 X6.363 Y-6.200
G1 X9.200 Y-6.200
G1 X9.200 Y0.000
G1 X8.800 Y0.000
G1 X8.800 Y5.800
G1 X6.763 Y5.800
G1 X6.763 Y-5.800
G1 X8.800 Y-5.800
G1 X8.800 Y0.000
G1 X8.400 Y0.000
G1 X8.400 Y5.400
G1 X7.163 Y5.400
G1 X7.163 Y-5.400
G1 X8.400 Y-5.400
G1 X8.400 Y0.000
G1 X8.000 Y0.000
G1 X8.000 Y5.000
G1 X7.563 Y5.000
G1 X7.563 Y-5.000
G1 X8.000 Y-5.000
G1 X8.000 Y0.000
G1 X7.600 Y0.000
G1 X8.000 Y0.000 Z4.300
G1 X8.000 Y0.000
G1 X8.400 Y0.000
G1 X8.400 Y-5.400
G1 X7.236 Y-5.400
G1 X7.236 Y5.400
G1 X8.400 Y5.400
G1 X8.400 Y0.000
G1 X8.800 Y0.000
G1 X8.800 Y-5.800
G1 X6.836 Y-5.800
G1 X6.836 Y5.800
G1 X8.800 Y5.800
G1 X8.800 Y0.000
G1 X9.200 Y0.000
G1 X9.200 Y-6.200
G1 X6.436 Y-6.200
G1 X6.436 Y6.200
G1 X9.200 Y6.200
G1 X9.200 Y0.000
G1 X9.600 Y0.000
G1 X9.600 Y-6.600
G1 X6.036 Y-6.600
G1 X6.036 Y6.600
G1 X9.600 Y6.600
G1 X9.600 Y0.000
G1 X10.000 Y0.000
G1 X10.000 Y-7.000
G1 X5.636 Y-7.000
G1 X5.636 Y7.000
G1 X10.000 Y7.000
G1 X10.000 Y0.000
G1 X10.400 Y0.000
G1 X10.400 Y-7.400
G1 X5.236 Y-7.400
G1 X5.236 Y7.400
G1 X10.400 Y7.400
G1 X10.400 Y0.000
G1 X10.800 Y0.000
G1 X10.800 Y-7.800
G1 X4.836 Y-7.800
G1 X4.836 Y7.800
G1 X10.800 Y7.800
G1 X10.800 Y0.000
G1 X11.200 Y0.000
G1 X11.200 Y-8.200
G1 X4.436 Y-8.200
G1 X4.436 Y8.200
G1 X11.200 Y8.200
G1 X11.200 Y0.000
G1 X11.600 Y0.000
G1 X11.600 Y-8.600
G1 X4.036 Y-8.600
G1 X4.036 Y8.600
G1 X11.600 Y8.600
G1 X11.600 Y0.000
G1 X12.000 Y0.000
G1 X12.000 Y-9.000
G1 X3.636 Y-9.000
G1 X3.636 Y9.000
G1 X12.000 Y9.000
G1 X12.000 Y0.000
G1 X12.400 Y0.000
G1 X12.400 Y-9.400
G1 X3.236 Y-9.400
G1 X3.236 Y9.400
G1 X12.400 Y9.400
G1 X12.400 Y0.000
G1 X12.800 Y0.000
G1 X12.800 Y-9.800
G1 X2.836 Y-9.800
G1 X2.836 Y9.800
G1 X12.800 Y9.800
G1 X12.800 Y0.000 Z4.300
G1 X12.800 Y0.000 Z4.700
G1 X12.800 Y9.800
G1 X2.883 Y9.800
G1 X2.883 Y-9.800
G1 X12.800 Y-9.800
G1 X12.800 Y0.000
G1 X12.400 Y0.000
G1 X12.400 Y9.400
G1 X3.283 Y9.400
G1 X3.283 Y-9.400
G1 X12.400 Y-9.400
G1 X12.400 Y0.000
G1 X12.000 Y0.000
G1 X12.000 Y9.000
G1 X3.683 Y9.000
G1 X3.683 Y-9.000
G1 X12.000 Y-9.000
G1 X12.000 Y0.000
G1 X11.600 Y0.000
G1 X11.600 Y8.600
G1 X4.083 Y8.600
G1 X4.083 Y-8.600
G1 X11.600 Y-8.600
G1 X11.600 Y0.000
G1 X11.200 Y0.000
G1 X11.200 Y8.200
G1 X4.483 Y8.200
G1 X4.483 Y-8.200
G1 X11.200 Y-8.200
G1 X11.200 Y0.000
G1 X10.800 Y0.000
G1 X10.800 Y7.800
G1 X4.883 Y7.800
G1 X4.883 Y-7.800
G1 X10.800 Y-7.800
G1 X10.800 Y0.000
G1 X10.400 Y0.000
G1 X10.400 Y7.400
G1 X5.283 Y7.400
G1 X5.283 Y-7.400
G1 X10.400 Y-7.400
G1 X10.400 Y0.000
G1 X10.000 Y0.000
G1 X10.000 Y7.000
G1 X5.683 Y7.000
G1 X5.683 Y-7.000
G1 X10.000 Y-7.000
G1 X10.000 Y0.000
G1 X9.600 Y0.000
G1 X9.600 Y6.600
G1 X6.083 Y6.600
G1 X6.083 Y-6.600
G1 X9.600 Y-6.600
G1 X9.600 Y0.000
G1 X9.200 Y0.000
G1 X9.200 Y6.200
G1 X6.483 Y6.200
G1 X6.483 Y-6.200
G1 X9.200 Y-6.200
G1 X9.200 Y0.000
G1 X8.800 Y0.000
G1 X8.800 Y5.800
G1 X6.883 Y5.800
G1 X6.883 Y-5.800
G1 X8.800 Y-5.800
G1 X8.800 Y0.000
G1 X8.400 Y0.000
G1 X8.400 Y5.400
G1 X7.283 Y5.400
G1 X7.283 Y-5.400
G1 X8.400 Y-5.400
G1 X8.400 Y0.000
G1 X8.000 Y0.000
G1 X8.000 Y0.000 Z5.100
G1 X8.000 Y0.000
G1 X8.400 Y0.000
G1 X8.400 Y-5.400
G1 X7.307 Y-5.400
G1 X7.307 Y5.400
G1 X8.400 Y5.400
G1 X8.400 Y0.000
G1 X8.800 Y0.000
G1 X8.800 Y-5.800
G1 X6.907 Y-5.800
G1 X6.907 Y5.800
G1 X8.800 Y5.800
G1 X8.800 Y0.000
G1 X9.200 Y0.000
G1 X9.200 Y-6.200
G1 X6.507 Y-6.200
G1 X6.507 Y6.200
G1 X9.200 Y6.200
G1 X9.200 Y0.000
G1 X9.600 Y0.000
G1 X9.600 Y-6.600
G1 X6.107 Y-6.600
G1 X6.107 Y6.600
G1 X9.600 Y6.600
G1 X9.600 Y0.000
G1 X10.000 Y0.000
G1 X10.000 Y-7.000
G1 X5.707 Y-7.000
G1 X5.707 Y7.000
G1 X10.000 Y7.000
G1 X10.000 Y0.000
G1 X10.400 Y0.000
G1 X10.400 Y-7.400
G1 X5.307 Y-7.400
G1 X5.307 Y7.400
G1 X10.400 Y7.400
G1 X10.400 Y0.000
G1 X10.800 Y0.000
G1 X10.800 Y-7.800
G1 X4.907 Y-7.800
G1 X4.907 Y7.800
G1 X10.800 Y7.800
G1 X10.800 Y0.000
G1 X11.200 Y0.000
G1 X11.200 Y-8.200
G1 X4.507 Y-8.200
G1 X4.507 Y8.200
G1 X11.200 Y8.200
G1 X11.200 Y0.000
G1 X11.600 Y0.000
G1 X11.600 Y-8.600
G1 X4.107 Y-8.600
G1 X4.107 Y8.600
G1 X11.600 Y8.600
G1 X11.600 Y0.000
G1 X12.000 Y0.000
G1 X12.000 Y-9.000
G1 X3.707 Y-9.000
G1 X3.707 Y9.000
G1 X12.000 Y9.000
G1 X12.000 Y0.000
G1 X12.400 Y0.000
G1 X12.400 Y-9.400
G1 X3.307 Y-9.400
G1 X3.307 Y9.400
G1 X12.400 Y9.400
G1 X12.400 Y0.000
G1 X12.800 Y0.000
G1 X12.800 Y-9.800
G1 X2.907 Y-9.800
G1 X2.907 Y9.800
G1 X12.800 Y9.800
G1 X12.800 Y0.000 Z5.100

;Finish
M9
G1 Z10.000
G28 X-100 Y-100;Home