;layer_height = 0.4
;line_width = 0.4
;layer_count = 10
;mesh = single_30
G21 ;start of the code
G1 Z15 F300
G28 X0 Y0 ;Home
G92 X0 Y0 ;Consider this as current
G0 X50 Y50 F3000 ;Go-to Offset
G92 X0 Y0 ;Reset

G0 F3600 X-12.800 Y0.000 Z0.300 ;Go to start position
M7
G4 P150


G1 X-12.800 Y0.000 Z0.300
G1 X-12.800 Y-9.800
G1 X-0.600 Y-9.800
G1 X-0.600 Y9.800
G1 X-12.800 Y9.800
G1 X-12.800 Y0.000
G1 X-12.400 Y0.000
G1 X-12.400 Y-9.400
G1 X-1.000 Y-9.400
G1 X-1.000 Y9.400
G1 X-12.400 Y9.400
G1 X-12.400 Y0.000
G1 X-12.000 Y0.000
G1 X-12.000 Y-9.000
G1 X-1.400 Y-9.000
G1 X-1.400 Y9.000
G1 X-12.000 Y9.000
G1 X-12.000 Y0.000
G1 X-11.600 Y0.000
G1 X-11.600 Y-8.600
G1 X-1.800 Y-8.600
G1 X-1.800 Y8.600
G1 X-11.600 Y8.600
G1 X-11.600 Y0.000
G1 X-11.200 Y0.000
G1 X-11.200 Y-8.200
G1 X-2.200 Y-8.200
G1 X-2.200 Y8.200
G1 X-11.200 Y8.200
G1 X-11.200 Y0.000
G1 X-10.800 Y0.000
G1 X-10.800 Y-7.800
G1 X-2.600 Y-7.800
G1 X-2.600 Y7.800
G1 X-10.800 Y7.800
G1 X-10.800 Y0.000
G1 X-10.400 Y0.000
G1 X-10.400 Y-7.400
G1 X-3.000 Y-7.400
G1 X-3.000 Y7.400
G1 X-10.400 Y7.400
G1 X-10.400 Y0.000
G1 X-10.000 Y0.000
G1 X-10.000 Y-7.000
G1 X-3.400 Y-7.000
G1 X-3.400 Y7.000
G1 X-10.000 Y7.000
G1 X-10.000 Y0.000
G1 X-9.600 Y0.000
G1 X-9.600 Y-6.600
G1 X-3.800 Y-6.600
G1 X-3.800 Y6.600
G1 X-9.600 Y6.600
G1 X-9.600 Y0.000
G1 X-9.200 Y0.000
G1 X-9.200 Y-6.200
G1 X-4.200 Y-6.200
G1 X-4.200 Y6.200
G1 X-9.200 Y6.200
G1 X-9.200 Y0.000
G1 X-8.800 Y0.000
G1 X-8.800 Y-5.800
G1 X-4.600 Y-5.800
G1 X-4.600 Y5.800
G1 X-8.800 Y5.800
G1 X-8.800 Y0.000
G1 X-8.400 Y0.000
G1 X-8.400 Y-5.400
G1 X-5.000 Y-5.400
G1 X-5.000 Y5.400
G1 X-8.400 Y5.400
G1 X-8.400 Y0.000
G1 X-8.000 Y0.000
G1 X-8.000 Y-5.000
G1 X-5.400 Y-5.000
G1 X-5.400 Y5.000
G1 X-8.000 Y5.000
G1 X-8.000 Y0.000
G1 X-7.600 Y0.000
G1 X-7.600 Y-4.600
G1 X-5.800 Y-4.600
G1 X-5.800 Y4.600
G1 X-7.600 Y4.600
G1 X-7.600 Y0.000
G1 X-7.200 Y0.000
G1 X-7.200 Y-4.200
G1 X-6.200 Y-4.200
G1 X-6.200 Y4.200
G1 X-7.200 Y4.200
G1 X-7.200 Y0.000
G1 X-6.800 Y0.000
G1 X-6.800 Y0.000 Z0.700
G1 X-6.800 Y0.000
G1 X-7.200 Y0.000
G1 X-7.200 Y4.200
G1 X-6.200 Y4.200
G1 X-6.200 Y-4.200
G1 X-7.200 Y-4.200
G1 X-7.200 Y0.000
G1 X-7.600 Y0.000
G1 X-7.600 Y4.600
G1 X-5.800 Y4.600
G1 X-5.800 Y-4.600
G1 X-7.600 Y-4.600
G1 X-7.600 Y0.000
G1 X-8.000 Y0.000
G1 X-8.000 Y5.000
G1 X-5.400 Y5.000
G1 X-5.400 Y-5.000
G1 X-8.000 Y-5.000
G1 X-8.000 Y0.000
G1 X-8.400 Y0.000
G1 X-8.400 Y5.400
G1 X-5.000 Y5.400
G1 X-5.000 Y-5.400
G1 X-8.400 Y-5.400
G1 X-8.400 Y0.000
G1 X-8.800 Y0.000
G1 X-8.800 Y5.800
G1 X-4.600 Y5.800
G1 X-4.600 Y-5.800
G1 X-8.800 Y-5.800
G1 X-8.800 Y0.000
G1 X-9.200 Y0.000
G1 X-9.200 Y6.200
G1 X-4.200 Y6.200
G1 X-4.200 Y-6.200
G1 X-9.200 Y-6.200
G1 X-9.200 Y0.000
G1 X-9.600 Y0.000
G1 X-9.600 Y6.600
G1 X-3.800 Y6.600
G1 X-3.800 Y-6.600
G1 X-9.600 Y-6.600
G1 X-9.600 Y0.000
G1 X-10.000 Y0.000
G1 X-10.000 Y7.000
G1 X-3.400 Y7.000
G1 X-3.400 Y-7.000
G1 X-10.000 Y-7.000
G1 X-10.000 Y0.000
G1 X-10.400 Y0.000
G1 X-10.400 Y7.400
G1 X-3.000 Y7.400
G1 X-3.000 Y-7.400
G1 X-10.400 Y-7.400
G1 X-10.400 Y0.000
G1 X-10.800 Y0.000
G1 X-10.800 Y7.800
G1 X-2.600 Y7.800
G1 X-2.600 Y-7.800
G1 X-10.800 Y-7.800
G1 X-10.800 Y0.000
G1 X-11.200 Y0.000
G1 X-11.200 Y8.200
G1 X-2.200 Y8.200
G1 X-2.200 Y-8.200
G1 X-11.200 Y-8.200
G1 X-11.200 Y0.000
G1 X-11.600 Y0.000
G1 X-11.600 Y8.600
G1 X-1.800 Y8.600
G1 X-1.800 Y-8.600
G1 X-11.600 Y-8.600
G1 X-11.600 Y0.000
G1 X-12.000 Y0.000
G1 X-12.000 Y9.000
G1 X-1.400 Y9.000
G1 X-1.400 Y-9.000
G1 X-12.000 Y-9.000
G1 X-12.000 Y0.000
G1 X-12.400 Y0.000
G1 X-12.400 Y9.400
G1 X-1.000 Y9.400
G1 X-1.000 Y-9.400
G1 X-12.400 Y-9.400
G1 X-12.400 Y0.000
G1 X-12.800 Y0.000
G1 X-12.800 Y9.800
G1 X-0.600 Y9.800
G1 X-0.600 Y-9.800
G1 X-12.800 Y-9.800
G1 X-12.800 Y0.000 Z0.700
M9
G1 Z10.000
G1 X12.800 Y0.000
G1 Z0.300
M7
G4 P150
G1 X12.800 Y0.000 Z0.300
G1 X12.800 Y9.800
G1 X0.600 Y9.800
G1 X0.600 Y-9.800
G1 X12.800 Y-9.800
G1 X12.800 Y0.000
G1 X12.400 Y0.000
G1 X12.400 Y9.400
G1 X1.000 Y9.400
G1 X1.000 Y-9.400
G1 X12.400 Y-9.400
G1 X12.400 Y0.000
G1 X12.000 Y0.000
G1 X12.000 Y9.000
G1 X1.400 Y9.000
G1 X1.400 Y-9.000
G1 X12.000 Y-9.000
G1 X12.000 Y0.000
G1 X11.600 Y0.000
G1 X11.600 Y8.600
G1 X1.800 Y8.600
G1 X1.800 Y-8.600
G1 X11.600 Y-8.600
G1 X11.600 Y0.000
G1 X11.200 Y0.000
G1 X11.200 Y8.200
G1 X2.200 Y8.200
G1 X2.200 Y-8.200
G1 X11.200 Y-8.200
G1 X11.200 Y0.000
G1 X10.800 Y0.000
G1 X10.800 Y7.800
G1 X2.600 Y7.800
G1 X2.600 Y-7.800
G1 X10.800 Y-7.800
G1 X10.800 Y0.000
G1 X10.400 Y0.000
G1 X10.400 Y7.400
G1 X3.000 Y7.400
G1 X3.000 Y-7.400
G1 X10.400 Y-7.400
G1 X10.400 Y0.000
G1 X10.000 Y0.000
G1 X10.000 Y7.000
G1 X3.400 Y7.000
G1 X3.400 Y-7.000
G1 X10.000 Y-7.000
G1 X10.000 Y0.000
G1 X9.600 Y0.000
G1 X9.600 Y6.600
G1 X3.800 Y6.600
G1 X3.800 Y-6.600
G1 X9.600 Y-6.600
G1 X9.600 Y0.000
G1 X9.200 Y0.000
G1 X9.200 Y6.200
G1 X4.200 Y6.200
G1 X4.200 Y-6.200
G1 X9.200 Y-6.200
G1 X9.200 Y0.000
G1 X8.800 Y0.000
G1 X8.800 Y5.800
G1 X4.600 Y5.800
G1 X4.600 Y-5.800
G1 X8.800 Y-5.800
G1 X8.800 Y0.000
G1 X8.400 Y0.000
G1 X8.400 Y5.400
G1 X5.000 Y5.400
G1 X5.000 Y-5.400
G1 X8.400 Y-5.400
G1 X8.400 Y0.000
G1 X8.000 Y0.000
G1 X8.000 Y5.000
G1 X5.400 Y5.000
G1 X5.400 Y-5.000
G1 X8.000 Y-5.000
G1 X8.000 Y0.000
G1 X7.600 Y0.000
G1 X7.600 Y4.600
G1 X5.800 Y4.600
G1 X5.800 Y-4.600
G1 X7.600 Y-4.600
G1 X7.600 Y0.000
G1 X7.200 Y0.000
G1 X7.200 Y4.200
G1 X6.200 Y4.200
G1 X6.200 Y-4.200
G1 X7.200 Y-4.200
G1 X7.200 Y0.000
G1 X6.800 Y0.000
G1 X6.800 Y0.000 Z0.700
G1 X6.800 Y0.000
G1 X7.200 Y0.000
G1 X7.200 Y-4.200
G1 X6.200 Y-4.200
G1 X6.200 Y4.200
G1 X7.200 Y4.200
G1 X7.200 Y0.000
G1 X7.600 Y0.000
G1 X7.600 Y-4.600
G1 X5.800 Y-4.600
G1 X5.800 Y4.600
G1 X7.600 Y4.600
G1 X7.600 Y0.000
G1 X8.000 Y0.000
G1 X8.000 Y-5.000
G1 X5.400 Y-5.000
G1 X5.400 Y5.000
G1 X8.000 Y5.000
G1 X8.000 Y0.000
G1 X8.400 Y0.000
G1 X8.400 Y-5.400
G1 X5.000 Y-5.400
G1 X5.000 Y5.400
G1 X8.400 Y5.400
G1 X8.400 Y0.000
G1 X8.800 Y0.000
G1 X8.800 Y-5.800
G1 X4.600 Y-5.800
G1 X4.600 Y5.800
G1 X8.800 Y5.800
G1 X8.800 Y0.000
G1 X9.200 Y0.000
G1 X9.200 Y-6.200
G1 X4.200 Y-6.200
G1 X4.200 Y6.200
G1 X9.200 Y6.200
G1 X9.200 Y0.000
G1 X9.600 Y0.000
G1 X9.600 Y-6.600
G1 X3.800 Y-6.600
G1 X3.800 Y6.600
G1 X9.600 Y6.600
G1 X9.600 Y0.000
G1 X10.000 Y0.000
G1 X10.000 Y-7.000
G1 X3.400 Y-7.000
G1 X3.400 Y7.000
G1 X10.000 Y7.000
G1 X10.000 Y0.000
G1 X10.400 Y0.000
G1 X10.400 Y-7.400
G1 X3.000 Y-7.400
G1 X3.000 Y7.400
G1 X10.400 Y7.400
G1 X10.400 Y0.000
G1 X10.800 Y0.000
G1 X10.800 Y-7.800
G1 X2.600 Y-7.800
G1 X2.600 Y7.800
G1 X10.800 Y7.800
G1 X10.800 Y0.000
G1 X11.200 Y0.000
G1 X11.200 Y-8.200
G1 X2.200 Y-8.200
G1 X2.200 Y8.200
G1 X11.200 Y8.200
G1 X11.200 Y0.000
G1 X11.600 Y0.000
G1 X11.600 Y-8.600
G1 X1.800 Y-8.600
G1 X1.800 Y8.600
G1 X11.600 Y8.600
G1 X11.600 Y0.000
G1 X12.000 Y0.000
G1 X12.000 Y-9.000
G1 X1.400 Y-9.000
G1 X1.400 Y9.000
G1 X12.000 Y9.000
G1 X12.000 Y0.000
G1 X12.400 Y0.000
G1 X12.400 Y-9.400
G1 X1.000 Y-9.400
G1 X1.000 Y9.400
G1 X12.400 Y9.400
G1 X12.400 Y0.000
G1 X12.800 Y0.000
G1 X12.800 Y-9.800
G1 X0.600 Y-9.800
G1 X0.600 Y9.800
G1 X12.800 Y9.800
G1 X12.800 Y0.000 Z0.700
M9
G1 Z10.000
G1 X-12.800 Y-9.800
G1 Z1.100
M7
G4 P150
G1 X12.800 Y-9.800
G1 X12.800 Y-9.400
G4 P5
G1 X-12.800 Y-9.400
G4 P5
G1 X-12.800 Y-9.000
G4 P5
G1 X12.800 Y-9.000
G4 P5
G1 X12.800 Y-8.600
G4 P5
G1 X-12.800 Y-8.600
G4 P5
G1 X-12.800 Y-8.200
G4 P5
G1 X12.800 Y-8.200
G4 P5
G1 X12.800 Y-7.800
G4 P5
G1 X-12.800 Y-7.800
G4 P5
G1 X-12.800 Y-7.400
G4 P5
G1 X12.800 Y-7.400
G4 P5
G1 X12.800 Y-7.000
G4 P5
G1 X-12.800 Y-7.000
G4 P5
G1 X-12.800 Y-6.600
G4 P5
G1 X12.800 Y-6.600
G4 P5
G1 X12.800 Y-6.200
G4 P5
G1 X-12.800 Y-6.200
G4 P5
G1 X-12.800 Y-5.800
G4 P5
G1 X12.800 Y-5.800
G4 P5
G1 X12.800 Y-5.400
G4 P5
G1 X-12.800 Y-5.400
G4 P5
G1 X-12.800 Y-5.000
G4 P5
G1 X12.800 Y-5.000
G4 P5
G1 X12.800 Y-4.600
G4 P5
G1 X-12.800 Y-4.600
G4 P5
G1 X-12.800 Y-4.200
G4 P5
G1 X12.800 Y-4.200
G4 P5
G1 X12.800 Y-3.800
G4 P5
G1 X-12.800 Y-3.800
G4 P5
G1 X-12.800 Y-3.400
G4 P5
G1 X12.800 Y-3.400
G4 P5
G1 X12.800 Y-3.000
G4 P5
G1 X-12.800 Y-3.000
G4 P5
G1 X-12.800 Y-2.600
G4 P5
G1 X12.800 Y-2.600
G4 P5
G1 X12.800 Y-2.200
G4 P5
G1 X-12.800 Y-2.200
G4 P5
G1 X-12.800 Y-1.800
G4 P5
G1 X12.800 Y-1.800
G4 P5
G1 X12.800 Y-1.400
G4 P5
G1 X-12.800 Y-1.400
G4 P5
G1 X-12.800 Y-1.000
G4 P5
G1 X12.800 Y-1.000
G4 P5
G1 X12.800 Y-0.600
G4 P5
G1 X-12.800 Y-0.600
G4 P5
G1 X-12.800 Y-0.200
G4 P5
G1 X12.800 Y-0.200
G4 P5
G1 X12.800 Y0.200
G4 P5
G1 X-12.800 Y0.200
G4 P5
G1 X-12.800 Y0.600
G4 P5
G1 X12.800 Y0.600
G4 P5
G1 X12.800 Y1.000
G4 P5
G1 X-12.800 Y1.000
G4 P5
G1 X-12.800 Y1.400
G4 P5
G1 X12.800 Y1.400
G4 P5
G1 X12.800 Y1.800
G4 P5
G1 X-12.800 Y1.800
G4 P5
G1 X-12.800 Y2.200
G4 P5
G1 X12.800 Y2.200
G4 P5
G1 X12.800 Y2.600
G4 P5
G1 X-12.800 Y2.600
G4 P5
G1 X-12.800 Y3.000
G4 P5
G1 X12.800 Y3.000
G4 P5
G1 X12.800 Y3.400
G4 P5
G1 X-12.800 Y3.400
G4 P5
G1 X-12.800 Y3.800
G4 P5
G1 X12.800 Y3.800
G4 P5
G1 X12.800 Y4.200
G4 P5
G1 X-12.800 Y4.200
G4 P5
G1 X-12.800 Y4.600
G4 P5
G1 X12.800 Y4.600
G4 P5
G1 X12.800 Y5.000
G4 P5
G1 X-12.800 Y5.000
G4 P5
G1 X-12.800 Y5.400
G4 P5
G1 X12.800 Y5.400
G4 P5
G1 X12.800 Y5.800
G4 P5
G1 X-12.800 Y5.800
G4 P5
G1 X-12.800 Y6.200
G4 P5
G1 X12.800 Y6.200
G4 P5
G1 X12.800 Y6.600
G4 P5
G1 X-12.800 Y6.600
G4 P5
G1 X-12.800 Y7.000
G4 P5
G1 X12.800 Y7.000
G4 P5
G1 X12.800 Y7.400
G4 P5
G1 X-12.800 Y7.400
G4 P5
G1 X-12.800 Y7.800
G4 P5
G1 X12.800 Y7.800
G4 P5
G1 X12.800 Y8.200
G4 P5
G1 X-12.800 Y8.200
G4 P5
G1 X-12.800 Y8.600
G4 P5
G1 X12.800 Y8.600
G4 P5
G1 X12.800 Y9.000
G4 P5
G1 X-12.800 Y9.000
G4 P5
G1 X-12.800 Y9.400
G4 P5
G1 X12.800 Y9.400
G4 P5
G1 X12.800 Y9.800
G4 P5
G1 X-12.800 Y9.800
G4 P5
M9
G1 Z10.000
G1 X-12.800 Y0.000
G1 Z1.500
M7
G4 P150
G1 X-12.800 Y0.000 Z1.500
G1 X-12.800 Y-9.800
G1 X-0.935 Y-9.800
G1 X-0.935 Y9.800
G1 X-12.800 Y9.800
G1 X-12.800 Y0.000
G1 X-12.400 Y0.000
G1 X-12.400 Y-9.400
G1 X-1.335 Y-9.400
G1 X-1.335 Y9.400
G1 X-12.400 Y9.400
G1 X-12.400 Y0.000
G1 X-12.000 Y0.000
G1 X-12.000 Y-9.000
G1 X-1.735 Y-9.000
G1 X-1.735 Y9.000
G1 X-12.000 Y9.000
G1 X-12.000 Y0.000
G1 X-11.600 Y0.000
G1 X-11.600 Y-8.600
G1 X-2.135 Y-8.600
G1 X-2.135 Y8.600
G1 X-11.600 Y8.600
G1 X-11.600 Y0.000
G1 X-11.200 Y0.000
G1 X-11.200 Y-8.200
G1 X-2.535 Y-8.200
G1 X-2.535 Y8.200
G1 X-11.200 Y8.200
G1 X-11.200 Y0.000
G1 X-10.800 Y0.000
G1 X-10.800 Y-7.800
G1 X-2.935 Y-7.800
G1 X-2.935 Y7.800
G1 X-10.800 Y7.800
G1 X-10.800 Y0.000
G1 X-10.400 Y0.000
G1 X-10.400 Y-7.400
G1 X-3.335 Y-7.400
G1 X-3.335 Y7.400
G1 X-10.400 Y7.400
G1 X-10.400 Y0.000
G1 X-10.000 Y0.000
G1 X-10.000 Y-7.000
G1 X-3.735 Y-7.000
G1 X-3.735 Y7.000
G1 X-10.000 Y7.000
G1 X-10.000 Y0.000
G1 X-9.600 Y0.000
G1 X-9.600 Y-6.600
G1 X-4.135 Y-6.600
G1 X-4.135 Y6.600
G1 X-9.600 Y6.600
G1 X-9.600 Y0.000
G1 X-9.200 Y0.000
G1 X-9.200 Y-6.200
G1 X-4.535 Y-6.200
G1 X-4.535 Y6.200
G1 X-9.200 Y6.200
G1 X-9.200 Y0.000
G1 X-8.800 Y0.000
G1 X-8.800 Y-5.800
G1 X-4.935 Y-5.800
G1 X-4.935 Y5.800
G1 X-8.800 Y5.800
G1 X-8.800 Y0.000
G1 X-8.400 Y0.000
G1 X-8.400 Y-5.400
G1 X-5.335 Y-5.400
G1 X-5.335 Y5.400
G1 X-8.400 Y5.400
G1 X-8.400 Y0.000
G1 X-8.000 Y0.000
G1 X-8.000 Y-5.000
G1 X-5.735 Y-5.000
G1 X-5.735 Y5.000
G1 X-8.000 Y5.000
G1 X-8.000 Y0.000
G1 X-7.600 Y0.000
G1 X-7.600 Y-4.600
G1 X-6.135 Y-4.600
G1 X-6.135 Y4.600
G1 X-7.600 Y4.600
G1 X-7.600 Y0.000
G1 X-7.200 Y0.000
G1 X-7.200 Y-4.200
G1 X-6.535 Y-4.200
G1 X-6.535 Y4.200
G1 X-7.200 Y4.200
G1 X-7.200 Y0.000
G1 X-6.800 Y0.000
G1 X-6.800 Y0.000 Z1.900
G1 X-6.800 Y0.000
G1 X-7.200 Y0.000
G1 X-7.200 Y4.200
G1 X-6.765 Y4.200
G1 X-6.765 Y-4.200
G1 X-7.200 Y-4.200
G1 X-7.200 Y0.000
G1 X-7.600 Y0.000
G1 X-7.600 Y4.600
G1 X-6.365 Y4.600
G1 X-6.365 Y-4.600
G1 X-7.600 Y-4.600
G1 X-7.600 Y0.000
G1 X-8.000 Y0.000
G1 X-8.000 Y5.000
G1 X-5.965 Y5.000
G1 X-5.965 Y-5.000
G1 X-8.000 Y-5.000
G1 X-8.000 Y0.000
G1 X-8.400 Y0.000
G1 X-8.400 Y5.400
G1 X-5.565 Y5.400
G1 X-5.565 Y-5.400
G1 X-8.400 Y-5.400
G1 X-8.400 Y0.000
G1 X-8.800 Y0.000
G1 X-8.800 Y5.800
G1 X-5.165 Y5.800
G1 X-5.165 Y-5.800
G1 X-8.800 Y-5.800
G1 X-8.800 Y0.000
G1 X-9.200 Y0.000
G1 X-9.200 Y6.200
G1 X-4.765 Y6.200
G1 X-4.765 Y-6.200
G1 X-9.200 Y-6.200
G1 X-9.200 Y0.000
G1 X-9.600 Y0.000
G1 X-9.600 Y6.600
G1 X-4.365 Y6.600
G1 X-4.365 Y-6.600
G1 X-9.600 Y-6.600
G1 X-9.600 Y0.000
G1 X-10.000 Y0.000
G1 X-10.000 Y7.000
G1 X-3.965 Y7.000
G1 X-3.965 Y-7.000
G1 X-10.000 Y-7.000
G1 X-10.000 Y0.000
G1 X-10.400 Y0.000
G1 X-10.400 Y7.400
G1 X-3.565 Y7.400
G1 X-3.565 Y-7.400
G1 X-10.400 Y-7.400
G1 X-10.400 Y0.000
G1 X-10.800 Y0.000
G1 X-10.800 Y7.800
G1 X-3.165 Y7.800
G1 X-3.165 Y-7.800
G1 X-10.800 Y-7.800
G1 X-10.800 Y0.000
G1 X-11.200 Y0.000
G1 X-11.200 Y8.200
G1 X-2.765 Y8.200
G1 X-2.765 Y-8.200
G1 X-11.200 Y-8.200
G1 X-11.200 Y0.000
G1 X-11.600 Y0.000
G1 X-11.600 Y8.600
G1 X-2.365 Y8.600
G1 X-2.365 Y-8.600
G1 X-11.600 Y-8.600
G1 X-11.600 Y0.000
G1 X-12.000 Y0.000
G1 X-12.000 Y9.000
G1 X-1.965 Y9.000
G1 X-1.965 Y-9.000
G1 X-12.000 Y-9.000
G1 X-12.000 Y0.000
G1 X-12.400 Y0.000
G1 X-12.400 Y9.400
G1 X-1.565 Y9.400
G1 X-1.565 Y-9.400
G1 X-12.400 Y-9.400
G1 X-12.400 Y0.000
G1 X-12.800 Y0.000
G1 X-12.800 Y9.800
G1 X-1.165 Y9.800
G1 X-1.165 Y-9.800
G1 X-12.800 Y-9.800
G1 X-12.800 Y0.000 Z1.900
G1 X-12.800 Y0.000 Z2.300
G1 X-12.800 Y-9.800
G1 X-1.309 Y-9.800
G1 X-1.309 Y9.800
G1 X-12.800 Y9.800
G1 X-12.800 Y0.000
G1 X-12.400 Y0.000
G1 X-12.400 Y-9.400
G1 X-1.709 Y-9.400
G1 X-1.709 Y9.400
G1 X-12.400 Y9.400
G1 X-12.400 Y0.000
G1 X-12.000 Y0.000
G1 X-12.000 Y-9.000
G1 X-2.109 Y-9.000
G1 X-2.109 Y9.000
G1 X-12.000 Y9.000
G1 X-12.000 Y0.000
G1 X-11.600 Y0.000
G1 X-11.600 Y-8.600
G1 X-2.509 Y-8.600
G1 X-2.509 Y8.600
G1 X-11.600 Y8.600
G1 X-11.600 Y0.000
G1 X-11.200 Y0.000
G1 X-11.200 Y-8.200
G1 X-2.909 Y-8.200
G1 X-2.909 Y8.200
G1 X-11.200 Y8.200
G1 X-11.200 Y0.000
G1 X-10.800 Y0.000
G1 X-10.800 Y-7.800
G1 X-3.309 Y-7.800
G1 X-3.309 Y7.800
G1 X-10.800 Y7.800
G1 X-10.800 Y0.000
G1 X-10.400 Y0.000
G1 X-10.400 Y-7.400
G1 X-3.709 Y-7.400
G1 X-3.709 Y7.400
G1 X-10.400 Y7.400
G1 X-10.400 Y0.000
G1 X-10.000 Y0.000
G1 X-10.000 Y-7.000
G1 X-4.109 Y-7.000
G1 X-4.109 Y7.000
G1 X-10.000 Y7.000
G1 X-10.000 Y0.000
G1 X-9.600 Y0.000
G1 X-9.600 Y-6.600
G1 X-4.509 Y-6.600
G1 X-4.509 Y6.600
G1 X-9.600 Y6.600
G1 X-9.600 Y0.000
G1 X-9.200 Y0.000
G1 X-9.200 Y-6.200
G1 X-4.909 Y-6.200
G1 X-4.909 Y6.200
G1 X-9.200 Y6.200
G1 X-9.200 Y0.000
G1 X-8.800 Y0.000
G1 X-8.800 Y-5.800
G1 X-5.309 Y-5.800
G1 X-5.309 Y5.800
G1 X-8.800 Y5.800
G1 X-8.800 Y0.000
G1 X-8.400 Y0.000
G1 X-8.400 Y-5.400
G1 X-5.709 Y-5.400
G1 X-5.709 Y5.400
G1 X-8.400 Y5.400
G1 X-8.400 Y0.000
G1 X-8.000 Y0.000
G1 X-8.000 Y-5.000
G1 X-6.109 Y-5.000
G1 X-6.109 Y5.000
G1 X-8.000 Y5.000
G1 X-8.000 Y0.000
G1 X-7.600 Y0.000
G1 X-7.600 Y-4.600
G1 X-6.509 Y-4.600
G1 X-6.509 Y4.600
G1 X-7.600 Y4.600
G1 X-7.600 Y0.000
G1 X-7.200 Y0.000
G1 X-7.200 Y0.000 Z2.700
G1 X-7.200 Y0.000
G1 X-7.600 Y0.000
G1 X-7.600 Y4.600
G1 X-6.614 Y4.600
G1 X-6.614 Y-4.600
G1 X-7.600 Y-4.600
G1 X-7.600 Y0.000
G1 X-8.000 Y0.000
G1 X-8.000 Y5.000
G1 X-6.214 Y5.000
G1 X-6.214 Y-5.000
G1 X-8.000 Y-5.000
G1 X-8.000 Y0.000
G1 X-8.400 Y0.000
G1 X-8.400 Y5.400
G1 X-5.814 Y5.400
G1 X-5.814 Y-5.400
G1 X-8.400 Y-5.400
G1 X-8.400 Y0.000
G1 X-8.800 Y0.000
G1 X-8.800 Y5.800
G1 X-5.414 Y5.800
G1 X-5.414 Y-5.800
G1 X-8.800 Y-5.800
G1 X-8.800 Y0.000
G1 X-9.200 Y0.000
G1 X-9.200 Y6.200
G1 X-5.014 Y6.200
G1 X-5.014 Y-6.200
G1 X-9.200 Y-6.200
G1 X-9.200 Y0.000
G1 X-9.600 Y0.000
G1 X-9.600 Y6.600
G1 X-4.614 Y6.600
G1 X-4.614 Y-6.600
G1 X-9.600 Y-6.600
G1 X-9.600 Y0.000
G1 X-10.000 Y0.000
G1 X-10.000 Y7.000
G1 X-4.214 Y7.000
G1 X-4.214 Y-7.000
G1 X-10.000 Y-7.000
G1 X-10.000 Y0.000
G1 X-10.400 Y0.000
G1 X-10.400 Y7.400
G1 X-3.814 Y7.400
G1 X-3.814 Y-7.400
G1 X-10.400 Y-7.400
G1 X-10.400 Y0.000
G1 X-10.800 Y0.000
G1 X-10.800 Y7.800
G1 X-3.414 Y7.800
G1 X-3.414 Y-7.800
G1 X-10.800 Y-7.800
G1 X-10.800 Y0.000
G1 X-11.200 Y0.000
G1 X-11.200 Y8.200
G1 X-3.014 Y8.200
G1 X-3.014 Y-8.200
G1 X-11.200 Y-8.200
G1 X-11.200 Y0.000
G1 X-11.600 Y0.000
G1 X-11.600 Y8.600
G1 X-2.614 Y8.600
G1 X-2.614 Y-8.600
G1 X-11.600 Y-8.600
G1 X-11.600 Y0.000
G1 X-12.000 Y0.000
G1 X-12.000 Y9.000
G1 X-2.214 Y9.000
G1 X-2.214 Y-9.000
G1 X-12.000 Y-9.000
G1 X-12.000 Y0.000
G1 X-12.400 Y0.000
G1 X-12.400 Y9.400
G1 X-1.814 Y9.400
G1 X-1.814 Y-9.400
G1 X-12.400 Y-9.400
G1 X-12.400 Y0.000
G1 X-12.800 Y0.000
G1 X-12.800 Y9.800
G1 X-1.414 Y9.800
G1 X-1.414 Y-9.800
G1 X-12.800 Y-9.800
G1 X-12.800 Y0.000 Z2.700
G1 X-12.800 Y0.000 Z3.100
G1 X-12.800 Y-9.800
G1 X-1.495 Y-9.800
G1 X-1.495 Y9.800
G1 X-12.800 Y9.800
G1 X-12.800 Y0.000
G1 X-12.400 Y0.000
G1 X-12.400 Y-9.400
G1 X-1.895 Y-9.400
G1 X-1.895 Y9.400
G1 X-12.400 Y9.400
G1 X-12.400 Y0.000
G1 X-12.000 Y0.000
G1 X-12.000 Y-9.000
G1 X-2.295 Y-9.000
G1 X-2.295 Y9.000
G1 X-12.000 Y9.000
G1 X-12.000 Y0.000
G1 X-11.600 Y0.000
G1 X-11.600 Y-8.600
G1 X-2.695 Y-8.600
G1 X-2.695 Y8.600
G1 X-11.600 Y8.600
G1 X-11.600 Y0.000
G1 X-11.200 Y0.000
G1 X-11.200 Y-8.200
G1 X-3.095 Y-8.200
G1 X-3.095 Y8.200
G1 X-11.200 Y8.200
G1 X-11.200 Y0.000
G1 X-10.800 Y0.000
G1 X-10.800 Y-7.800
G1 X-3.495 Y-7.800
G1 X-3.495 Y7.800
G1 X-10.800 Y7.800
G1 X-10.800 Y0.000
G1 X-10.400 Y0.000
G1 X-10.400 Y-7.400
G1 X-3.895 Y-7.400
G1 X-3.895 Y7.400
G1 X-10.400 Y7.400
G1 X-10.400 Y0.000
G1 X-10.000 Y0.000
G1 X-10.000 Y-7.000
G1 X-4.295 Y-7.000
G1 X-4.295 Y7.000
G1 X-10.000 Y7.000
G1 X-10.000 Y0.000
G1 X-9.600 Y0.000
G1 X-9.600 Y-6.600
G1 X-4.695 Y-6.600
G1 X-4.695 Y6.600
G1 X-9.600 Y6.600
G1 X-9.600 Y0.000
G1 X-9.200 Y0.000
G1 X-9.200 Y-6.200
G1 X-5.095 Y-6.200
G1 X-5.095 Y6.200
G1 X-9.200 Y6.200
G1 X-9.200 Y0.000
G1 X-8.800 Y0.000
G1 X-8.800 Y-5.800
G1 X-5.495 Y-5.800
G1 X-5.495 Y5.800
G1 X-8.800 Y5.800
G1 X-8.800 Y0.000
G1 X-8.400 Y0.000
G1 X-8.400 Y-5.400
G1 X-5.895 Y-5.400
G1 X-5.895 Y5.400
G1 X-8.400 Y5.400
G1 X-8.400 Y0.000
G1 X-8.000 Y0.000
G1 X-8.000 Y-5.000
G1 X-6.295 Y-5.000
G1 X-6.295 Y5.000
G1 X-8.000 Y5.000
G1 X-8.000 Y0.000
G1 X-7.600 Y0.000
G1 X-7.600 Y-4.600
G1 X-6.695 Y-4.600
G1 X-6.695 Y4.600
G1 X-7.600 Y4.600
G1 X-7.600 Y0.000
G1 X-7.200 Y0.000
G1 X-7.200 Y0.000 Z3.500
G1 X-7.200 Y0.000
G1 X-7.600 Y0.000
G1 X-7.600 Y4.600
G1 X-6.757 Y4.600
G1 X-6.757 Y-4.600
G1 X-7.600 Y-4.600
G1 X-7.600 Y0.000
G1 X-8.000 Y0.000
G1 X-8.000 Y5.000
G1 X-6.357 Y5.000
G1 X-6.357 Y-5.000
G1 X-8.000 Y-5.000
G1 X-8.000 Y0.000
G1 X-8.400 Y0.000
G1 X-8.400 Y5.400
G1 X-5.957 Y5.400
G1 X-5.957 Y-5.400
G1 X-8.400 Y-5.400
G1 X-8.400 Y0.000
G1 X-8.800 Y0.000
G1 X-8.800 Y5.800
G1 X-5.557 Y5.800
G1 X-5.557 Y-5.800
G1 X-8.800 Y-5.800
G1 X-8.800 Y0.000
G1 X-9.200 Y0.000
G1 X-9.200 Y6.200
G1 X-5.157 Y6.200
G1 X-5.157 Y-6.200
G1 X-9.200 Y-6.200
G1 X-9.200 Y0.000
G1 X-9.600 Y0.000
G1 X-9.600 Y6.600
G1 X-4.757 Y6.600
G1 X-4.757 Y-6.600
G1 X-9.600 Y-6.600
G1 X-9.600 Y0.000
G1 X-10.000 Y0.000
G1 X-10.000 Y7.000
G1 X-4.357 Y7.000
G1 X-4.357 Y-7.000
G1 X-10.000 Y-7.000
G1 X-10.000 Y0.000
G1 X-10.400 Y0.000
G1 X-10.400 Y7.400
G1 X-3.957 Y7.400
G1 X-3.957 Y-7.400
G1 X-10.400 Y-7.400
G1 X-10.400 Y0.000
G1 X-10.800 Y0.000
G1 X-10.800 Y7.800
G1 X-3.557 Y7.800
G1 X-3.557 Y-7.800
G1 X-10.800 Y-7.800
G1 X-10.800 Y0.000
G1 X-11.200 Y0.000
G1 X-11.200 Y8.200
G1 X-3.157 Y8.200
G1 X-3.157 Y-8.200
G1 X-11.200 Y-8.200
G1 X-11.200 Y0.000
G1 X-11.600 Y0.000
G1 X-11.600 Y8.600
G1 X-2.757 Y8.600
G1 X-2.757 Y-8.600
G1 X-11.600 Y-8.600
G1 X-11.600 Y0.000
G1 X-12.000 Y0.000
G1 X-12.000 Y9.000
G1 X-2.357 Y9.000
G1 X-2.357 Y-9.000
G1 X-12.000 Y-9.000
G1 X-12.000 Y0.000
G1 X-12.400 Y0.000
G1 X-12.400 Y9.400
G1 X-1.957 Y9.400
G1 X-1.957 Y-9.400
G1 X-12.400 Y-9.400
G1 X-12.400 Y0.000
G1 X-12.800 Y0.000
G1 X-12.800 Y9.800
G1 X-1.557 Y9.800
G1 X-1.557 Y-9.800
G1 X-12.800 Y-9.800
G1 X-12.800 Y0.000 Z3.500
G1 X-12.800 Y0.000 Z3.900
G1 X-12.800 Y-9.800
G1 X-1.604 Y-9.800
G1 X-1.604 Y9.800
G1 X-12.800 Y9.800
G1 X-12.800 Y0.000
G1 X-12.400 Y0.000
G1 X-12.400 Y-9.400
G1 X-2.004 Y-9.400
G1 X-2.004 Y9.400
G1 X-12.400 Y9.400
G1 X-12.400 Y0.000
G1 X-12.000 Y0.000
G1 X-12.000 Y-9.000
G1 X-2.404 Y-9.000
G1 X-2.404 Y9.000
G1 X-12.000 Y9.000
G1 X-12.000 Y0.000
G1 X-11.600 Y0.000
G1 X-11.600 Y-8.600
G1 X-2.804 Y-8.600
G1 X-2.804 Y8.600
G1 X-11.600 Y8.600
G1 X-11.600 Y0.000
G1 X-11.200 Y0.000
G1 X-11.200 Y-8.200
G1 X-3.204 Y-8.200
G1 X-3.204 Y8.200
G1 X-11.200 Y8.200
G1 X-11.200 Y0.000
G1 X-10.800 Y0.000
G1 X-10.800 Y-7.800
G1 X-3.604 Y-7.800
G1 X-3.604 Y7.800
G1 X-10.800 Y7.800
G1 X-10.800 Y0.000
G1 X-10.400 Y0.000
G1 X-10.400 Y-7.400
G1 X-4.004 Y-7.400
G1 X-4.004 Y7.400
G1 X-10.400 Y7.400
G1 X-10.400 Y0.000
G1 X-10.000 Y0.000
G1 X-10.000 Y-7.000
G1 X-4.404 Y-7.000
G1 X-4.404 Y7.000
G1 X-10.000 Y7.000
G1 X-10.000 Y0.000
G1 X-9.600 Y0.000
G1 X-9.600 Y-6.600
G1 X-4.804 Y-6.600
G1 X-4.804 Y6.600
G1 X-9.600 Y6.600
G1 X-9.600 Y0.000
G1 X-9.200 Y0.000
G1 X-9.200 Y-6.200
G1 X-5.204 Y-6.200
G1 X-5.204 Y6.200
G1 X-9.200 Y6.200
G1 X-9.200 Y0.000
G1 X-8.800 Y0.000
G1 X-8.800 Y-5.800
G1 X-5.604 Y-5.800
G1 X-5.604 Y5.800
G1 X-8.800 Y5.800
G1 X-8.800 Y0.000
G1 X-8.400 Y0.000
G1 X-8.400 Y-5.400
G1 X-6.004 Y-5.400
G1 X-6.004 Y5.400
G1 X-8.400 Y5.400
G1 X-8.400 Y0.000
G1 X-8.000 Y0.000
G1 X-8.000 Y-5.000
G1 X-6.404 Y-5.000
G1 X-6.404 Y5.000
G1 X-8.000 Y5.000
G1 X-8.000 Y0.000
G1 X-7.600 Y0.000
G1 X-7.600 Y-4.600
G1 X-6.804 Y-4.600
G1 X-6.804 Y4.600
G1 X-7.600 Y4.600
G1 X-7.600 Y0.000
G1 X-7.200 Y0.000
G1 X-7.200 Y0.000 Z4.300
G1 X-7.200 Y0.000
G1 X-7.600 Y0.000
G1 X-7.600 Y4.600
G1 X-6.838 Y4.600
G1 X-6.838 Y-4.600
G1 X-7.600 Y-4.600
G1 X-7.600 Y0.000
G1 X-8.000 Y0.000
G1 X-8.000 Y5.000
G1 X-6.438 Y5.000
G1 X-6.438 Y-5.000
G1 X-8.000 Y-5.000
G1 X-8.000 Y0.000
G1 X-8.400 Y0.000
G1 X-8.400 Y5.400
G1 X-6.038 Y5.400
G1 X-6.038 Y-5.400
G1 X-8.400 Y-5.400
G1 X-8.400 Y0.000
G1 X-8.800 Y0.000
G1 X-8.800 Y5.800
G1 X-5.638 Y5.800
G1 X-5.638 Y-5.800
G1 X-8.800 Y-5.800
G1 X-8.800 Y0.000
G1 X-9.200 Y0.000
G1 X-9.200 Y6.200
G1 X-5.238 Y6.200
G1 X-5.238 Y-6.200
G1 X-9.200 Y-6.200
G1 X-9.200 Y0.000
G1 X-9.600 Y0.000
G1 X-9.600 Y6.600
G1 X-4.838 Y6.600
G1 X-4.838 Y-6.600
G1 X-9.600 Y-6.600
G1 X-9.600 Y0.000
G1 X-10.000 Y0.000
G1 X-10.000 Y7.000
G1 X-4.438 Y7.000
G1 X-4.438 Y-7.000
G1 X-10.000 Y-7.000
G1 X-10.000 Y0.000
G1 X-10.400 Y0.000
G1 X-10.400 Y7.400
G1 X-4.038 Y7.400
G1 X-4.038 Y-7.400
G1 X-10.400 Y-7.400
G1 X-10.400 Y0.000
G1 X-10.800 Y0.000
G1 X-10.800 Y7.800
G1 X-3.638 Y7.800
G1 X-3.638 Y-7.800
G1 X-10.800 Y-7.800
G1 X-10.800 Y0.000
G1 X-11.200 Y0.000
G1 X-11.200 Y8.200
G1 X-3.238 Y8.200
G1 X-3.238 Y-8.200
G1 X-11.200 Y-8.200
G1 X-11.200 Y0.000
G1 X-11.600 Y0.000
G1 X-11.600 Y8.600
G1 X-2.838 Y8.600
G1 X-2.838 Y-8.600
G1 X-11.600 Y-8.600
G1 X-11.600 Y0.000
G1 X-12.000 Y0.000
G1 X-12.000 Y9.000
G1 X-2.438 Y9.000
G1 X-2.438 Y-9.000
G1 X-12.000 Y-9.000
G1 X-12.000 Y0.000
G1 X-12.400 Y0.000
G1 X-12.400 Y9.400
G1 X-2.038 Y9.400
G1 X-2.038 Y-9.400
G1 X-12.400 Y-9.400
G1 X-12.400 Y0.000
G1 X-12.800 Y0.000
G1 X-12.800 Y9.800
G1 X-1.638 Y9.800
G1 X-1.638 Y-9.800
G1 X-12.800 Y-9.800
G1 X-12.800 Y0.000 Z4.300
G1 X-12.800 Y0.000 Z4.700
G1 X-12.800 Y-9.800
G1 X-1.660 Y-9.800
G1 X-1.660 Y9.800
G1 X-12.800 Y9.800
G1 X-12.800 Y0.000
G1 X-12.400 Y0.000
G1 X-12.400 Y-9.400
G1 X-2.060 Y-9.400
G1 X-2.060 Y9.400
G1 X-12.400 Y9.400
G1 X-12.400 Y0.000
G1 X-12.000 Y0.000
G1 X-12.000 Y-9.000
G1 X-2.460 Y-9.000
G1 X-2.460 Y9.000
G1 X-12.000 Y9.000
G1 X-12.000 Y0.000
G1 X-11.600 Y0.000
G1 X-11.600 Y-8.600
G1 X-2.860 Y-8.600
G1 X-2.860 Y8.600
G1 X-11.600 Y8.600
G1 X-11.600 Y0.000
G1 X-11.200 Y0.000
G1 X-11.200 Y-8.200
G1 X-3.260 Y-8.200
G1 X-3.260 Y8.200
G1 X-11.200 Y8.200
G1 X-11.200 Y0.000
G1 X-10.800 Y0.000
G1 X-10.800 Y-7.800
G1 X-3.660 Y-7.800
G1 X-3.660 Y7.800
G1 X-10.800 Y7.800
G1 X-10.800 Y0.000
G1 X-10.400 Y0.000
G1 X-10.400 Y-7.400
G1 X-4.060 Y-7.400
G1 X-4.060 Y7.400
G1 X-10.400 Y7.400
G1 X-10.400 Y0.000
G1 X-10.000 Y0.000
G1 X-10.000 Y-7.000
G1 X-4.460 Y-7.000
G1 X-4.460 Y7.000
G1 X-10.000 Y7.000
G1 X-10.000 Y0.000
G1 X-9.600 Y0.000
G1 X-9.600 Y-6.600
G1 X-4.860 Y-6.600
G1 X-4.860 Y6.600
G1 X-9.600 Y6.600
G1 X-9.600 Y0.000
G1 X-9.200 Y0.000
G1 X-9.200 Y-6.200
G1 X-5.260 Y-6.200
G1 X-5.260 Y6.200
G1 X-9.200 Y6.200
G1 X-9.200 Y0.000
G1 X-8.800 Y0.000
G1 X-8.800 Y-5.800
G1 X-5.660 Y-5.800
G1 X-5.660 Y5.800
G1 X-8.800 Y5.800
G1 X-8.800 Y0.000
G1 X-8.400 Y0.000
G1 X-8.400 Y-5.400
G1 X-6.060 Y-5.400
G1 X-6.060 Y5.400
G1 X-8.400 Y5.400
G1 X-8.400 Y0.000
G1 X-8.000 Y0.000
G1 X-8.000 Y-5.000
G1 X-6.460 Y-5.000
G1 X-6.460 Y5.000
G1 X-8.000 Y5.000
G1 X-8.000 Y0.000
G1 X-7.600 Y0.000
G1 X-7.600 Y-4.600
G1 X-6.860 Y-4.600
G1 X-6.860 Y4.600
G1 X-7.600 Y4.600
G1 X-7.600 Y0.000
G1 X-7.200 Y0.000
G1 X-7.200 Y0.000 Z5.100
G1 X-7.200 Y0.000
G1 X-7.600 Y0.000
G1 X-7.600 Y4.600
G1 X-6.870 Y4.600
G1 X-6.870 Y-4.600
G1 X-7.600 Y-4.600
G1 X-7.600 Y0.000
G1 X-8.000 Y0.000
G1 X-8.000 Y5.000
G1 X-6.470 Y5.000
G1 X-6.470 Y-5.000
G1 X-8.000 Y-5.000
G1 X-8.000 Y0.000
G1 X-8.400 Y0.000
G1 X-8.400 Y5.400
G1 X-6.070 Y5.400
G1 X-6.070 Y-5.400
G1 X-8.400 Y-5.400
G1 X-8.400 Y0.000
G1 X-8.800 Y0.000
G1 X-8.800 Y5.800
G1 X-5.670 Y5.800
G1 X-5.670 Y-5.800
G1 X-8.800 Y-5.800
G1 X-8.800 Y0.000
G1 X-9.200 Y0.000
G1 X-9.200 Y6.200
G1 X-5.270 Y6.200
G1 X-5.270 Y-6.200
G1 X-9.200 Y-6.200
G1 X-9.200 Y0.000
G1 X-9.600 Y0.000
G1 X-9.600 Y6.600
G1 X-4.870 Y6.600
G1 X-4.870 Y-6.600
G1 X-9.600 Y-6.600
G1 X-9.600 Y0.000
G1 X-10.000 Y0.000
G1 X-10.000 Y7.000
G1 X-4.470 Y7.000
G1 X-4.470 Y-7.000
G1 X-10.000 Y-7.000
G1 X-10.000 Y0.000
G1 X-10.400 Y0.000
G1 X-10.400 Y7.400
G1 X-4.070 Y7.400
G1 X-4.070 Y-7.400
G1 X-10.400 Y-7.400
G1 X-10.400 Y0.000
G1 X-10.800 Y0.000
G1 X-10.800 Y7.800
G1 X-3.670 Y7.800
G1 X-3.670 Y-7.800
G1 X-10.800 Y-7.800
G1 X-10.800 Y0.000
G1 X-11.200 Y0.000
G1 X-11.200 Y8.200
G1 X-3.270 Y8.200
G1 X-3.270 Y-8.200
G1 X-11.200 Y-8.200
G1 X-11.200 Y0.000
G1 X-11.600 Y0.000
G1 X-11.600 Y8.600
G1 X-2.870 Y8.600
G1 X-2.870 Y-8.600
G1 X-11.600 Y-8.600
G1 X-11.600 Y0.000
G1 X-12.000 Y0.000
G1 X-12.000 Y9.000
G1 X-2.470 Y9.000
G1 X-2.470 Y-9.000
G1 X-12.000 Y-9.000
G1 X-12.000 Y0.000
G1 X-12.400 Y0.000
G1 X-12.400 Y9.400
G1 X-2.070 Y9.400
G1 X-2.070 Y-9.400
G1 X-12.400 Y-9.400
G1 X-12.400 Y0.000
G1 X-12.800 Y0.000
G1 X-12.800 Y9.800
G1 X-1.670 Y9.800
G1 X-1.670 Y-9.800
G1 X-12.800 Y-9.800
G1 X-12.800 Y0.000 Z5.100
M9
G1 Z10.000
G1 X12.800 Y0.000
G1 Z1.500
M7
G4 P150
G1 X12.800 Y0.000 Z1.500
G1 X12.800 Y9.800
G1 X0.935 Y9.800
G1 X0.935 Y-9.800
G1 X12.800 Y-9.800
G1 X12.800 Y0.000
G1 X12.400 Y0.000
G1 X12.400 Y9.400
G1 X1.335 Y9.400
G1 X1.335 Y-9.400
G1 X12.400 Y-9.400
G1 X12.400 Y0.000
G1 X12.000 Y0.000
G1 X12.000 Y9.000
G1 X1.735 Y9.000
G1 X1.735 Y-9.000
G1 X12.000 Y-9.000
G1 X12.000 Y0.000
G1 X11.600 Y0.000
G1 X11.600 Y8.600
G1 X2.135 Y8.600
G1 X2.135 Y-8.600
G1 X11.600 Y-8.600
G1 X11.600 Y0.000
G1 X11.200 Y0.000
G1 X11.200 Y8.200
G1 X2.535 Y8.200
G1 X2.535 Y-8.200
G1 X11.200 Y-8.200
G1 X11.200 Y0.000
G1 X10.800 Y0.000
G1 X10.800 Y7.800
G1 X2.935 Y7.800
G1 X2.935 Y-7.800
G1 X10.800 Y-7.800
G1 X10.800 Y0.000
G1 X10.400 Y0.000
G1 X10.400 Y7.400
G1 X3.335 Y7.400
G1 X3.335 Y-7.400
G1 X10.400 Y-7.400
G1 X10.400 Y0.000
G1 X10.000 Y0.000
G1 X10.000 Y7.000
G1 X3.735 Y7.000
G1 X3.735 Y-7.000
G1 X10.000 Y-7.000
G1 X10.000 Y0.000
G1 X9.600 Y0.000
G1 X9.600 Y6.600
G1 X4.135 Y6.600
G1 X4.135 Y-6.600
G1 X9.600 Y-6.600
G1 X9.600 Y0.000
G1 X9.200 Y0.000
G1 X9.200 Y6.200
G1 X4.535 Y6.200
G1 X4.535 Y-6.200
G1 X9.200 Y-6.200
G1 X9.200 Y0.000
G1 X8.800 Y0.000
G1 X8.800 Y5.800
G1 X4.935 Y5.800
G1 X4.935 Y-5.800
G1 X8.800 Y-5.800
G1 X8.800 Y0.000
G1 X8.400 Y0.000
G1 X8.400 Y5.400
G1 X5.335 Y5.400
G1 X5.335 Y-5.400
G1 X8.400 Y-5.400
G1 X8.400 Y0.000
G1 X8.000 Y0.000
G1 X8.000 Y5.000
G1 X5.735 Y5.000
G1 X5.735 Y-5.000
G1 X8.000 Y-5.000
G1 X8.000 Y0.000
G1 X7.600 Y0.000
G1 X7.600 Y4.600
G1 X6.135 Y4.600
G1 X6.135 Y-4.600
G1 X7.600 Y-4.600
G1 X7.600 Y0.000
G1 X7.200 Y0.000
G1 X7.200 Y4.200
G1 X6.535 Y4.200
G1 X6.535 Y-4.200
G1 X7.200 Y-4.200
G1 X7.200 Y0.000
G1 X6.800 Y0.000
G1 X6.800 Y0.000 Z1.900
G1 X6.800 Y0.000
G1 X7.200 Y0.000
G1 X7.200 Y-4.200
G1 X6.765 Y-4.200
G1 X6.765 Y4.200
G1 X7.200 Y4.200
G1 X7.200 Y0.000
G1 X7.600 Y0.000
G1 X7.600 Y-4.600
G1 X6.365 Y-4.600
G1 X6.365 Y4.600
G1 X7.600 Y4.600
G1 X7.600 Y0.000
G1 X8.000 Y0.000
G1 X8.000 Y-5.000
G1 X5.965 Y-5.000
G1 X5.965 Y5.000
G1 X8.000 Y5.000
G1 X8.000 Y0.000
G1 X8.400 Y0.000
G1 X8.400 Y-5.400
G1 X5.565 Y-5.400
G1 X5.565 Y5.400
G1 X8.400 Y5.400
G1 X8.400 Y0.000
G1 X8.800 Y0.000
G1 X8.800 Y-5.800
G1 X5.165 Y-5.800
G1 X5.165 Y5.800
G1 X8.800 Y5.800
G1 X8.800 Y0.000
G1 X9.200 Y0.000
G1 X9.200 Y-6.200
G1 X4.765 Y-6.200
G1 X4.765 Y6.200
G1 X9.200 Y6.200
G1 X9.200 Y0.000
G1 X9.600 Y0.000
G1 X9.600 Y-6.600
G1 X4.365 Y-6.600
G1 X4.365 Y6.600
G1 X9.600 Y6.600
G1 X9.600 Y0.000
G1 X10.000 Y0.000
G1 X10.000 Y-7.000
G1 X3.965 Y-7.000
G1 X3.965 Y7.000
G1 X10.000 Y7.000
G1 X10.000 Y0.000
G1 X10.400 Y0.000
G1 X10.400 Y-7.400
G1 X3.565 Y-7.400
G1 X3.565 Y7.400
G1 X10.400 Y7.400
G1 X10.400 Y0.000
G1 X10.800 Y0.000
G1 X10.800 Y-7.800
G1 X3.165 Y-7.800
G1 X3.165 Y7.800
G1 X10.800 Y7.800
G1 X10.800 Y0.000
G1 X11.200 Y0.000
G1 X11.200 Y-8.200
G1 X2.765 Y-8.200
G1 X2.765 Y8.200
G1 X11.200 Y8.200
G1 X11.200 Y0.000
G1 X11.600 Y0.000
G1 X11.600 Y-8.600
G1 X2.365 Y-8.600
G1 X2.365 Y8.600
G1 X11.600 Y8.600
G1 X11.600 Y0.000
G1 X12.000 Y0.000
G1 X12.000 Y-9.000
G1 X1.965 Y-9.000
G1 X1.965 Y9.000
G1 X12.000 Y9.000
G1 X12.000 Y0.000
G1 X12.400 Y0.000
G1 X12.400 Y-9.400
G1 X1.565 Y-9.400
G1 X1.565 Y9.400
G1 X12.400 Y9.400
G1 X12.400 Y0.000
G1 X12.800 Y0.000
G1 X12.800 Y-9.800
G1 X1.165 Y-9.800
G1 X1.165 Y9.800
G1 X12.800 Y9.800
G1 X12.800 Y0.000 Z1.900
G1 X12.800 Y0.000 Z2.300
G1 X12.800 Y9.800
G1 X1.309 Y9.800
G1 X1.309 Y-9.800
G1 X12.800 Y-9.800
G1 X12.800 Y0.000
G1 X12.400 Y0.000
G1 X12.400 Y9.400
G1 X1.709 Y9.400
G1 X1.709 Y-9.400
G1 X12.400 Y-9.400
G1 X12.400 Y0.000
G1 X12.000 Y0.000
G1 X12.000 Y9.000
G1 X2.109 Y9.000
G1 X2.109 Y-9.000
G1 X12.000 Y-9.000
G1 X12.000 Y0.000
G1 X11.600 Y0.000
G1 X11.600 Y8.600
G1 X2.509 Y8.600
G1 X2.509 Y-8.600
G1 X11.600 Y-8.600
G1 X11.600 Y0.000
G1 X11.200 Y0.000
G1 X11.200 Y8.200
G1 X2.909 Y8.200
G1 X2.909 Y-8.200
G1 X11.200 Y-8.200
G1 X11.200 Y0.000
G1 X10.800 Y0.000
G1 X10.800 Y7.800
G1 X3.309 Y7.800
G1 X3.309 Y-7.800
G1 X10.800 Y-7.800
G1 X10.800 Y0.000
G1 X10.400 Y0.000
G1 X10.400 Y7.400
G1 X3.709 Y7.400
G1 X3.709 Y-7.400
G1 X10.400 Y-7.400
G1 X10.400 Y0.000
G1 X10.000 Y0.000
G1 X10.000 Y7.000
G1 X4.109 Y7.000
G1 X4.109 Y-7.000
G1 X10.000 Y-7.000
G1 X10.000 Y0.000
G1 X9.600 Y0.000
G1 X9.600 Y6.600
G1 X4.509 Y6.600
G1 X4.509 Y-6.600
G1 X9.600 Y-6.600
G1 X9.600 Y0.000
G1 X9.200 Y0.000
G1 X9.200 Y6.200
G1 X4.909 Y6.200
G1 X4.909 Y-6.200
G1 X9.200 Y-6.200
G1 X9.200 Y0.000
G1 X8.800 Y0.000
G1 X8.800 Y5.800
G1 X5.309 Y5.800
G1 X5.309 Y-5.800
G1 X8.800 Y-5.800
G1 X8.800 Y0.000
G1 X8.400 Y0.000
G1 X8.400 Y5.400
G1 X5.709 Y5.400
G1 X5.709 Y-5.400
G1 X8.400 Y-5.400
G1 X8.400 Y0.000
G1 X8.000 Y0.000
G1 X8.000 Y5.000
G1 X6.109 Y5.000
G1 X6.109 Y-5.000
G1 X8.000 Y-5.000
G1 X8.000 Y0.000
G1 X7.600 Y0.000
G1 X7.600 Y4.600
G1 X6.509 Y4.600
G1 X6.509 Y-4.600
G1 X7.600 Y-4.600
G1 X7.600 Y0.000
G1 X7.200 Y0.000
G1 X7.200 Y0.000 Z2.700
G1 X7.200 Y0.000
G1 X7.600 Y0.000
G1 X7.600 Y-4.600
G1 X6.614 Y-4.600
G1 X6.614 Y4.600
G1 X7.600 Y4.600
G1 X7.600 Y0.000
G1 X8.000 Y0.000
G1 X8.000 Y-5.000
G1 X6.214 Y-5.000
G1 X6.214 Y5.000
G1 X8.000 Y5.000
G1 X8.000 Y0.000
G1 X8.400 Y0.000
G1 X8.400 Y-5.400
G1 X5.814 Y-5.400
G1 X5.814 Y5.400
G1 X8.400 Y5.400
G1 X8.400 Y0.000
G1 X8.800 Y0.000
G1 X8.800 Y-5.800
G1 X5.414 Y-5.800
G1 X5.414 Y5.800
G1 X8.800 Y5.800
G1 X8.800 Y0.000
G1 X9.200 Y0.000
G1 X9.200 Y-6.200
G1 X5.014 Y-6.200
G1 X5.014 Y6.200
G1 X9.200 Y6.200
G1 X9.200 Y0.000
G1 X9.600 Y0.000
G1 X9.600 Y-6.600
G1 X4.614 Y-6.600
G1 X4.614 Y6.600
G1 X9.600 Y6.600
G1 X9.600 Y0.000
G1 X10.000 Y0.000
G1 X10.000 Y-7.000
G1 X4.214 Y-7.000
G1 X4.214 Y7.000
G1 X10.000 Y7.000
G1 X10.000 Y0.000
G1 X10.400 Y0.000
G1 X10.400 Y-7.400
G1 X3.814 Y-7.400
G1 X3.814 Y7.400
G1 X10.400 Y7.400
G1 X10.400 Y0.000
G1 X10.800 Y0.000
G1 X10.800 Y-7.800
G1 X3.414 Y-7.800
G1 X3.414 Y7.800
G1 X10.800 Y7.800
G1 X10.800 Y0.000
G1 X11.200 Y0.000
G1 X11.200 Y-8.200
G1 X3.014 Y-8.200
G1 X3.014 Y8.200
G1 X11.200 Y8.200
G1 X11.200 Y0.000
G1 X11.600 Y0.000
G1 X11.600 Y-8.600
G1 X2.614 Y-8.600
G1 X2.614 Y8.600
G1 X11.600 Y8.600
G1 X11.600 Y0.000
G1 X12.000 Y0.000
G1 X12.000 Y-9.000
G1 X2.214 Y-9.000
G1 X2.214 Y9.000
G1 X12.000 Y9.000
G1 X12.000 Y0.000
G1 X12.400 Y0.000
G1 X12.400 Y-9.400
G1 X1.814 Y-9.400
G1 X1.814 Y9.400
G1 X12.400 Y9.400
G1 X12.400 Y0.000
G1 X12.800 Y0.000
G1 X12.800 Y-9.800
G1 X1.414 Y-9.800
G1 X1.414 Y9.800
G1 X12.800 Y9.800
G1 X12.800 Y0.000 Z2.700
G1 X12.800 Y0.000 Z3.100
G1 X12.800 Y9.800
G1 X1.495 Y9.800
G1 X1.495 Y-9.800
G1 X12.800 Y-9.800
G1 X12.800 Y0.000
G1 X12.400 Y0.000
G1 X12.400 Y9.400
G1 X1.895 Y9.400
G1 X1.895 Y-9.400
G1 X12.400 Y-9.400
G1 X12.400 Y0.000
G1 X12.000 Y0.000
G1 X12.000 Y9.000
G1 X2.295 Y9.000
G1 X2.295 Y-9.000
G1 X12.000 Y-9.000
G1 X12.000 Y0.000
G1 X11.600 Y0.000
G1 X11.600 Y8.600
G1 X2.695 Y8.600
G1 X2.695 Y-8.600
G1 X11.600 Y-8.600
G1 X11.600 Y0.000
G1 X11.200 Y0.000
G1 X11.200 Y8.200
G1 X3.095 Y8.200
G1 X3.095 Y-8.200
G1 X11.200 Y-8.200
G1 X11.200 Y0.000
G1 X10.800 Y0.000
G1 X10.800 Y7.800
G1 X3.495 Y7.800
G1 X3.495 Y-7.800
G1 X10.800 Y-7.800
G1 X10.800 Y0.000
G1 X10.400 Y0.000
G1 X10.400 Y7.400
G1 X3.895 Y7.400
G1 X3.895 Y-7.400
G1 X10.400 Y-7.400
G1 X10.400 Y0.000
G1 X10.000 Y0.000
G1 X10.000 Y7.000
G1 X4.295 Y7.000
G1 X4.295 Y-7.000
G1 X10.000 Y-7.000
G1 X10.000 Y0.000
G1 X9.600 Y0.000
G1 X9.600 Y6.600
G1 X4.695 Y6.600
G1 X4.695 Y-6.600
G1 X9.600 Y-6.600
G1 X9.600 Y0.000
G1 X9.200 Y0.000
G1 X9.200 Y6.200
G1 X5.095 Y6.200
G1 X5.095 Y-6.200
G1 X9.200 Y-6.200
G1 X9.200 Y0.000
G1 X8.800 Y0.000
G1 X8.800 Y5.800
G1 X5.495 Y5.800
G1 X5.495 Y-5.800
G1 X8.800 Y-5.800
G1 X8.800 Y0.000
G1 X8.400 Y0.000
G1 X8.400 Y5.400
G1 X5.895 Y5.400
G1 X5.895 Y-5.400
G1 X8.400 Y-5.400
G1 X8.400 Y0.000
G1 X8.000 Y0.000
G1 X8.000 Y5.000
G1 X6.295 Y5.000
G1 X6.295 Y-5.000
G1 X8.000 Y-5.000
G1 X8.000 Y0.000
G1 X7.600 Y0.000
G1 X7.600 Y4.600
G1 X6.695 Y4.600
G1 X6.695 Y-4.600
G1 X7.600 Y-4.600
G1 X7.600 Y0.000
G1 X7.200 Y0.000
G1 X7.200 Y0.000 Z3.500
G1 X7.200 Y0.000
G1 X7.600 Y0.000
G1 X7.600 Y-4.600
G1 X6.757 Y-4.600
G1 X6.757 Y4.600
G1 X7.600 Y4.600
G1 X7.600 Y0.000
G1 X8.000 Y0.000
G1 X8.000 Y-5.000
G1 X6.357 Y-5.000
G1 X6.357 Y5.000
G1 X8.000 Y5.000
G1 X8.000 Y0.000
G1 X8.400 Y0.000
G1 X8.400 Y-5.400
G1 X5.957 Y-5.400
G1 X5.957 Y5.400
G1 X8.400 Y5.400
G1 X8.400 Y0.000
G1 X8.800 Y0.000
G1 X8.800 Y-5.800
G1 X5.557 Y-5.800
G1 X5.557 Y5.800
G1 X8.800 Y5.800
G1 X8.800 Y0.000
G1 X9.200 Y0.000
G1 X9.200 Y-6.200
G1 X5.157 Y-6.200
G1 X5.157 Y6.200
G1 X9.200 Y6.200
G1 X9.200 Y0.000
G1 X9.600 Y0.000
G1 X9.600 Y-6.600
G1 X4.757 Y-6.600
G1 X4.757 Y6.600
G1 X9.600 Y6.600
G1 X9.600 Y0.000
G1 X10.000 Y0.000
G1 X10.000 Y-7.000
G1 X4.357 Y-7.000
G1 X4.357 Y7.000
G1 X10.000 Y7.000
G1 X10.000 Y0.000
G1 X10.400 Y0.000
G1 X10.400 Y-7.400
G1 X3.957 Y-7.400
G1 X3.957 Y7.400
G1 X10.400 Y7.400
G1 X10.400 Y0.000
G1 X10.800 Y0.000
G1 X10.800 Y-7.800
G1 X3.557 Y-7.800
G1 X3.557 Y7.800
G1 X10.800 Y7.800
G1 X10.800 Y0.000
G1 X11.200 Y0.000
G1 X11.200 Y-8.200
G1 X3.157 Y-8.200
G1 X3.157 Y8.200
G1 X11.200 Y8.200
G1 X11.200 Y0.000
G1 X11.600 Y0.000
G1 X11.600 Y-8.600
G1 X2.757 Y-8.600
G1 X2.757 Y8.600
G1 X11.600 Y8.600
G1 X11.600 Y0.000
G1 X12.000 Y0.000
G1 X12.000 Y-9.000
G1 X2.357 Y-9.000
G1 X2.357 Y9.000
G1 X12.000 Y9.000
G1 X12.000 Y0.000
G1 X12.400 Y0.000
G1 X12.400 Y-9.400
G1 X1.957 Y-9.400
G1 X1.957 Y9.400
G1 X12.400 Y9.400
G1 X12.400 Y0.000
G1 X12.800 Y0.000
G1 X12.800 Y-9.800
G1 X1.557 Y-9.800
G1 X1.557 Y9.800
G1 X12.800 Y9.800
G1 X12.800 Y0.000 Z3.500
G1 X12.800 Y0.000 Z3.900
G1 X12.800 Y9.800
G1 X1.604 Y9.800
G1 X1.604 Y-9.800
G1 X12.800 Y-9.800
G1 X12.800 Y0.000
G1 X12.400 Y0.000
G1 X12.400 Y9.400
G1 X2.004 Y9.400
G1 X2.004 Y-9.400
G1 X12.400 Y-9.400
G1 X12.400 Y0.000
G1 X12.000 Y0.000
G1 X12.000 Y9.000
G1 X2.404 Y9.000
G1 X2.404 Y-9.000
G1 X12.000 Y-9.000
G1 X12.000 Y0.000
G1 X11.600 Y0.000
G1 X11.600 Y8.600
G1 X2.804 Y8.600
G1 X2.804 Y-8.600
G1 X11.600 Y-8.600
G1 X11.600 Y0.000
G1 X11.200 Y0.000
G1 X11.200 Y8.200
G1 X3.204 Y8.200
G1 X3.204 Y-8.200
G1 X11.200 Y-8.200
G1 X11.200 Y0.000
G1 X10.800 Y0.000
G1 X10.800 Y7.800
G1 X3.604 Y7.800
G1 X3.604 Y-7.800
G1 X10.800 Y-7.800
G1 X10.800 Y0.000
G1 X10.400 Y0.000
G1 X10.400 Y7.400
G1 X4.004 Y7.400
G1 X4.004 Y-7.400
G1 X10.400 Y-7.400
G1 X10.400 Y0.000
G1 X10.000 Y0.000
G1 X10.000 Y7.000
G1 X4.404 Y7.000
G1 X4.404 Y-7.000
G1 X10.000 Y-7.000
G1 X10.000 Y0.000
G1 X9.600 Y0.000
G1 X9.600 Y6.600
G1 X4.804 Y6.600
G1 X4.804 Y-6.600
G1 X9.600 Y-6.600
G1 X9.600 Y0.000
G1 X9.200 Y0.000
G1 X9.200 Y6.200
G1 X5.204 Y6.200
G1 X5.204 Y-6.200
G1 X9.200 Y-6.200
G1 X9.200 Y0.000
G1 X8.800 Y0.000
G1 X8.800 Y5.800
G1 X5.604 Y5.800
G1 X5.604 Y-5.800
G1 X8.800 Y-5.800
G1 X8.800 Y0.000
G1 X8.400 Y0.000
G1 X8.400 Y5.400
G1 X6.004 Y5.400
G1 X6.004 Y-5.400
G1 X8.400 Y-5.400
G1 X8.400 Y0.000
G1 X8.000 Y0.000
G1 X8.000 Y5.000
G1 X6.404 Y5.000
G1 X6.404 Y-5.000
G1 X8.000 Y-5.000
G1 X8.000 Y0.000
G1 X7.600 Y0.000
G1 X7.600 Y4.600
G1 X6.804 Y4.600
G1 X6.804 Y-4.600
G1 X7.600 Y-4.600
G1 X7.600 Y0.000
G1 X7.200 Y0.000
G1 X7.200 Y0.000 Z4.300
G1 X7.200 Y0.000
G1 X7.600 Y0.000
G1 X7.600 Y-4.600
G1 X6.838 Y-4.600
G1 X6.838 Y4.600
G1 X7.600 Y4.600
G1 X7.600 Y0.000
G1 X8.000 Y0.000
G1 X8.000 Y-5.000
G1 X6.438 Y-5.000
G1 X6.438 Y5.000
G1 X8.000 Y5.000
G1 X8.000 Y0.000
G1 X8.400 Y0.000
G1 X8.400 Y-5.400
G1 X6.038 Y-5.400
G1 X6.038 Y5.400
G1 X8.400 Y5.400
G1 X8.400 Y0.000
G1 X8.800 Y0.000
G1 X8.800 Y-5.800
G1 X5.638 Y-5.800
G1 X5.638 Y5.800
G1 X8.800 Y5.800
G1 X8.800 Y0.000
G1 X9.200 Y0.000
G1 X9.200 Y-6.200
G1 X5.238 Y-6.200
G1 X5.238 Y6.200
G1 X9.200 Y6.200
G1 X9.200 Y0.000
G1 X9.600 Y0.000
G1 X9.600 Y-6.600
G1 X4.838 Y-6.600
G1 X4.838 Y6.600
G1 X9.600 Y6.600
G1 X9.600 Y0.000
G1 X10.000 Y0.000
G1 X10.000 Y-7.000
G1 X4.438 Y-7.000
G1 X4.438 Y7.000
G1 X10.000 Y7.000
G1 X10.000 Y0.000
G1 X10.400 Y0.000
G1 X10.400 Y-7.400
G1 X4.038 Y-7.400
G1 X4.038 Y7.400
G1 X10.400 Y7.400
G1 X10.400 Y0.000
G1 X10.800 Y0.000
G1 X10.800 Y-7.800
G1 X3.638 Y-7.800
G1 X3.638 Y7.800
G1 X10.800 Y7.800
G1 X10.800 Y0.000
G1 X11.200 Y0.000
G1 X11.200 Y-8.200
G1 X3.238 Y-8.200
G1 X3.238 Y8.200
G1 X11.200 Y8.200
G1 X11.200 Y0.000
G1 X11.600 Y0.000
G1 X11.600 Y-8.600
G1 X2.838 Y-8.600
G1 X2.838 Y8.600
G1 X11.600 Y8.600
G1 X11.600 Y0.000
G1 X12.000 Y0.000
G1 X12.000 Y-9.000
G1 X2.438 Y-9.000
G1 X2.438 Y9.000
G1 X12.000 Y9.000
G1 X12.000 Y0.000
G1 X12.400 Y0.000
G1 X12.400 Y-9.400
G1 X2.038 Y-9.400
G1 X2.038 Y9.400
G1 X12.400 Y9.400
G1 X12.400 Y0.000
G1 X12.800 Y0.000
G1 X12.800 Y-9.800
G1 X1.638 Y-9.800
G1 X1.638 Y9.800
G1 X12.800 Y9.800
G1 X12.800 Y0.000 Z4.300
G1 X12.800 Y0.000 Z4.700
G1 X12.800 Y9.800
G1 X1.660 Y9.800
G1 X1.660 Y-9.800
G1 X12.800 Y-9.800
G1 X12.800 Y0.000
G1 X12.400 Y0.000
G1 X12.400 Y9.400
G1 X2.060 Y9.400
G1 X2.060 Y-9.400
G1 X12.400 Y-9.400
G1 X12.400 Y0.000
G1 X12.000 Y0.000
G1 X12.000 Y9.000
G1 X2.460 Y9.000
G1 X2.460 Y-9.000
G1 X12.000 Y-9.000
G1 X12.000 Y0.000
G1 X11.600 Y0.000
G1 X11.600 Y8.600
G1 X2.860 Y8.600
G1 X2.860 Y-8.600
G1 X11.600 Y-8.600
G1 X11.600 Y0.000
G1 X11.200 Y0.000
G1 X11.200 Y8.200
G1 X3.260 Y8.200
G1 X3.260 Y-8.200
G1 X11.200 Y-8.200
G1 X11.200 Y0.000
G1 X10.800 Y0.000
G1 X10.800 Y7.800
G1 X3.660 Y7.800
G1 X3.660 Y-7.800
G1 X10.800 Y-7.800
G1 X10.800 Y0.000
G1 X10.400 Y0.000
G1 X10.400 Y7.400
G1 X4.060 Y7.400
G1 X4.060 Y-7.400
G1 X10.400 Y-7.400
G1 X10.400 Y0.000
G1 X10.000 Y0.000
G1 X10.000 Y7.000
G1 X4.460 Y7.000
G1 X4.460 Y-7.000
G1 X10.000 Y-7.000
G1 X10.000 Y0.000
G1 X9.600 Y0.000
G1 X9.600 Y6.600
G1 X4.860 Y6.600
G1 X4.860 Y-6.600
G1 X9.600 Y-6.600
G1 X9.600 Y0.000
G1 X9.200 Y0.000
G1 X9.200 Y6.200
G1 X5.260 Y6.200
G1 X5.260 Y-6.200
G1 X9.200 Y-6.200
G1 X9.200 Y0.000
G1 X8.800 Y0.000
G1 X8.800 Y5.800
G1 X5.660 Y5.800
G1 X5.660 Y-5.800
G1 X8.800 Y-5.800
G1 X8.800 Y0.000
G1 X8.400 Y0.000
G1 X8.400 Y5.400
G1 X6.060 Y5.400
G1 X6.060 Y-5.400
G1 X8.400 Y-5.400
G1 X8.400 Y0.000
G1 X8.000 Y0.000
G1 X8.000 Y5.000
G1 X6.460 Y5.000
G1 X6.460 Y-5.000
G1 X8.000 Y-5.000
G1 X8.000 Y0.000
G1 X7.600 Y0.000
G1 X7.600 Y4.600
G1 X6.860 Y4.600
G1 X6.860 Y-4.600
G1 X7.600 Y-4.600
G1 X7.600 Y0.000
G1 X7.200 Y0.000
G1 X7.200 Y0.000 Z5.100
G1 X7.200 Y0.000
G1 X7.600 Y0.000
G1 X7.600 Y-4.600
G1 X6.870 Y-4.600
G1 X6.870 Y4.600
G1 X7.600 Y4.600
G1 X7.600 Y0.000
G1 X8.000 Y0.000
G1 X8.000 Y-5.000
G1 X6.470 Y-5.000
G1 X6.470 Y5.000
G1 X8.000 Y5.000
G1 X8.000 Y0.000
G1 X8.400 Y0.000
G1 X8.400 Y-5.400
G1 X6.070 Y-5.400
G1 X6.070 Y5.400
G1 X8.400 Y5.400
G1 X8.400 Y0.000
G1 X8.800 Y0.000
G1 X8.800 Y-5.800
G1 X5.670 Y-5.800
G1 X5.670 Y5.800
G1 X8.800 Y5.800
G1 X8.800 Y0.000
G1 X9.200 Y0.000
G1 X9.200 Y-6.200
G1 X5.270 Y-6.200
G1 X5.270 Y6.200
G1 X9.200 Y6.200
G1 X9.200 Y0.000
G1 X9.600 Y0.000
G1 X9.600 Y-6.600
G1 X4.870 Y-6.600
G1 X4.870 Y6.600
G1 X9.600 Y6.600
G1 X9.600 Y0.000
G1 X10.000 Y0.000
G1 X10.000 Y-7.000
G1 X4.470 Y-7.000
G1 X4.470 Y7.000
G1 X10.000 Y7.000
G1 X10.000 Y0.000
G1 X10.400 Y0.000
G1 X10.400 Y-7.400
G1 X4.070 Y-7.400
G1 X4.070 Y7.400
G1 X10.400 Y7.400
G1 X10.400 Y0.000
G1 X10.800 Y0.000
G1 X10.800 Y-7.800
G1 X3.670 Y-7.800
G1 X3.670 Y7.800
G1 X10.800 Y7.800
G1 X10.800 Y0.000
G1 X11.200 Y0.000
G1 X11.200 Y-8.200
G1 X3.270 Y-8.200
G1 X3.270 Y8.200
G1 X11.200 Y8.200
G1 X11.200 Y0.000
G1 X11.600 Y0.000
G1 X11.600 Y-8.600
G1 X2.870 Y-8.600
G1 X2.870 Y8.600
G1 X11.600 Y8.600
G1 X11.600 Y0.000
G1 X12.000 Y0.000
G1 X12.000 Y-9.000
G1 X2.470 Y-9.000
G1 X2.470 Y9.000
G1 X12.000 Y9.000
G1 X12.000 Y0.000
G1 X12.400 Y0.000
G1 X12.400 Y-9.400
G1 X2.070 Y-9.400
G1 X2.070 Y9.400
G1 X12.400 Y9.400
G1 X12.400 Y0.000
G1 X12.800 Y0.000
G1 X12.800 Y-9.800
G1 X1.670 Y-9.800
G1 X1.670 Y9.800
G1 X12.800 Y9.800
G1 X12.800 Y0.000 Z5.100

;Finish
M9
G1 Z10.000
G28 X-100 Y-100;Home