;layer_height = 0.4
;line_width = 0.4
;layer_count = 10
;mesh = twist_half_short
G21 ;start of the code
G1 Z15 F300
G28 X0 Y0 ;Home
G92 X0 Y0 ;Consider this as current
G0 X50 Y50 F3000 ;Go-to Offset
G92 X0 Y0 ;Reset

G0 F3600 X-16.800 Y0.000 Z0.300 ;Go to start position
M7
G4 P150


G1 X-19.800 Y0.000 Z0.300
G1 X-19.800 Y-9.800
G1 X-8.000 Y-9.800
G1 X-8.000 Y9.800
G1 X-19.800 Y9.800
G1 X-19.800 Y0.000
G1 X-19.400 Y0.000
G1 X-19.400 Y-9.400
G1 X-8.400 Y-9.400
G1 X-8.400 Y9.400
G1 X-19.400 Y9.400
G1 X-19.400 Y0.000
G1 X-19.000 Y0.000
G1 X-19.000 Y-9.000
G1 X-8.800 Y-9.000
G1 X-8.800 Y9.000
G1 X-19.000 Y9.000
G1 X-19.000 Y0.000
G1 X-18.600 Y0.000
G1 X-18.600 Y-8.600
G1 X-9.200 Y-8.600
G1 X-9.200 Y8.600
G1 X-18.600 Y8.600
G1 X-18.600 Y0.000
G1 X-18.200 Y0.000
G1 X-18.200 Y-8.200
G1 X-9.600 Y-8.200
G1 X-9.600 Y8.200
G1 X-18.200 Y8.200
G1 X-18.200 Y0.000
G1 X-17.800 Y0.000
G1 X-17.800 Y-7.800
G1 X-10.000 Y-7.800
G1 X-10.000 Y7.800
G1 X-17.800 Y7.800
G1 X-17.800 Y0.000
G1 X-17.400 Y0.000
G1 X-17.400 Y-7.400
G1 X-10.400 Y-7.400
G1 X-10.400 Y7.400
G1 X-17.400 Y7.400
G1 X-17.400 Y0.000
G1 X-17.000 Y0.000
G1 X-17.000 Y-7.000
G1 X-10.800 Y-7.000
G1 X-10.800 Y7.000
G1 X-17.000 Y7.000
G1 X-17.000 Y0.000
G1 X-16.600 Y0.000
G1 X-16.600 Y-6.600
G1 X-11.200 Y-6.600
G1 X-11.200 Y6.600
G1 X-16.600 Y6.600
G1 X-16.600 Y0.000
G1 X-16.200 Y0.000
G1 X-16.200 Y-6.200
G1 X-11.600 Y-6.200
G1 X-11.600 Y6.200
G1 X-16.200 Y6.200
G1 X-16.200 Y0.000
G1 X-15.800 Y0.000
G1 X-15.800 Y-5.800
G1 X-12.000 Y-5.800
G1 X-12.000 Y5.800
G1 X-15.800 Y5.800
G1 X-15.800 Y0.000
G1 X-15.400 Y0.000
G1 X-15.400 Y-5.400
G1 X-12.400 Y-5.400
G1 X-12.400 Y5.400
G1 X-15.400 Y5.400
G1 X-15.400 Y0.000
G1 X-15.000 Y0.000
G1 X-15.000 Y-5.000
G1 X-12.800 Y-5.000
G1 X-12.800 Y5.000
G1 X-15.000 Y5.000
G1 X-15.000 Y0.000
G1 X-14.600 Y0.000
G1 X-14.600 Y-4.600
G1 X-13.200 Y-4.600
G1 X-13.200 Y4.600
G1 X-14.600 Y4.600
G1 X-14.600 Y0.000
G1 X-14.200 Y0.000
G1 X-14.200 Y-4.200
G1 X-13.600 Y-4.200
G1 X-13.600 Y4.200
G1 X-14.200 Y4.200
G1 X-14.200 Y0.000
G1 X-13.800 Y0.000
M9
G1 Z10.000
G1 X19.800 Y0.000
G1 Z0.300
M7
G4 P150
G1 X19.800 Y0.000 Z0.300
G1 X19.800 Y9.800
G1 X-6.800 Y9.800
G1 X-6.800 Y-9.800
G1 X19.800 Y-9.800
G1 X19.800 Y0.000
G1 X19.400 Y0.000
G1 X19.400 Y9.400
G1 X-6.400 Y9.400
G1 X-6.400 Y-9.400
G1 X19.400 Y-9.400
G1 X19.400 Y0.000
G1 X19.000 Y0.000
G1 X19.000 Y9.000
G1 X-6.000 Y9.000
G1 X-6.000 Y-9.000
G1 X19.000 Y-9.000
G1 X19.000 Y0.000
G1 X18.600 Y0.000
G1 X18.600 Y8.600
G1 X-5.600 Y8.600
G1 X-5.600 Y-8.600
G1 X18.600 Y-8.600
G1 X18.600 Y0.000
G1 X18.200 Y0.000
G1 X18.200 Y8.200
G1 X-5.200 Y8.200
G1 X-5.200 Y-8.200
G1 X18.200 Y-8.200
G1 X18.200 Y0.000
G1 X17.800 Y0.000
G1 X17.800 Y7.800
G1 X-4.800 Y7.800
G1 X-4.800 Y-7.800
G1 X17.800 Y-7.800
G1 X17.800 Y0.000
G1 X17.400 Y0.000
G1 X17.400 Y7.400
G1 X-4.400 Y7.400
G1 X-4.400 Y-7.400
G1 X17.400 Y-7.400
G1 X17.400 Y0.000
G1 X17.000 Y0.000
G1 X17.000 Y7.000
G1 X-4.000 Y7.000
G1 X-4.000 Y-7.000
G1 X17.000 Y-7.000
G1 X17.000 Y0.000
G1 X16.600 Y0.000
G1 X16.600 Y6.600
G1 X-3.600 Y6.600
G1 X-3.600 Y-6.600
G1 X16.600 Y-6.600
G1 X16.600 Y0.000
G1 X16.200 Y0.000
G1 X16.200 Y6.200
G1 X-3.200 Y6.200
G1 X-3.200 Y-6.200
G1 X16.200 Y-6.200
G1 X16.200 Y0.000
G1 X15.800 Y0.000
G1 X15.800 Y5.800
G1 X-2.800 Y5.800
G1 X-2.800 Y-5.800
G1 X15.800 Y-5.800
G1 X15.800 Y0.000
G1 X15.400 Y0.000
G1 X15.400 Y5.400
G1 X-2.400 Y5.400
G1 X-2.400 Y-5.400
G1 X15.400 Y-5.400
G1 X15.400 Y0.000
G1 X15.000 Y0.000
G1 X15.000 Y5.000
G1 X-2.000 Y5.000
G1 X-2.000 Y-5.000
G1 X15.000 Y-5.000
G1 X15.000 Y0.000
G1 X14.600 Y0.000
G1 X14.600 Y4.600
G1 X-1.600 Y4.600
G1 X-1.600 Y-4.600
G1 X14.600 Y-4.600
G1 X14.600 Y0.000
G1 X14.200 Y0.000
G1 X14.200 Y4.200
G1 X-1.200 Y4.200
G1 X-1.200 Y-4.200
G1 X14.200 Y-4.200
G1 X14.200 Y0.000
G1 X13.800 Y0.000
G1 X13.800 Y3.800
G1 X-0.800 Y3.800
G1 X-0.800 Y-3.800
G1 X13.800 Y-3.800
G1 X13.800 Y0.000
G1 X13.400 Y0.000
G1 X13.400 Y3.400
G1 X-0.400 Y3.400
G1 X-0.400 Y-3.400
G1 X13.400 Y-3.400
G1 X13.400 Y0.000
G1 X13.000 Y0.000
G1 X13.000 Y3.000
G1 X0.000 Y3.000
G1 X0.000 Y-3.000
G1 X13.000 Y-3.000
G1 X13.000 Y0.000
G1 X12.600 Y0.000
G1 X12.600 Y2.600
G1 X0.400 Y2.600
G1 X0.400 Y-2.600
G1 X12.600 Y-2.600
G1 X12.600 Y0.000
G1 X12.200 Y0.000
G1 X12.200 Y2.200
G1 X0.800 Y2.200
G1 X0.800 Y-2.200
G1 X12.200 Y-2.200
G1 X12.200 Y0.000
G1 X11.800 Y0.000
G1 X11.800 Y1.800
G1 X1.200 Y1.800
G1 X1.200 Y-1.800
G1 X11.800 Y-1.800
G1 X11.800 Y0.000
G1 X11.400 Y0.000
G1 X11.400 Y1.400
G1 X1.600 Y1.400
G1 X1.600 Y-1.400
G1 X11.400 Y-1.400
G1 X11.400 Y0.000
G1 X11.000 Y0.000
G1 X11.000 Y1.000
G1 X2.000 Y1.000
G1 X2.000 Y-1.000
G1 X11.000 Y-1.000
G1 X11.000 Y0.000
G1 X10.600 Y0.000
G1 X10.600 Y0.600
G1 X2.400 Y0.600
G1 X2.400 Y-0.600
G1 X10.600 Y-0.600
G1 X10.600 Y0.000
G1 X10.200 Y0.000
M9
G1 Z10.000
G1 X-19.800 Y-9.800
G1 Z0.700
M7
G4 P150
G1 X19.800 Y-9.800
G1 X19.800 Y-9.400
G4 P5
G1 X-19.800 Y-9.400
G4 P5
G1 X-19.800 Y-9.000
G4 P5
G1 X19.800 Y-9.000
G4 P5
G1 X19.800 Y-8.600
G4 P5
G1 X-19.800 Y-8.600
G4 P5
G1 X-19.800 Y-8.200
G4 P5
G1 X19.800 Y-8.200
G4 P5
G1 X19.800 Y-7.800
G4 P5
G1 X-19.800 Y-7.800
G4 P5
G1 X-19.800 Y-7.400
G4 P5
G1 X19.800 Y-7.400
G4 P5
G1 X19.800 Y-7.000
G4 P5
G1 X-19.800 Y-7.000
G4 P5
G1 X-19.800 Y-6.600
G4 P5
G1 X19.800 Y-6.600
G4 P5
G1 X19.800 Y-6.200
G4 P5
G1 X-19.800 Y-6.200
G4 P5
G1 X-19.800 Y-5.800
G4 P5
G1 X19.800 Y-5.800
G4 P5
G1 X19.800 Y-5.400
G4 P5
G1 X-19.800 Y-5.400
G4 P5
G1 X-19.800 Y-5.000
G4 P5
G1 X19.800 Y-5.000
G4 P5
G1 X19.800 Y-4.600
G4 P5
G1 X-19.800 Y-4.600
G4 P5
G1 X-19.800 Y-4.200
G4 P5
G1 X19.800 Y-4.200
G4 P5
G1 X19.800 Y-3.800
G4 P5
G1 X-19.800 Y-3.800
G4 P5
G1 X-19.800 Y-3.400
G4 P5
G1 X19.800 Y-3.400
G4 P5
G1 X19.800 Y-3.000
G4 P5
G1 X-19.800 Y-3.000
G4 P5
G1 X-19.800 Y-2.600
G4 P5
G1 X19.800 Y-2.600
G4 P5
G1 X19.800 Y-2.200
G4 P5
G1 X-19.800 Y-2.200
G4 P5
G1 X-19.800 Y-1.800
G4 P5
G1 X19.800 Y-1.800
G4 P5
G1 X19.800 Y-1.400
G4 P5
G1 X-19.800 Y-1.400
G4 P5
G1 X-19.800 Y-1.000
G4 P5
G1 X19.800 Y-1.000
G4 P5
G1 X19.800 Y-0.600
G4 P5
G1 X-19.800 Y-0.600
G4 P5
G1 X-19.800 Y-0.200
G4 P5
G1 X19.800 Y-0.200
G4 P5
G1 X19.800 Y0.200
G4 P5
G1 X-19.800 Y0.200
G4 P5
G1 X-19.800 Y0.600
G4 P5
G1 X19.800 Y0.600
G4 P5
G1 X19.800 Y1.000
G4 P5
G1 X-19.800 Y1.000
G4 P5
G1 X-19.800 Y1.400
G4 P5
G1 X19.800 Y1.400
G4 P5
G1 X19.800 Y1.800
G4 P5
G1 X-19.800 Y1.800
G4 P5
G1 X-19.800 Y2.200
G4 P5
G1 X19.800 Y2.200
G4 P5
G1 X19.800 Y2.600
G4 P5
G1 X-19.800 Y2.600
G4 P5
G1 X-19.800 Y3.000
G4 P5
G1 X19.800 Y3.000
G4 P5
G1 X19.800 Y3.400
G4 P5
G1 X-19.800 Y3.400
G4 P5
G1 X-19.800 Y3.800
G4 P5
G1 X19.800 Y3.800
G4 P5
G1 X19.800 Y4.200
G4 P5
G1 X-19.800 Y4.200
G4 P5
G1 X-19.800 Y4.600
G4 P5
G1 X19.800 Y4.600
G4 P5
G1 X19.800 Y5.000
G4 P5
G1 X-19.800 Y5.000
G4 P5
G1 X-19.800 Y5.400
G4 P5
G1 X19.800 Y5.400
G4 P5
G1 X19.800 Y5.800
G4 P5
G1 X-19.800 Y5.800
G4 P5
G1 X-19.800 Y6.200
G4 P5
G1 X19.800 Y6.200
G4 P5
G1 X19.800 Y6.600
G4 P5
G1 X-19.800 Y6.600
G4 P5
G1 X-19.800 Y7.000
G4 P5
G1 X19.800 Y7.000
G4 P5
G1 X19.800 Y7.400
G4 P5
G1 X-19.800 Y7.400
G4 P5
G1 X-19.800 Y7.800
G4 P5
G1 X19.800 Y7.800
G4 P5
G1 X19.800 Y8.200
G4 P5
G1 X-19.800 Y8.200
G4 P5
G1 X-19.800 Y8.600
G4 P5
G1 X19.800 Y8.600
G4 P5
G1 X19.800 Y9.000
G4 P5
G1 X-19.800 Y9.000
G4 P5
G1 X-19.800 Y9.400
G4 P5
G1 X19.800 Y9.400
G4 P5
G1 X19.800 Y9.800
G4 P5
G1 X-19.800 Y9.800
G4 P5
M9
G1 Z10.000
G1 X-19.800 Y0.000
G1 Z1.100
M7
G4 P150
G1 X-19.800 Y0.000 Z1.100
G1 X-19.800 Y-9.800
G1 X-8.400 Y-9.800
G1 X-8.400 Y9.800
G1 X-19.800 Y9.800
G1 X-19.800 Y0.000
G1 X-19.400 Y0.000
G1 X-19.400 Y-9.400
G1 X-8.800 Y-9.400
G1 X-8.800 Y9.400
G1 X-19.400 Y9.400
G1 X-19.400 Y0.000
G1 X-19.000 Y0.000
G1 X-19.000 Y-9.000
G1 X-9.200 Y-9.000
G1 X-9.200 Y9.000
G1 X-19.000 Y9.000
G1 X-19.000 Y0.000
G1 X-18.600 Y0.000
G1 X-18.600 Y-8.600
G1 X-9.600 Y-8.600
G1 X-9.600 Y8.600
G1 X-18.600 Y8.600
G1 X-18.600 Y0.000
G1 X-18.200 Y0.000
G1 X-18.200 Y-8.200
G1 X-10.000 Y-8.200
G1 X-10.000 Y8.200
G1 X-18.200 Y8.200
G1 X-18.200 Y0.000
G1 X-17.800 Y0.000
G1 X-17.800 Y-7.800
G1 X-10.400 Y-7.800
G1 X-10.400 Y7.800
G1 X-17.800 Y7.800
G1 X-17.800 Y0.000
G1 X-17.400 Y0.000
G1 X-17.400 Y-7.400
G1 X-10.800 Y-7.400
G1 X-10.800 Y7.400
G1 X-17.400 Y7.400
G1 X-17.400 Y0.000
G1 X-17.000 Y0.000
G1 X-17.000 Y-7.000
G1 X-11.200 Y-7.000
G1 X-11.200 Y7.000
G1 X-17.000 Y7.000
G1 X-17.000 Y0.000
G1 X-16.600 Y0.000
G1 X-16.600 Y-6.600
G1 X-11.600 Y-6.600
G1 X-11.600 Y6.600
G1 X-16.600 Y6.600
G1 X-16.600 Y0.000
G1 X-16.200 Y0.000
G1 X-16.200 Y-6.200
G1 X-12.000 Y-6.200
G1 X-12.000 Y6.200
G1 X-16.200 Y6.200
G1 X-16.200 Y0.000
G1 X-15.800 Y0.000
G1 X-15.800 Y-5.800
G1 X-12.400 Y-5.800
G1 X-12.400 Y5.800
G1 X-15.800 Y5.800
G1 X-15.800 Y0.000
G1 X-15.400 Y0.000
G1 X-15.400 Y-5.400
G1 X-12.800 Y-5.400
G1 X-12.800 Y5.400
G1 X-15.400 Y5.400
G1 X-15.400 Y0.000
G1 X-15.000 Y0.000
G1 X-15.000 Y-5.000
G1 X-13.200 Y-5.000
G1 X-13.200 Y5.000
G1 X-15.000 Y5.000
G1 X-15.000 Y0.000
G1 X-14.600 Y0.000
G1 X-14.600 Y-4.600
G1 X-13.600 Y-4.600
G1 X-13.600 Y4.600
G1 X-14.600 Y4.600
G1 X-14.600 Y0.000
G1 X-14.200 Y0.000
G1 X-15.000 Y0.000 Z1.500
G1 X-15.000 Y0.000
G1 X-15.400 Y0.000
G1 X-15.400 Y5.400
G1 X-14.507 Y5.400
G1 X-14.507 Y-5.400
G1 X-15.400 Y-5.400
G1 X-15.400 Y0.000
G1 X-15.800 Y0.000
G1 X-15.800 Y5.800
G1 X-14.107 Y5.800
G1 X-14.107 Y-5.800
G1 X-15.800 Y-5.800
G1 X-15.800 Y0.000
G1 X-16.200 Y0.000
G1 X-16.200 Y6.200
G1 X-13.707 Y6.200
G1 X-13.707 Y-6.200
G1 X-16.200 Y-6.200
G1 X-16.200 Y0.000
G1 X-16.600 Y0.000
G1 X-16.600 Y6.600
G1 X-13.307 Y6.600
G1 X-13.307 Y-6.600
G1 X-16.600 Y-6.600
G1 X-16.600 Y0.000
G1 X-17.000 Y0.000
G1 X-17.000 Y7.000
G1 X-12.907 Y7.000
G1 X-12.907 Y-7.000
G1 X-17.000 Y-7.000
G1 X-17.000 Y0.000
G1 X-17.400 Y0.000
G1 X-17.400 Y7.400
G1 X-12.507 Y7.400
G1 X-12.507 Y-7.400
G1 X-17.400 Y-7.400
G1 X-17.400 Y0.000
G1 X-17.800 Y0.000
G1 X-17.800 Y7.800
G1 X-12.107 Y7.800
G1 X-12.107 Y-7.800
G1 X-17.800 Y-7.800
G1 X-17.800 Y0.000
G1 X-18.200 Y0.000
G1 X-18.200 Y8.200
G1 X-11.707 Y8.200
G1 X-11.707 Y-8.200
G1 X-18.200 Y-8.200
G1 X-18.200 Y0.000
G1 X-18.600 Y0.000
G1 X-18.600 Y8.600
G1 X-11.307 Y8.600
G1 X-11.307 Y-8.600
G1 X-18.600 Y-8.600
G1 X-18.600 Y0.000
G1 X-19.000 Y0.000
G1 X-19.000 Y9.000
G1 X-10.907 Y9.000
G1 X-10.907 Y-9.000
G1 X-19.000 Y-9.000
G1 X-19.000 Y0.000
G1 X-19.400 Y0.000
G1 X-19.400 Y9.400
G1 X-10.507 Y9.400
G1 X-10.507 Y-9.400
G1 X-19.400 Y-9.400
G1 X-19.400 Y0.000
G1 X-19.800 Y0.000
G1 X-19.800 Y9.800
G1 X-10.107 Y9.800
G1 X-10.107 Y-9.800
G1 X-19.800 Y-9.800
G1 X-19.800 Y0.000 Z1.500
G1 X-19.800 Y0.000 Z1.900
G1 X-19.800 Y-9.800
G1 X-10.646 Y-9.800
G1 X-10.646 Y9.800
G1 X-19.800 Y9.800
G1 X-19.800 Y0.000
G1 X-19.400 Y0.000
G1 X-19.400 Y-9.400
G1 X-11.046 Y-9.400
G1 X-11.046 Y9.400
G1 X-19.400 Y9.400
G1 X-19.400 Y0.000
G1 X-19.000 Y0.000
G1 X-19.000 Y-9.000
G1 X-11.446 Y-9.000
G1 X-11.446 Y9.000
G1 X-19.000 Y9.000
G1 X-19.000 Y0.000
G1 X-18.600 Y0.000
G1 X-18.600 Y-8.600
G1 X-11.846 Y-8.600
G1 X-11.846 Y8.600
G1 X-18.600 Y8.600
G1 X-18.600 Y0.000
G1 X-18.200 Y0.000
G1 X-18.200 Y-8.200
G1 X-12.246 Y-8.200
G1 X-12.246 Y8.200
G1 X-18.200 Y8.200
G1 X-18.200 Y0.000
G1 X-17.800 Y0.000
G1 X-17.800 Y-7.800
G1 X-12.646 Y-7.800
G1 X-12.646 Y7.800
G1 X-17.800 Y7.800
G1 X-17.800 Y0.000
G1 X-17.400 Y0.000
G1 X-17.400 Y-7.400
G1 X-13.046 Y-7.400
G1 X-13.046 Y7.400
G1 X-17.400 Y7.400
G1 X-17.400 Y0.000
G1 X-17.000 Y0.000
G1 X-17.000 Y-7.000
G1 X-13.446 Y-7.000
G1 X-13.446 Y7.000
G1 X-17.000 Y7.000
G1 X-17.000 Y0.000
G1 X-16.600 Y0.000
G1 X-16.600 Y-6.600
G1 X-13.846 Y-6.600
G1 X-13.846 Y6.600
G1 X-16.600 Y6.600
G1 X-16.600 Y0.000
G1 X-16.200 Y0.000
G1 X-16.200 Y-6.200
G1 X-14.246 Y-6.200
G1 X-14.246 Y6.200
G1 X-16.200 Y6.200
G1 X-16.200 Y0.000
G1 X-15.800 Y0.000
G1 X-15.800 Y-5.800
G1 X-14.646 Y-5.800
G1 X-14.646 Y5.800
G1 X-15.800 Y5.800
G1 X-15.800 Y0.000
G1 X-15.400 Y0.000
G1 X-15.400 Y0.000 Z2.300
G1 X-15.400 Y0.000
G1 X-15.800 Y0.000
G1 X-15.800 Y5.800
G1 X-15.040 Y5.800
G1 X-15.040 Y-5.800
G1 X-15.800 Y-5.800
G1 X-15.800 Y0.000
G1 X-16.200 Y0.000
G1 X-16.200 Y6.200
G1 X-14.640 Y6.200
G1 X-14.640 Y-6.200
G1 X-16.200 Y-6.200
G1 X-16.200 Y0.000
G1 X-16.600 Y0.000
G1 X-16.600 Y6.600
G1 X-14.240 Y6.600
G1 X-14.240 Y-6.600
G1 X-16.600 Y-6.600
G1 X-16.600 Y0.000
G1 X-17.000 Y0.000
G1 X-17.000 Y7.000
G1 X-13.840 Y7.000
G1 X-13.840 Y-7.000
G1 X-17.000 Y-7.000
G1 X-17.000 Y0.000
G1 X-17.400 Y0.000
G1 X-17.400 Y7.400
G1 X-13.440 Y7.400
G1 X-13.440 Y-7.400
G1 X-17.400 Y-7.400
G1 X-17.400 Y0.000
G1 X-17.800 Y0.000
G1 X-17.800 Y7.800
G1 X-13.040 Y7.800
G1 X-13.040 Y-7.800
G1 X-17.800 Y-7.800
G1 X-17.800 Y0.000
G1 X-18.200 Y0.000
G1 X-18.200 Y8.200
G1 X-12.640 Y8.200
G1 X-12.640 Y-8.200
G1 X-18.200 Y-8.200
G1 X-18.200 Y0.000
G1 X-18.600 Y0.000
G1 X-18.600 Y8.600
G1 X-12.240 Y8.600
G1 X-12.240 Y-8.600
G1 X-18.600 Y-8.600
G1 X-18.600 Y0.000
G1 X-19.000 Y0.000
G1 X-19.000 Y9.000
G1 X-11.840 Y9.000
G1 X-11.840 Y-9.000
G1 X-19.000 Y-9.000
G1 X-19.000 Y0.000
G1 X-19.400 Y0.000
G1 X-19.400 Y9.400
G1 X-11.440 Y9.400
G1 X-11.440 Y-9.400
G1 X-19.400 Y-9.400
G1 X-19.400 Y0.000
G1 X-19.800 Y0.000
G1 X-19.800 Y9.800
G1 X-11.040 Y9.800
G1 X-11.040 Y-9.800
G1 X-19.800 Y-9.800
G1 X-19.800 Y0.000 Z2.300
G1 X-19.800 Y0.000 Z2.700
G1 X-19.800 Y-9.800
G1 X-11.341 Y-9.800
G1 X-11.341 Y9.800
G1 X-19.800 Y9.800
G1 X-19.800 Y0.000
G1 X-19.400 Y0.000
G1 X-19.400 Y-9.400
G1 X-11.741 Y-9.400
G1 X-11.741 Y9.400
G1 X-19.400 Y9.400
G1 X-19.400 Y0.000
G1 X-19.000 Y0.000
G1 X-19.000 Y-9.000
G1 X-12.141 Y-9.000
G1 X-12.141 Y9.000
G1 X-19.000 Y9.000
G1 X-19.000 Y0.000
G1 X-18.600 Y0.000
G1 X-18.600 Y-8.600
G1 X-12.541 Y-8.600
G1 X-12.541 Y8.600
G1 X-18.600 Y8.600
G1 X-18.600 Y0.000
G1 X-18.200 Y0.000
G1 X-18.200 Y-8.200
G1 X-12.941 Y-8.200
G1 X-12.941 Y8.200
G1 X-18.200 Y8.200
G1 X-18.200 Y0.000
G1 X-17.800 Y0.000
G1 X-17.800 Y-7.800
G1 X-13.341 Y-7.800
G1 X-13.341 Y7.800
G1 X-17.800 Y7.800
G1 X-17.800 Y0.000
G1 X-17.400 Y0.000
G1 X-17.400 Y-7.400
G1 X-13.741 Y-7.400
G1 X-13.741 Y7.400
G1 X-17.400 Y7.400
G1 X-17.400 Y0.000
G1 X-17.000 Y0.000
G1 X-17.000 Y-7.000
G1 X-14.141 Y-7.000
G1 X-14.141 Y7.000
G1 X-17.000 Y7.000
G1 X-17.000 Y0.000
G1 X-16.600 Y0.000
G1 X-16.600 Y-6.600
G1 X-14.541 Y-6.600
G1 X-14.541 Y6.600
G1 X-16.600 Y6.600
G1 X-16.600 Y0.000
G1 X-16.200 Y0.000
G1 X-16.200 Y-6.200
G1 X-14.941 Y-6.200
G1 X-14.941 Y6.200
G1 X-16.200 Y6.200
G1 X-16.200 Y0.000
G1 X-15.800 Y0.000
G1 X-15.800 Y-5.800
G1 X-15.341 Y-5.800
G1 X-15.341 Y5.800
G1 X-15.800 Y5.800
G1 X-15.800 Y0.000
G1 X-15.400 Y0.000
G1 X-15.800 Y0.000 Z3.100
G1 X-15.800 Y0.000
G1 X-16.200 Y0.000
G1 X-16.200 Y6.200
G1 X-15.172 Y6.200
G1 X-15.172 Y-6.200
G1 X-16.200 Y-6.200
G1 X-16.200 Y0.000
G1 X-16.600 Y0.000
G1 X-16.600 Y6.600
G1 X-14.772 Y6.600
G1 X-14.772 Y-6.600
G1 X-16.600 Y-6.600
G1 X-16.600 Y0.000
G1 X-17.000 Y0.000
G1 X-17.000 Y7.000
G1 X-14.372 Y7.000
G1 X-14.372 Y-7.000
G1 X-17.000 Y-7.000
G1 X-17.000 Y0.000
G1 X-17.400 Y0.000
G1 X-17.400 Y7.400
G1 X-13.972 Y7.400
G1 X-13.972 Y-7.400
G1 X-17.400 Y-7.400
G1 X-17.400 Y0.000
G1 X-17.800 Y0.000
G1 X-17.800 Y7.800
G1 X-13.572 Y7.800
G1 X-13.572 Y-7.800
G1 X-17.800 Y-7.800
G1 X-17.800 Y0.000
G1 X-18.200 Y0.000
G1 X-18.200 Y8.200
G1 X-13.172 Y8.200
G1 X-13.172 Y-8.200
G1 X-18.200 Y-8.200
G1 X-18.200 Y0.000
G1 X-18.600 Y0.000
G1 X-18.600 Y8.600
G1 X-12.772 Y8.600
G1 X-12.772 Y-8.600
G1 X-18.600 Y-8.600
G1 X-18.600 Y0.000
G1 X-19.000 Y0.000
G1 X-19.000 Y9.000
G1 X-12.372 Y9.000
G1 X-12.372 Y-9.000
G1 X-19.000 Y-9.000
G1 X-19.000 Y0.000
G1 X-19.400 Y0.000
G1 X-19.400 Y9.400
G1 X-11.972 Y9.400
G1 X-11.972 Y-9.400
G1 X-19.400 Y-9.400
G1 X-19.400 Y0.000
G1 X-19.800 Y0.000
G1 X-19.800 Y9.800
G1 X-11.572 Y9.800
G1 X-11.572 Y-9.800
G1 X-19.800 Y-9.800
G1 X-19.800 Y0.000 Z3.100
G1 X-19.800 Y0.000 Z3.500
G1 X-19.800 Y-9.800
G1 X-11.747 Y-9.800
G1 X-11.747 Y9.800
G1 X-19.800 Y9.800
G1 X-19.800 Y0.000
G1 X-19.400 Y0.000
G1 X-19.400 Y-9.400
G1 X-12.147 Y-9.400
G1 X-12.147 Y9.400
G1 X-19.400 Y9.400
G1 X-19.400 Y0.000
G1 X-19.000 Y0.000
G1 X-19.000 Y-9.000
G1 X-12.547 Y-9.000
G1 X-12.547 Y9.000
G1 X-19.000 Y9.000
G1 X-19.000 Y0.000
G1 X-18.600 Y0.000
G1 X-18.600 Y-8.600
G1 X-12.947 Y-8.600
G1 X-12.947 Y8.600
G1 X-18.600 Y8.600
G1 X-18.600 Y0.000
G1 X-18.200 Y0.000
G1 X-18.200 Y-8.200
G1 X-13.347 Y-8.200
G1 X-13.347 Y8.200
G1 X-18.200 Y8.200
G1 X-18.200 Y0.000
G1 X-17.800 Y0.000
G1 X-17.800 Y-7.800
G1 X-13.747 Y-7.800
G1 X-13.747 Y7.800
G1 X-17.800 Y7.800
G1 X-17.800 Y0.000
G1 X-17.400 Y0.000
G1 X-17.400 Y-7.400
G1 X-14.147 Y-7.400
G1 X-14.147 Y7.400
G1 X-17.400 Y7.400
G1 X-17.400 Y0.000
G1 X-17.000 Y0.000
G1 X-17.000 Y-7.000
G1 X-14.547 Y-7.000
G1 X-14.547 Y7.000
G1 X-17.000 Y7.000
G1 X-17.000 Y0.000
G1 X-16.600 Y0.000
G1 X-16.600 Y-6.600
G1 X-14.947 Y-6.600
G1 X-14.947 Y6.600
G1 X-16.600 Y6.600
G1 X-16.600 Y0.000
G1 X-16.200 Y0.000
G1 X-16.200 Y-6.200
G1 X-15.347 Y-6.200
G1 X-15.347 Y6.200
G1 X-16.200 Y6.200
G1 X-16.200 Y0.000
G1 X-15.800 Y0.000
G1 X-15.800 Y0.000 Z3.900
G1 X-15.800 Y0.000
G1 X-16.200 Y0.000
G1 X-16.200 Y6.200
G1 X-15.473 Y6.200
G1 X-15.473 Y-6.200
G1 X-16.200 Y-6.200
G1 X-16.200 Y0.000
G1 X-16.600 Y0.000
G1 X-16.600 Y6.600
G1 X-15.073 Y6.600
G1 X-15.073 Y-6.600
G1 X-16.600 Y-6.600
G1 X-16.600 Y0.000
G1 X-17.000 Y0.000
G1 X-17.000 Y7.000
G1 X-14.673 Y7.000
G1 X-14.673 Y-7.000
G1 X-17.000 Y-7.000
G1 X-17.000 Y0.000
G1 X-17.400 Y0.000
G1 X-17.400 Y7.400
G1 X-14.273 Y7.400
G1 X-14.273 Y-7.400
G1 X-17.400 Y-7.400
G1 X-17.400 Y0.000
G1 X-17.800 Y0.000
G1 X-17.800 Y7.800
G1 X-13.873 Y7.800
G1 X-13.873 Y-7.800
G1 X-17.800 Y-7.800
G1 X-17.800 Y0.000
G1 X-18.200 Y0.000
G1 X-18.200 Y8.200
G1 X-13.473 Y8.200
G1 X-13.473 Y-8.200
G1 X-18.200 Y-8.200
G1 X-18.200 Y0.000
G1 X-18.600 Y0.000
G1 X-18.600 Y8.600
G1 X-13.073 Y8.600
G1 X-13.073 Y-8.600
G1 X-18.600 Y-8.600
G1 X-18.600 Y0.000
G1 X-19.000 Y0.000
G1 X-19.000 Y9.000
G1 X-12.673 Y9.000
G1 X-12.673 Y-9.000
G1 X-19.000 Y-9.000
G1 X-19.000 Y0.000
G1 X-19.400 Y0.000
G1 X-19.400 Y9.400
G1 X-12.273 Y9.400
G1 X-12.273 Y-9.400
G1 X-19.400 Y-9.400
G1 X-19.400 Y0.000
G1 X-19.800 Y0.000
G1 X-19.800 Y9.800
G1 X-11.873 Y9.800
G1 X-11.873 Y-9.800
G1 X-19.800 Y-9.800
G1 X-19.800 Y0.000 Z3.900
G1 X-19.800 Y0.000 Z4.300
G1 X-19.800 Y-9.800
G1 X-11.955 Y-9.800
G1 X-11.955 Y9.800
G1 X-19.800 Y9.800
G1 X-19.800 Y0.000
G1 X-19.400 Y0.000
G1 X-19.400 Y-9.400
G1 X-12.355 Y-9.400
G1 X-12.355 Y9.400
G1 X-19.400 Y9.400
G1 X-19.400 Y0.000
G1 X-19.000 Y0.000
G1 X-19.000 Y-9.000
G1 X-12.755 Y-9.000
G1 X-12.755 Y9.000
G1 X-19.000 Y9.000
G1 X-19.000 Y0.000
G1 X-18.600 Y0.000
G1 X-18.600 Y-8.600
G1 X-13.155 Y-8.600
G1 X-13.155 Y8.600
G1 X-18.600 Y8.600
G1 X-18.600 Y0.000
G1 X-18.200 Y0.000
G1 X-18.200 Y-8.200
G1 X-13.555 Y-8.200
G1 X-13.555 Y8.200
G1 X-18.200 Y8.200
G1 X-18.200 Y0.000
G1 X-17.800 Y0.000
G1 X-17.800 Y-7.800
G1 X-13.955 Y-7.800
G1 X-13.955 Y7.800
G1 X-17.800 Y7.800
G1 X-17.800 Y0.000
G1 X-17.400 Y0.000
G1 X-17.400 Y-7.400
G1 X-14.355 Y-7.400
G1 X-14.355 Y7.400
G1 X-17.400 Y7.400
G1 X-17.400 Y0.000
G1 X-17.000 Y0.000
G1 X-17.000 Y-7.000
G1 X-14.755 Y-7.000
G1 X-14.755 Y7.000
G1 X-17.000 Y7.000
G1 X-17.000 Y0.000
G1 X-16.600 Y0.000
G1 X-16.600 Y-6.600
G1 X-15.155 Y-6.600
G1 X-15.155 Y6.600
G1 X-16.600 Y6.600
G1 X-16.600 Y0.000
G1 X-16.200 Y0.000
G1 X-16.200 Y-6.200
G1 X-15.555 Y-6.200
G1 X-15.555 Y6.200
G1 X-16.200 Y6.200
G1 X-16.200 Y0.000
G1 X-15.800 Y0.000
G1 X-15.800 Y0.000 Z4.700
G1 X-15.800 Y0.000
G1 X-16.200 Y0.000
G1 X-16.200 Y6.200
G1 X-15.595 Y6.200
G1 X-15.595 Y-6.200
G1 X-16.200 Y-6.200
G1 X-16.200 Y0.000
G1 X-16.600 Y0.000
G1 X-16.600 Y6.600
G1 X-15.195 Y6.600
G1 X-15.195 Y-6.600
G1 X-16.600 Y-6.600
G1 X-16.600 Y0.000
G1 X-17.000 Y0.000
G1 X-17.000 Y7.000
G1 X-14.795 Y7.000
G1 X-14.795 Y-7.000
G1 X-17.000 Y-7.000
G1 X-17.000 Y0.000
G1 X-17.400 Y0.000
G1 X-17.400 Y7.400
G1 X-14.395 Y7.400
G1 X-14.395 Y-7.400
G1 X-17.400 Y-7.400
G1 X-17.400 Y0.000
G1 X-17.800 Y0.000
G1 X-17.800 Y7.800
G1 X-13.995 Y7.800
G1 X-13.995 Y-7.800
G1 X-17.800 Y-7.800
G1 X-17.800 Y0.000
G1 X-18.200 Y0.000
G1 X-18.200 Y8.200
G1 X-13.595 Y8.200
G1 X-13.595 Y-8.200
G1 X-18.200 Y-8.200
G1 X-18.200 Y0.000
G1 X-18.600 Y0.000
G1 X-18.600 Y8.600
G1 X-13.195 Y8.600
G1 X-13.195 Y-8.600
G1 X-18.600 Y-8.600
G1 X-18.600 Y0.000
G1 X-19.000 Y0.000
G1 X-19.000 Y9.000
G1 X-12.795 Y9.000
G1 X-12.795 Y-9.000
G1 X-19.000 Y-9.000
G1 X-19.000 Y0.000
G1 X-19.400 Y0.000
G1 X-19.400 Y9.400
G1 X-12.395 Y9.400
G1 X-12.395 Y-9.400
G1 X-19.400 Y-9.400
G1 X-19.400 Y0.000
G1 X-19.800 Y0.000
G1 X-19.800 Y9.800
G1 X-11.995 Y9.800
G1 X-11.995 Y-9.800
G1 X-19.800 Y-9.800
G1 X-19.800 Y0.000 Z4.700
M9
G1 Z10.000
G1 X2.800 Y0.000
G1 Z1.100
M7
G4 P150
G1 X2.805 Y0.000 Z1.100
G1 X2.805 Y9.800
G1 X-6.400 Y9.800
G1 X-6.400 Y-9.800
G1 X2.805 Y-9.800
G1 X2.805 Y0.000
G1 X2.405 Y0.000
G1 X2.405 Y9.400
G1 X-6.000 Y9.400
G1 X-6.000 Y-9.400
G1 X2.405 Y-9.400
G1 X2.405 Y0.000
G1 X2.005 Y0.000
G1 X2.005 Y9.000
G1 X-5.600 Y9.000
G1 X-5.600 Y-9.000
G1 X2.005 Y-9.000
G1 X2.005 Y0.000
G1 X1.605 Y0.000
G1 X1.605 Y8.600
G1 X-5.200 Y8.600
G1 X-5.200 Y-8.600
G1 X1.605 Y-8.600
G1 X1.605 Y0.000
G1 X1.205 Y0.000
G1 X1.205 Y8.200
G1 X-4.800 Y8.200
G1 X-4.800 Y-8.200
G1 X1.205 Y-8.200
G1 X1.205 Y0.000
G1 X0.805 Y0.000
G1 X0.805 Y7.800
G1 X-4.400 Y7.800
G1 X-4.400 Y-7.800
G1 X0.805 Y-7.800
G1 X0.805 Y0.000
G1 X0.405 Y0.000
G1 X0.405 Y7.400
G1 X-4.000 Y7.400
G1 X-4.000 Y-7.400
G1 X0.405 Y-7.400
G1 X0.405 Y0.000
G1 X0.005 Y0.000
G1 X0.005 Y7.000
G1 X-3.600 Y7.000
G1 X-3.600 Y-7.000
G1 X0.005 Y-7.000
G1 X0.005 Y0.000
G1 X-0.395 Y0.000
G1 X-0.395 Y6.600
G1 X-3.200 Y6.600
G1 X-3.200 Y-6.600
G1 X-0.395 Y-6.600
G1 X-0.395 Y0.000
G1 X-0.795 Y0.000
G1 X-0.795 Y6.200
G1 X-2.800 Y6.200
G1 X-2.800 Y-6.200
G1 X-0.795 Y-6.200
G1 X-0.795 Y0.000
G1 X-1.195 Y0.000
G1 X-1.195 Y5.800
G1 X-2.400 Y5.800
G1 X-2.400 Y-5.800
G1 X-1.195 Y-5.800
G1 X-1.195 Y0.000
G1 X-1.595 Y0.000
G1 X-1.595 Y5.400
G1 X-2.000 Y5.400
G1 X-2.000 Y-5.400
G1 X-1.595 Y-5.400
G1 X-1.595 Y0.000
G1 X-1.995 Y0.000
G1 X-0.795 Y0.000 Z1.500
G1 X-0.795 Y0.000
G1 X-0.395 Y0.000
G1 X-0.395 Y-6.600
G1 X-1.493 Y-6.600
G1 X-1.493 Y6.600
G1 X-0.395 Y6.600
G1 X-0.395 Y0.000
G1 X0.005 Y0.000
G1 X0.005 Y-7.000
G1 X-1.893 Y-7.000
G1 X-1.893 Y7.000
G1 X0.005 Y7.000
G1 X0.005 Y0.000
G1 X0.405 Y0.000
G1 X0.405 Y-7.400
G1 X-2.293 Y-7.400
G1 X-2.293 Y7.400
G1 X0.405 Y7.400
G1 X0.405 Y0.000
G1 X0.805 Y0.000
G1 X0.805 Y-7.800
G1 X-2.693 Y-7.800
G1 X-2.693 Y7.800
G1 X0.805 Y7.800
G1 X0.805 Y0.000
G1 X1.205 Y0.000
G1 X1.205 Y-8.200
G1 X-3.093 Y-8.200
G1 X-3.093 Y8.200
G1 X1.205 Y8.200
G1 X1.205 Y0.000
G1 X1.605 Y0.000
G1 X1.605 Y-8.600
G1 X-3.493 Y-8.600
G1 X-3.493 Y8.600
G1 X1.605 Y8.600
G1 X1.605 Y0.000
G1 X2.005 Y0.000
G1 X2.005 Y-9.000
G1 X-3.893 Y-9.000
G1 X-3.893 Y9.000
G1 X2.005 Y9.000
G1 X2.005 Y0.000
G1 X2.405 Y0.000
G1 X2.405 Y-9.400
G1 X-4.293 Y-9.400
G1 X-4.293 Y9.400
G1 X2.405 Y9.400
G1 X2.405 Y0.000
G1 X2.805 Y0.000
G1 X2.805 Y-9.800
G1 X-4.693 Y-9.800
G1 X-4.693 Y9.800
G1 X2.805 Y9.800
G1 X2.805 Y0.000 Z1.500
G1 X2.845 Y0.000 Z1.900
G1 X2.845 Y9.800
G1 X-4.154 Y9.800
G1 X-4.154 Y-9.800
G1 X2.845 Y-9.800
G1 X2.845 Y0.000
G1 X2.445 Y0.000
G1 X2.445 Y9.400
G1 X-3.754 Y9.400
G1 X-3.754 Y-9.400
G1 X2.445 Y-9.400
G1 X2.445 Y0.000
G1 X2.045 Y0.000
G1 X2.045 Y9.000
G1 X-3.354 Y9.000
G1 X-3.354 Y-9.000
G1 X2.045 Y-9.000
G1 X2.045 Y0.000
G1 X1.645 Y0.000
G1 X1.645 Y8.600
G1 X-2.954 Y8.600
G1 X-2.954 Y-8.600
G1 X1.645 Y-8.600
G1 X1.645 Y0.000
G1 X1.245 Y0.000
G1 X1.245 Y8.200
G1 X-2.554 Y8.200
G1 X-2.554 Y-8.200
G1 X1.245 Y-8.200
G1 X1.245 Y0.000
G1 X0.845 Y0.000
G1 X0.845 Y7.800
G1 X-2.154 Y7.800
G1 X-2.154 Y-7.800
G1 X0.845 Y-7.800
G1 X0.845 Y0.000
G1 X0.445 Y0.000
G1 X0.445 Y7.400
G1 X-1.754 Y7.400
G1 X-1.754 Y-7.400
G1 X0.445 Y-7.400
G1 X0.445 Y0.000
G1 X0.045 Y0.000
G1 X0.045 Y7.000
G1 X-1.354 Y7.000
G1 X-1.354 Y-7.000
G1 X0.045 Y-7.000
G1 X0.045 Y0.000
G1 X-0.355 Y0.000
G1 X-0.355 Y6.600
G1 X-0.954 Y6.600
G1 X-0.954 Y-6.600
G1 X-0.355 Y-6.600
G1 X-0.355 Y0.000
G1 X-0.755 Y0.000
M9
G1 Z10.000
G1 X0.000 Y1.000
G1 Z2.300
M7
G4 P150
G1 X0.000 Y1.000 Z2.300
G1 X2.927 Y1.000
G1 X2.927 Y9.800
G1 X-3.760 Y9.800
G1 X-3.760 Y1.000
G1 X-0.000 Y1.000
G1 X0.000 Y1.400
G1 X2.527 Y1.400
G1 X2.527 Y9.400
G1 X-3.360 Y9.400
G1 X-3.360 Y1.400
G1 X0.000 Y1.400
G1 X0.000 Y1.800
G1 X2.127 Y1.800
G1 X2.127 Y9.000
G1 X-2.960 Y9.000
G1 X-2.960 Y1.800
G1 X-0.000 Y1.800
G1 X0.000 Y2.200
G1 X1.727 Y2.200
G1 X1.727 Y8.600
G1 X-2.560 Y8.600
G1 X-2.560 Y2.200
G1 X0.000 Y2.200
G1 X0.000 Y2.600
G1 X1.327 Y2.600
G1 X1.327 Y8.200
G1 X-2.160 Y8.200
G1 X-2.160 Y2.600
G1 X0.000 Y2.600
G1 X0.000 Y3.000
G1 X0.927 Y3.000
G1 X0.927 Y7.800
G1 X-1.760 Y7.800
G1 X-1.760 Y3.000
G1 X0.000 Y3.000
G1 X0.000 Y3.400
G1 X0.527 Y3.400
G1 X0.527 Y7.400
G1 X-1.360 Y7.400
G1 X-1.360 Y3.400
G1 X0.000 Y3.400
G1 X0.000 Y3.800
G1 X0.000 Y3.800 Z2.700
G1 X0.000 Y3.800
G1 X0.000 Y3.400
G1 X-1.059 Y3.400
G1 X-1.059 Y7.400
G1 X0.653 Y7.400
G1 X0.653 Y3.400
G1 X0.000 Y3.400
G1 X0.000 Y3.000
G1 X-1.459 Y3.000
G1 X-1.459 Y7.800
G1 X1.053 Y7.800
G1 X1.053 Y3.000
G1 X0.000 Y3.000
G1 X0.000 Y2.600
G1 X-1.859 Y2.600
G1 X-1.859 Y8.200
G1 X1.453 Y8.200
G1 X1.453 Y2.600
G1 X0.000 Y2.600
G1 X0.000 Y2.200
G1 X-2.259 Y2.200
G1 X-2.259 Y8.600
G1 X1.853 Y8.600
G1 X1.853 Y2.200
G1 X0.000 Y2.200
G1 X0.000 Y1.800
G1 X-2.659 Y1.800
G1 X-2.659 Y9.000
G1 X2.253 Y9.000
G1 X2.253 Y1.800
G1 X0.000 Y1.800
G1 X0.000 Y1.400
G1 X-3.059 Y1.400
G1 X-3.059 Y9.400
G1 X2.653 Y9.400
G1 X2.653 Y1.400
G1 X0.000 Y1.400
G1 X0.000 Y1.000
G1 X-3.459 Y1.000
G1 X-3.459 Y9.800
G1 X3.053 Y9.800
G1 X3.053 Y1.000
G1 X0.000 Y1.000 Z2.700
M9
G1 Z10.000
G1 X0.000 Y-1.000
G1 Z2.300
M7
G4 P150
G1 X0.000 Y-1.000 Z2.300
G1 X-3.760 Y-1.000
G1 X-3.760 Y-9.800
G1 X2.927 Y-9.800
G1 X2.927 Y-1.000
G1 X0.000 Y-1.000
G1 X0.000 Y-1.400
G1 X-3.360 Y-1.400
G1 X-3.360 Y-9.400
G1 X2.527 Y-9.400
G1 X2.527 Y-1.400
G1 X-0.000 Y-1.400
G1 X0.000 Y-1.800
G1 X-2.960 Y-1.800
G1 X-2.960 Y-9.000
G1 X2.127 Y-9.000
G1 X2.127 Y-1.800
G1 X0.000 Y-1.800
G1 X0.000 Y-2.200
G1 X-2.560 Y-2.200
G1 X-2.560 Y-8.600
G1 X1.727 Y-8.600
G1 X1.727 Y-2.200
G1 X-0.000 Y-2.200
G1 X0.000 Y-2.600
G1 X-2.160 Y-2.600
G1 X-2.160 Y-8.200
G1 X1.327 Y-8.200
G1 X1.327 Y-2.600
G1 X0.000 Y-2.600
G1 X0.000 Y-3.000
G1 X-1.760 Y-3.000
G1 X-1.760 Y-7.800
G1 X0.927 Y-7.800
G1 X0.927 Y-3.000
G1 X0.000 Y-3.000
G1 X0.000 Y-3.400
G1 X-1.360 Y-3.400
G1 X-1.360 Y-7.400
G1 X0.527 Y-7.400
G1 X0.527 Y-3.400
G1 X0.000 Y-3.400
G1 X0.000 Y-3.800
G1 X0.000 Y-3.800 Z2.700
G1 X0.000 Y-3.800
G1 X0.000 Y-3.400
G1 X0.653 Y-3.400
G1 X0.653 Y-7.400
G1 X-1.059 Y-7.400
G1 X-1.059 Y-3.400
G1 X0.000 Y-3.400
G1 X0.000 Y-3.000
G1 X1.053 Y-3.000
G1 X1.053 Y-7.800
G1 X-1.459 Y-7.800
G1 X-1.459 Y-3.000
G1 X0.000 Y-3.000
G1 X0.000 Y-2.600
G1 X1.453 Y-2.600
G1 X1.453 Y-8.200
G1 X-1.859 Y-8.200
G1 X-1.859 Y-2.600
G1 X0.000 Y-2.600
G1 X0.000 Y-2.200
G1 X1.853 Y-2.200
G1 X1.853 Y-8.600
G1 X-2.259 Y-8.600
G1 X-2.259 Y-2.200
G1 X0.000 Y-2.200
G1 X0.000 Y-1.800
G1 X2.253 Y-1.800
G1 X2.253 Y-9.000
G1 X-2.659 Y-9.000
G1 X-2.659 Y-1.800
G1 X0.000 Y-1.800
G1 X0.000 Y-1.400
G1 X2.653 Y-1.400
G1 X2.653 Y-9.400
G1 X-3.059 Y-9.400
G1 X-3.059 Y-1.400
G1 X0.000 Y-1.400
G1 X0.000 Y-1.000
G1 X3.053 Y-1.000
G1 X3.053 Y-9.800
G1 X-3.459 Y-9.800
G1 X-3.459 Y-1.000
G1 X0.000 Y-1.000 Z2.700

;Finish
M9
G1 Z10.000
G28 X-100 Y-100;Home