;layer_height = 0.4
;line_width = 0.4
;layer_count = 10
;mesh = base_double_together
G21 ;start of the code
G1 Z15 F300
G28 X0 Y0 ;Home
G92 X0 Y0 ;Consider this as current
G0 X50 Y50 F3000 ;Go-to Offset
G92 X0 Y0 ;Reset

G0 F3600 X-16.800 Y0.000 Z0.300 ;Go to start position
M7
G4 P150


G1 X-16.800 Y0.000 Z0.300
G1 X-16.800 Y-9.800
G1 X-6.000 Y-9.800
G1 X-6.000 Y9.800
G1 X-16.800 Y9.800
G1 X-16.800 Y0.000
G1 X-16.400 Y0.000
G1 X-16.400 Y-9.400
G1 X-6.400 Y-9.400
G1 X-6.400 Y9.400
G1 X-16.400 Y9.400
G1 X-16.400 Y0.000
G1 X-16.000 Y0.000
G1 X-16.000 Y-9.000
G1 X-6.800 Y-9.000
G1 X-6.800 Y9.000
G1 X-16.000 Y9.000
G1 X-16.000 Y0.000
G1 X-15.600 Y0.000
G1 X-15.600 Y-8.600
G1 X-7.200 Y-8.600
G1 X-7.200 Y8.600
G1 X-15.600 Y8.600
G1 X-15.600 Y0.000
G1 X-15.200 Y0.000
G1 X-15.200 Y-8.200
G1 X-7.600 Y-8.200
G1 X-7.600 Y8.200
G1 X-15.200 Y8.200
G1 X-15.200 Y0.000
G1 X-14.800 Y0.000
G1 X-14.800 Y-7.800
G1 X-8.000 Y-7.800
G1 X-8.000 Y7.800
G1 X-14.800 Y7.800
G1 X-14.800 Y0.000
G1 X-14.400 Y0.000
G1 X-14.400 Y-7.400
G1 X-8.400 Y-7.400
G1 X-8.400 Y7.400
G1 X-14.400 Y7.400
G1 X-14.400 Y0.000
G1 X-14.000 Y0.000
G1 X-14.000 Y-7.000
G1 X-8.800 Y-7.000
G1 X-8.800 Y7.000
G1 X-14.000 Y7.000
G1 X-14.000 Y0.000
G1 X-13.600 Y0.000
G1 X-13.600 Y-6.600
G1 X-9.200 Y-6.600
G1 X-9.200 Y6.600
G1 X-13.600 Y6.600
G1 X-13.600 Y0.000
G1 X-13.200 Y0.000
G1 X-13.200 Y-6.200
G1 X-9.600 Y-6.200
G1 X-9.600 Y6.200
G1 X-13.200 Y6.200
G1 X-13.200 Y0.000
G1 X-12.800 Y0.000
G1 X-12.800 Y-5.800
G1 X-10.000 Y-5.800
G1 X-10.000 Y5.800
G1 X-12.800 Y5.800
G1 X-12.800 Y0.000
G1 X-12.400 Y0.000
G1 X-12.400 Y-5.400
G1 X-10.400 Y-5.400
G1 X-10.400 Y5.400
G1 X-12.400 Y5.400
G1 X-12.400 Y0.000
G1 X-12.000 Y0.000
G1 X-12.000 Y-5.000
G1 X-10.800 Y-5.000
G1 X-10.800 Y5.000
G1 X-12.000 Y5.000
G1 X-12.000 Y0.000
G1 X-11.600 Y0.000
G1 X-11.600 Y0.000 Z0.700
G1 X-11.600 Y0.000
G1 X-12.000 Y0.000
G1 X-12.000 Y5.000
G1 X-10.800 Y5.000
G1 X-10.800 Y-5.000
G1 X-12.000 Y-5.000
G1 X-12.000 Y0.000
G1 X-12.400 Y0.000
G1 X-12.400 Y5.400
G1 X-10.400 Y5.400
G1 X-10.400 Y-5.400
G1 X-12.400 Y-5.400
G1 X-12.400 Y0.000
G1 X-12.800 Y0.000
G1 X-12.800 Y5.800
G1 X-10.000 Y5.800
G1 X-10.000 Y-5.800
G1 X-12.800 Y-5.800
G1 X-12.800 Y0.000
G1 X-13.200 Y0.000
G1 X-13.200 Y6.200
G1 X-9.600 Y6.200
G1 X-9.600 Y-6.200
G1 X-13.200 Y-6.200
G1 X-13.200 Y0.000
G1 X-13.600 Y0.000
G1 X-13.600 Y6.600
G1 X-9.200 Y6.600
G1 X-9.200 Y-6.600
G1 X-13.600 Y-6.600
G1 X-13.600 Y0.000
G1 X-14.000 Y0.000
G1 X-14.000 Y7.000
G1 X-8.800 Y7.000
G1 X-8.800 Y-7.000
G1 X-14.000 Y-7.000
G1 X-14.000 Y0.000
G1 X-14.400 Y0.000
G1 X-14.400 Y7.400
G1 X-8.400 Y7.400
G1 X-8.400 Y-7.400
G1 X-14.400 Y-7.400
G1 X-14.400 Y0.000
G1 X-14.800 Y0.000
G1 X-14.800 Y7.800
G1 X-8.000 Y7.800
G1 X-8.000 Y-7.800
G1 X-14.800 Y-7.800
G1 X-14.800 Y0.000
G1 X-15.200 Y0.000
G1 X-15.200 Y8.200
G1 X-7.600 Y8.200
G1 X-7.600 Y-8.200
G1 X-15.200 Y-8.200
G1 X-15.200 Y0.000
G1 X-15.600 Y0.000
G1 X-15.600 Y8.600
G1 X-7.200 Y8.600
G1 X-7.200 Y-8.600
G1 X-15.600 Y-8.600
G1 X-15.600 Y0.000
G1 X-16.000 Y0.000
G1 X-16.000 Y9.000
G1 X-6.800 Y9.000
G1 X-6.800 Y-9.000
G1 X-16.000 Y-9.000
G1 X-16.000 Y0.000
G1 X-16.400 Y0.000
G1 X-16.400 Y9.400
G1 X-6.400 Y9.400
G1 X-6.400 Y-9.400
G1 X-16.400 Y-9.400
G1 X-16.400 Y0.000
G1 X-16.800 Y0.000
G1 X-16.800 Y9.800
G1 X-6.000 Y9.800
G1 X-6.000 Y-9.800
G1 X-16.800 Y-9.800
G1 X-16.800 Y0.000 Z0.700
M9
G1 Z10.000
G1 X-4.600 Y0.000
G1 Z0.300
M7
G4 P150
G1 X-4.600 Y0.000 Z0.300
G1 X-4.600 Y-9.800
G1 X4.600 Y-9.800
G1 X4.600 Y9.800
G1 X-4.600 Y9.800
G1 X-4.600 Y0.000
G1 X-4.200 Y0.000
G1 X-4.200 Y-9.400
G1 X4.200 Y-9.400
G1 X4.200 Y9.400
G1 X-4.200 Y9.400
G1 X-4.200 Y0.000
G1 X-3.800 Y0.000
G1 X-3.800 Y-9.000
G1 X3.800 Y-9.000
G1 X3.800 Y9.000
G1 X-3.800 Y9.000
G1 X-3.800 Y0.000
G1 X-3.400 Y0.000
G1 X-3.400 Y-8.600
G1 X3.400 Y-8.600
G1 X3.400 Y8.600
G1 X-3.400 Y8.600
G1 X-3.400 Y0.000
G1 X-3.000 Y0.000
G1 X-3.000 Y-8.200
G1 X3.000 Y-8.200
G1 X3.000 Y8.200
G1 X-3.000 Y8.200
G1 X-3.000 Y0.000
G1 X-2.600 Y0.000
G1 X-2.600 Y-7.800
G1 X2.600 Y-7.800
G1 X2.600 Y7.800
G1 X-2.600 Y7.800
G1 X-2.600 Y0.000
G1 X-2.200 Y0.000
G1 X-2.200 Y-7.400
G1 X2.200 Y-7.400
G1 X2.200 Y7.400
G1 X-2.200 Y7.400
G1 X-2.200 Y0.000
G1 X-1.800 Y0.000
G1 X-1.800 Y-7.000
G1 X1.800 Y-7.000
G1 X1.800 Y7.000
G1 X-1.800 Y7.000
G1 X-1.800 Y0.000
G1 X-1.400 Y0.000
G1 X-1.400 Y-6.600
G1 X1.400 Y-6.600
G1 X1.400 Y6.600
G1 X-1.400 Y6.600
G1 X-1.400 Y0.000
G1 X-1.000 Y0.000
G1 X-1.000 Y-6.200
G1 X1.000 Y-6.200
G1 X1.000 Y6.200
G1 X-1.000 Y6.200
G1 X-1.000 Y0.000
G1 X-0.600 Y0.000
G1 X-0.600 Y-5.800
G1 X0.600 Y-5.800
G1 X0.600 Y5.800
G1 X-0.600 Y5.800
G1 X-0.600 Y0.000
G1 X-0.200 Y0.000
G1 X-0.200 Y-5.400
G1 X0.200 Y-5.400
G1 X0.200 Y5.400
G1 X-0.200 Y5.400
G1 X-0.200 Y0.000
G1 X0.200 Y0.000
G1 X0.200 Y0.000 Z0.700
G1 X0.200 Y0.000
G1 X-0.200 Y0.000
G1 X-0.200 Y5.400
G1 X0.200 Y5.400
G1 X0.200 Y-5.400
G1 X-0.200 Y-5.400
G1 X-0.200 Y0.000
G1 X-0.600 Y0.000
G1 X-0.600 Y5.800
G1 X0.600 Y5.800
G1 X0.600 Y-5.800
G1 X-0.600 Y-5.800
G1 X-0.600 Y0.000
G1 X-1.000 Y0.000
G1 X-1.000 Y6.200
G1 X1.000 Y6.200
G1 X1.000 Y-6.200
G1 X-1.000 Y-6.200
G1 X-1.000 Y0.000
G1 X-1.400 Y0.000
G1 X-1.400 Y6.600
G1 X1.400 Y6.600
G1 X1.400 Y-6.600
G1 X-1.400 Y-6.600
G1 X-1.400 Y0.000
G1 X-1.800 Y0.000
G1 X-1.800 Y7.000
G1 X1.800 Y7.000
G1 X1.800 Y-7.000
G1 X-1.800 Y-7.000
G1 X-1.800 Y0.000
G1 X-2.200 Y0.000
G1 X-2.200 Y7.400
G1 X2.200 Y7.400
G1 X2.200 Y-7.400
G1 X-2.200 Y-7.400
G1 X-2.200 Y0.000
G1 X-2.600 Y0.000
G1 X-2.600 Y7.800
G1 X2.600 Y7.800
G1 X2.600 Y-7.800
G1 X-2.600 Y-7.800
G1 X-2.600 Y0.000
G1 X-3.000 Y0.000
G1 X-3.000 Y8.200
G1 X3.000 Y8.200
G1 X3.000 Y-8.200
G1 X-3.000 Y-8.200
G1 X-3.000 Y0.000
G1 X-3.400 Y0.000
G1 X-3.400 Y8.600
G1 X3.400 Y8.600
G1 X3.400 Y-8.600
G1 X-3.400 Y-8.600
G1 X-3.400 Y0.000
G1 X-3.800 Y0.000
G1 X-3.800 Y9.000
G1 X3.800 Y9.000
G1 X3.800 Y-9.000
G1 X-3.800 Y-9.000
G1 X-3.800 Y0.000
G1 X-4.200 Y0.000
G1 X-4.200 Y9.400
G1 X4.200 Y9.400
G1 X4.200 Y-9.400
G1 X-4.200 Y-9.400
G1 X-4.200 Y0.000
G1 X-4.600 Y0.000
G1 X-4.600 Y9.800
G1 X4.600 Y9.800
G1 X4.600 Y-9.800
G1 X-4.600 Y-9.800
G1 X-4.600 Y0.000 Z0.700
M9
G1 Z10.000
G1 X16.800 Y0.000
G1 Z0.300
M7
G4 P150
G1 X16.800 Y0.000 Z0.300
G1 X16.800 Y9.800
G1 X6.000 Y9.800
G1 X6.000 Y-9.800
G1 X16.800 Y-9.800
G1 X16.800 Y0.000
G1 X16.400 Y0.000
G1 X16.400 Y9.400
G1 X6.400 Y9.400
G1 X6.400 Y-9.400
G1 X16.400 Y-9.400
G1 X16.400 Y0.000
G1 X16.000 Y0.000
G1 X16.000 Y9.000
G1 X6.800 Y9.000
G1 X6.800 Y-9.000
G1 X16.000 Y-9.000
G1 X16.000 Y0.000
G1 X15.600 Y0.000
G1 X15.600 Y8.600
G1 X7.200 Y8.600
G1 X7.200 Y-8.600
G1 X15.600 Y-8.600
G1 X15.600 Y0.000
G1 X15.200 Y0.000
G1 X15.200 Y8.200
G1 X7.600 Y8.200
G1 X7.600 Y-8.200
G1 X15.200 Y-8.200
G1 X15.200 Y0.000
G1 X14.800 Y0.000
G1 X14.800 Y7.800
G1 X8.000 Y7.800
G1 X8.000 Y-7.800
G1 X14.800 Y-7.800
G1 X14.800 Y0.000
G1 X14.400 Y0.000
G1 X14.400 Y7.400
G1 X8.400 Y7.400
G1 X8.400 Y-7.400
G1 X14.400 Y-7.400
G1 X14.400 Y0.000
G1 X14.000 Y0.000
G1 X14.000 Y7.000
G1 X8.800 Y7.000
G1 X8.800 Y-7.000
G1 X14.000 Y-7.000
G1 X14.000 Y0.000
G1 X13.600 Y0.000
G1 X13.600 Y6.600
G1 X9.200 Y6.600
G1 X9.200 Y-6.600
G1 X13.600 Y-6.600
G1 X13.600 Y0.000
G1 X13.200 Y0.000
G1 X13.200 Y6.200
G1 X9.600 Y6.200
G1 X9.600 Y-6.200
G1 X13.200 Y-6.200
G1 X13.200 Y0.000
G1 X12.800 Y0.000
G1 X12.800 Y5.800
G1 X10.000 Y5.800
G1 X10.000 Y-5.800
G1 X12.800 Y-5.800
G1 X12.800 Y0.000
G1 X12.400 Y0.000
G1 X12.400 Y5.400
G1 X10.400 Y5.400
G1 X10.400 Y-5.400
G1 X12.400 Y-5.400
G1 X12.400 Y0.000
G1 X12.000 Y0.000
G1 X12.000 Y5.000
G1 X10.800 Y5.000
G1 X10.800 Y-5.000
G1 X12.000 Y-5.000
G1 X12.000 Y0.000
G1 X11.600 Y0.000
G1 X11.600 Y0.000 Z0.700
G1 X11.600 Y0.000
G1 X12.000 Y0.000
G1 X12.000 Y-5.000
G1 X10.800 Y-5.000
G1 X10.800 Y5.000
G1 X12.000 Y5.000
G1 X12.000 Y0.000
G1 X12.400 Y0.000
G1 X12.400 Y-5.400
G1 X10.400 Y-5.400
G1 X10.400 Y5.400
G1 X12.400 Y5.400
G1 X12.400 Y0.000
G1 X12.800 Y0.000
G1 X12.800 Y-5.800
G1 X10.000 Y-5.800
G1 X10.000 Y5.800
G1 X12.800 Y5.800
G1 X12.800 Y0.000
G1 X13.200 Y0.000
G1 X13.200 Y-6.200
G1 X9.600 Y-6.200
G1 X9.600 Y6.200
G1 X13.200 Y6.200
G1 X13.200 Y0.000
G1 X13.600 Y0.000
G1 X13.600 Y-6.600
G1 X9.200 Y-6.600
G1 X9.200 Y6.600
G1 X13.600 Y6.600
G1 X13.600 Y0.000
G1 X14.000 Y0.000
G1 X14.000 Y-7.000
G1 X8.800 Y-7.000
G1 X8.800 Y7.000
G1 X14.000 Y7.000
G1 X14.000 Y0.000
G1 X14.400 Y0.000
G1 X14.400 Y-7.400
G1 X8.400 Y-7.400
G1 X8.400 Y7.400
G1 X14.400 Y7.400
G1 X14.400 Y0.000
G1 X14.800 Y0.000
G1 X14.800 Y-7.800
G1 X8.000 Y-7.800
G1 X8.000 Y7.800
G1 X14.800 Y7.800
G1 X14.800 Y0.000
G1 X15.200 Y0.000
G1 X15.200 Y-8.200
G1 X7.600 Y-8.200
G1 X7.600 Y8.200
G1 X15.200 Y8.200
G1 X15.200 Y0.000
G1 X15.600 Y0.000
G1 X15.600 Y-8.600
G1 X7.200 Y-8.600
G1 X7.200 Y8.600
G1 X15.600 Y8.600
G1 X15.600 Y0.000
G1 X16.000 Y0.000
G1 X16.000 Y-9.000
G1 X6.800 Y-9.000
G1 X6.800 Y9.000
G1 X16.000 Y9.000
G1 X16.000 Y0.000
G1 X16.400 Y0.000
G1 X16.400 Y-9.400
G1 X6.400 Y-9.400
G1 X6.400 Y9.400
G1 X16.400 Y9.400
G1 X16.400 Y0.000
G1 X16.800 Y0.000
G1 X16.800 Y-9.800
G1 X6.000 Y-9.800
G1 X6.000 Y9.800
G1 X16.800 Y9.800
G1 X16.800 Y0.000 Z0.700
M9
G1 Z10.000
G1 X-16.800 Y-10.000
G1 Z1.100
M7
G4 P150
G1 X16.800 Y-10.000
G1 X16.800 Y-9.600
G4 P5
G1 X-16.800 Y-9.600
G4 P5
G1 X-16.800 Y-9.200
G4 P5
G1 X16.800 Y-9.200
G4 P5
G1 X16.800 Y-8.800
G4 P5
G1 X-16.800 Y-8.800
G4 P5
G1 X-16.800 Y-8.400
G4 P5
G1 X16.800 Y-8.400
G4 P5
G1 X16.800 Y-8.000
G4 P5
G1 X-16.800 Y-8.000
G4 P5
G1 X-16.800 Y-7.600
G4 P5
G1 X16.800 Y-7.600
G4 P5
G1 X16.800 Y-7.200
G4 P5
G1 X-16.800 Y-7.200
G4 P5
G1 X-16.800 Y-6.800
G4 P5
G1 X16.800 Y-6.800
G4 P5
G1 X16.800 Y-6.400
G4 P5
G1 X-16.800 Y-6.400
G4 P5
G1 X-16.800 Y-6.000
G4 P5
G1 X16.800 Y-6.000
G4 P5
G1 X16.800 Y-5.600
G4 P5
G1 X-16.800 Y-5.600
G4 P5
G1 X-16.800 Y-5.200
G4 P5
G1 X16.800 Y-5.200
G4 P5
G1 X16.800 Y-4.800
G4 P5
G1 X-16.800 Y-4.800
G4 P5
G1 X-16.800 Y-4.400
G4 P5
G1 X16.800 Y-4.400
G4 P5
G1 X16.800 Y-4.000
G4 P5
G1 X-16.800 Y-4.000
G4 P5
G1 X-16.800 Y-3.600
G4 P5
G1 X16.800 Y-3.600
G4 P5
G1 X16.800 Y-3.200
G4 P5
G1 X-16.800 Y-3.200
G4 P5
G1 X-16.800 Y-2.800
G4 P5
G1 X16.800 Y-2.800
G4 P5
G1 X16.800 Y-2.400
G4 P5
G1 X-16.800 Y-2.400
G4 P5
G1 X-16.800 Y-2.000
G4 P5
G1 X16.800 Y-2.000
G4 P5
G1 X16.800 Y-1.600
G4 P5
G1 X-16.800 Y-1.600
G4 P5
G1 X-16.800 Y-1.200
G4 P5
G1 X16.800 Y-1.200
G4 P5
G1 X16.800 Y-0.800
G4 P5
G1 X-16.800 Y-0.800
G4 P5
G1 X-16.800 Y-0.400
G4 P5
G1 X16.800 Y-0.400
G4 P5
G1 X16.800 Y0.000
G4 P5
G1 X-16.800 Y0.000
G4 P5
G1 X-16.800 Y0.400
G4 P5
G1 X16.800 Y0.400
G4 P5
G1 X16.800 Y0.800
G4 P5
G1 X-16.800 Y0.800
G4 P5
G1 X-16.800 Y1.200
G4 P5
G1 X16.800 Y1.200
G4 P5
G1 X16.800 Y1.600
G4 P5
G1 X-16.800 Y1.600
G4 P5
G1 X-16.800 Y2.000
G4 P5
G1 X16.800 Y2.000
G4 P5
G1 X16.800 Y2.400
G4 P5
G1 X-16.800 Y2.400
G4 P5
G1 X-16.800 Y2.800
G4 P5
G1 X16.800 Y2.800
G4 P5
G1 X16.800 Y3.200
G4 P5
G1 X-16.800 Y3.200
G4 P5
G1 X-16.800 Y3.600
G4 P5
G1 X16.800 Y3.600
G4 P5
G1 X16.800 Y4.000
G4 P5
G1 X-16.800 Y4.000
G4 P5
G1 X-16.800 Y4.400
G4 P5
G1 X16.800 Y4.400
G4 P5
G1 X16.800 Y4.800
G4 P5
G1 X-16.800 Y4.800
G4 P5
G1 X-16.800 Y5.200
G4 P5
G1 X16.800 Y5.200
G4 P5
G1 X16.800 Y5.600
G4 P5
G1 X-16.800 Y5.600
G4 P5
G1 X-16.800 Y6.000
G4 P5
G1 X16.800 Y6.000
G4 P5
G1 X16.800 Y6.400
G4 P5
G1 X-16.800 Y6.400
G4 P5
G1 X-16.800 Y6.800
G4 P5
G1 X16.800 Y6.800
G4 P5
G1 X16.800 Y7.200
G4 P5
G1 X-16.800 Y7.200
G4 P5
G1 X-16.800 Y7.600
G4 P5
G1 X16.800 Y7.600
G4 P5
G1 X16.800 Y8.000
G4 P5
G1 X-16.800 Y8.000
G4 P5
G1 X-16.800 Y8.400
G4 P5
G1 X16.800 Y8.400
G4 P5
G1 X16.800 Y8.800
G4 P5
G1 X-16.800 Y8.800
G4 P5
G1 X-16.800 Y9.200
G4 P5
G1 X16.800 Y9.200
G4 P5
G1 X16.800 Y9.600
G4 P5
G1 X-16.800 Y9.600
G4 P5
G1 X-16.800 Y10.000
G4 P5
G1 X16.800 Y10.000
G4 P5
M9
G1 Z10.000
G1 X-16.800 Y0.000
G1 Z1.500
M7
G4 P150
G1 X-16.800 Y0.000 Z1.500
G1 X-16.800 Y-9.800
G1 X-7.249 Y-9.800
G1 X-7.249 Y9.800
G1 X-16.800 Y9.800
G1 X-16.800 Y0.000
G1 X-16.400 Y0.000
G1 X-16.400 Y-9.400
G1 X-7.649 Y-9.400
G1 X-7.649 Y9.400
G1 X-16.400 Y9.400
G1 X-16.400 Y0.000
G1 X-16.000 Y0.000
G1 X-16.000 Y-9.000
G1 X-8.049 Y-9.000
G1 X-8.049 Y9.000
G1 X-16.000 Y9.000
G1 X-16.000 Y0.000
G1 X-15.600 Y0.000
G1 X-15.600 Y-8.600
G1 X-8.449 Y-8.600
G1 X-8.449 Y8.600
G1 X-15.600 Y8.600
G1 X-15.600 Y0.000
G1 X-15.200 Y0.000
G1 X-15.200 Y-8.200
G1 X-8.849 Y-8.200
G1 X-8.849 Y8.200
G1 X-15.200 Y8.200
G1 X-15.200 Y0.000
G1 X-14.800 Y0.000
G1 X-14.800 Y-7.800
G1 X-9.249 Y-7.800
G1 X-9.249 Y7.800
G1 X-14.800 Y7.800
G1 X-14.800 Y0.000
G1 X-14.400 Y0.000
G1 X-14.400 Y-7.400
G1 X-9.649 Y-7.400
G1 X-9.649 Y7.400
G1 X-14.400 Y7.400
G1 X-14.400 Y0.000
G1 X-14.000 Y0.000
G1 X-14.000 Y-7.000
G1 X-10.049 Y-7.000
G1 X-10.049 Y7.000
G1 X-14.000 Y7.000
G1 X-14.000 Y0.000
G1 X-13.600 Y0.000
G1 X-13.600 Y-6.600
G1 X-10.449 Y-6.600
G1 X-10.449 Y6.600
G1 X-13.600 Y6.600
G1 X-13.600 Y0.000
G1 X-13.200 Y0.000
G1 X-13.200 Y-6.200
G1 X-10.849 Y-6.200
G1 X-10.849 Y6.200
G1 X-13.200 Y6.200
G1 X-13.200 Y0.000
G1 X-12.800 Y0.000
G1 X-12.800 Y-5.800
G1 X-11.249 Y-5.800
G1 X-11.249 Y5.800
G1 X-12.800 Y5.800
G1 X-12.800 Y0.000
G1 X-12.400 Y0.000
G1 X-12.400 Y-5.400
G1 X-11.649 Y-5.400
G1 X-11.649 Y5.400
G1 X-12.400 Y5.400
G1 X-12.400 Y0.000
G1 X-12.000 Y0.000
G1 X-12.400 Y0.000 Z1.900
G1 X-12.400 Y0.000
G1 X-12.800 Y0.000
G1 X-12.800 Y5.800
G1 X-12.107 Y5.800
G1 X-12.107 Y-5.800
G1 X-12.800 Y-5.800
G1 X-12.800 Y0.000
G1 X-13.200 Y0.000
G1 X-13.200 Y6.200
G1 X-11.707 Y6.200
G1 X-11.707 Y-6.200
G1 X-13.200 Y-6.200
G1 X-13.200 Y0.000
G1 X-13.600 Y0.000
G1 X-13.600 Y6.600
G1 X-11.307 Y6.600
G1 X-11.307 Y-6.600
G1 X-13.600 Y-6.600
G1 X-13.600 Y0.000
G1 X-14.000 Y0.000
G1 X-14.000 Y7.000
G1 X-10.907 Y7.000
G1 X-10.907 Y-7.000
G1 X-14.000 Y-7.000
G1 X-14.000 Y0.000
G1 X-14.400 Y0.000
G1 X-14.400 Y7.400
G1 X-10.507 Y7.400
G1 X-10.507 Y-7.400
G1 X-14.400 Y-7.400
G1 X-14.400 Y0.000
G1 X-14.800 Y0.000
G1 X-14.800 Y7.800
G1 X-10.107 Y7.800
G1 X-10.107 Y-7.800
G1 X-14.800 Y-7.800
G1 X-14.800 Y0.000
G1 X-15.200 Y0.000
G1 X-15.200 Y8.200
G1 X-9.707 Y8.200
G1 X-9.707 Y-8.200
G1 X-15.200 Y-8.200
G1 X-15.200 Y0.000
G1 X-15.600 Y0.000
G1 X-15.600 Y8.600
G1 X-9.307 Y8.600
G1 X-9.307 Y-8.600
G1 X-15.600 Y-8.600
G1 X-15.600 Y0.000
G1 X-16.000 Y0.000
G1 X-16.000 Y9.000
G1 X-8.907 Y9.000
G1 X-8.907 Y-9.000
G1 X-16.000 Y-9.000
G1 X-16.000 Y0.000
G1 X-16.400 Y0.000
G1 X-16.400 Y9.400
G1 X-8.507 Y9.400
G1 X-8.507 Y-9.400
G1 X-16.400 Y-9.400
G1 X-16.400 Y0.000
G1 X-16.800 Y0.000
G1 X-16.800 Y9.800
G1 X-8.107 Y9.800
G1 X-8.107 Y-9.800
G1 X-16.800 Y-9.800
G1 X-16.800 Y0.000 Z1.900
G1 X-16.800 Y0.000 Z2.300
G1 X-16.800 Y-9.800
G1 X-8.646 Y-9.800
G1 X-8.646 Y9.800
G1 X-16.800 Y9.800
G1 X-16.800 Y0.000
G1 X-16.400 Y0.000
G1 X-16.400 Y-9.400
G1 X-9.046 Y-9.400
G1 X-9.046 Y9.400
G1 X-16.400 Y9.400
G1 X-16.400 Y0.000
G1 X-16.000 Y0.000
G1 X-16.000 Y-9.000
G1 X-9.446 Y-9.000
G1 X-9.446 Y9.000
G1 X-16.000 Y9.000
G1 X-16.000 Y0.000
G1 X-15.600 Y0.000
G1 X-15.600 Y-8.600
G1 X-9.846 Y-8.600
G1 X-9.846 Y8.600
G1 X-15.600 Y8.600
G1 X-15.600 Y0.000
G1 X-15.200 Y0.000
G1 X-15.200 Y-8.200
G1 X-10.246 Y-8.200
G1 X-10.246 Y8.200
G1 X-15.200 Y8.200
G1 X-15.200 Y0.000
G1 X-14.800 Y0.000
G1 X-14.800 Y-7.800
G1 X-10.646 Y-7.800
G1 X-10.646 Y7.800
G1 X-14.800 Y7.800
G1 X-14.800 Y0.000
G1 X-14.400 Y0.000
G1 X-14.400 Y-7.400
G1 X-11.046 Y-7.400
G1 X-11.046 Y7.400
G1 X-14.400 Y7.400
G1 X-14.400 Y0.000
G1 X-14.000 Y0.000
G1 X-14.000 Y-7.000
G1 X-11.446 Y-7.000
G1 X-11.446 Y7.000
G1 X-14.000 Y7.000
G1 X-14.000 Y0.000
G1 X-13.600 Y0.000
G1 X-13.600 Y-6.600
G1 X-11.846 Y-6.600
G1 X-11.846 Y6.600
G1 X-13.600 Y6.600
G1 X-13.600 Y0.000
G1 X-13.200 Y0.000
G1 X-13.200 Y-6.200
G1 X-12.246 Y-6.200
G1 X-12.246 Y6.200
G1 X-13.200 Y6.200
G1 X-13.200 Y0.000
G1 X-12.800 Y0.000
G1 X-12.800 Y0.000 Z2.700
G1 X-12.800 Y0.000
G1 X-13.200 Y0.000
G1 X-13.200 Y6.200
G1 X-12.640 Y6.200
G1 X-12.640 Y-6.200
G1 X-13.200 Y-6.200
G1 X-13.200 Y0.000
G1 X-13.600 Y0.000
G1 X-13.600 Y6.600
G1 X-12.240 Y6.600
G1 X-12.240 Y-6.600
G1 X-13.600 Y-6.600
G1 X-13.600 Y0.000
G1 X-14.000 Y0.000
G1 X-14.000 Y7.000
G1 X-11.840 Y7.000
G1 X-11.840 Y-7.000
G1 X-14.000 Y-7.000
G1 X-14.000 Y0.000
G1 X-14.400 Y0.000
G1 X-14.400 Y7.400
G1 X-11.440 Y7.400
G1 X-11.440 Y-7.400
G1 X-14.400 Y-7.400
G1 X-14.400 Y0.000
G1 X-14.800 Y0.000
G1 X-14.800 Y7.800
G1 X-11.040 Y7.800
G1 X-11.040 Y-7.800
G1 X-14.800 Y-7.800
G1 X-14.800 Y0.000
G1 X-15.200 Y0.000
G1 X-15.200 Y8.200
G1 X-10.640 Y8.200
G1 X-10.640 Y-8.200
G1 X-15.200 Y-8.200
G1 X-15.200 Y0.000
G1 X-15.600 Y0.000
G1 X-15.600 Y8.600
G1 X-10.240 Y8.600
G1 X-10.240 Y-8.600
G1 X-15.600 Y-8.600
G1 X-15.600 Y0.000
G1 X-16.000 Y0.000
G1 X-16.000 Y9.000
G1 X-9.840 Y9.000
G1 X-9.840 Y-9.000
G1 X-16.000 Y-9.000
G1 X-16.000 Y0.000
G1 X-16.400 Y0.000
G1 X-16.400 Y9.400
G1 X-9.440 Y9.400
G1 X-9.440 Y-9.400
G1 X-16.400 Y-9.400
G1 X-16.400 Y0.000
G1 X-16.800 Y0.000
G1 X-16.800 Y9.800
G1 X-9.040 Y9.800
G1 X-9.040 Y-9.800
G1 X-16.800 Y-9.800
G1 X-16.800 Y0.000 Z2.700
G1 X-16.800 Y0.000 Z3.100
G1 X-16.800 Y-9.800
G1 X-9.341 Y-9.800
G1 X-9.341 Y9.800
G1 X-16.800 Y9.800
G1 X-16.800 Y0.000
G1 X-16.400 Y0.000
G1 X-16.400 Y-9.400
G1 X-9.741 Y-9.400
G1 X-9.741 Y9.400
G1 X-16.400 Y9.400
G1 X-16.400 Y0.000
G1 X-16.000 Y0.000
G1 X-16.000 Y-9.000
G1 X-10.141 Y-9.000
G1 X-10.141 Y9.000
G1 X-16.000 Y9.000
G1 X-16.000 Y0.000
G1 X-15.600 Y0.000
G1 X-15.600 Y-8.600
G1 X-10.541 Y-8.600
G1 X-10.541 Y8.600
G1 X-15.600 Y8.600
G1 X-15.600 Y0.000
G1 X-15.200 Y0.000
G1 X-15.200 Y-8.200
G1 X-10.941 Y-8.200
G1 X-10.941 Y8.200
G1 X-15.200 Y8.200
G1 X-15.200 Y0.000
G1 X-14.800 Y0.000
G1 X-14.800 Y-7.800
G1 X-11.341 Y-7.800
G1 X-11.341 Y7.800
G1 X-14.800 Y7.800
G1 X-14.800 Y0.000
G1 X-14.400 Y0.000
G1 X-14.400 Y-7.400
G1 X-11.741 Y-7.400
G1 X-11.741 Y7.400
G1 X-14.400 Y7.400
G1 X-14.400 Y0.000
G1 X-14.000 Y0.000
G1 X-14.000 Y-7.000
G1 X-12.141 Y-7.000
G1 X-12.141 Y7.000
G1 X-14.000 Y7.000
G1 X-14.000 Y0.000
G1 X-13.600 Y0.000
G1 X-13.600 Y-6.600
G1 X-12.541 Y-6.600
G1 X-12.541 Y6.600
G1 X-13.600 Y6.600
G1 X-13.600 Y0.000
G1 X-13.200 Y0.000
G1 X-13.200 Y0.000 Z3.500
G1 X-13.200 Y0.000
G1 X-13.600 Y0.000
G1 X-13.600 Y6.600
G1 X-12.772 Y6.600
G1 X-12.772 Y-6.600
G1 X-13.600 Y-6.600
G1 X-13.600 Y0.000
G1 X-14.000 Y0.000
G1 X-14.000 Y7.000
G1 X-12.372 Y7.000
G1 X-12.372 Y-7.000
G1 X-14.000 Y-7.000
G1 X-14.000 Y0.000
G1 X-14.400 Y0.000
G1 X-14.400 Y7.400
G1 X-11.972 Y7.400
G1 X-11.972 Y-7.400
G1 X-14.400 Y-7.400
G1 X-14.400 Y0.000
G1 X-14.800 Y0.000
G1 X-14.800 Y7.800
G1 X-11.572 Y7.800
G1 X-11.572 Y-7.800
G1 X-14.800 Y-7.800
G1 X-14.800 Y0.000
G1 X-15.200 Y0.000
G1 X-15.200 Y8.200
G1 X-11.172 Y8.200
G1 X-11.172 Y-8.200
G1 X-15.200 Y-8.200
G1 X-15.200 Y0.000
G1 X-15.600 Y0.000
G1 X-15.600 Y8.600
G1 X-10.772 Y8.600
G1 X-10.772 Y-8.600
G1 X-15.600 Y-8.600
G1 X-15.600 Y0.000
G1 X-16.000 Y0.000
G1 X-16.000 Y9.000
G1 X-10.372 Y9.000
G1 X-10.372 Y-9.000
G1 X-16.000 Y-9.000
G1 X-16.000 Y0.000
G1 X-16.400 Y0.000
G1 X-16.400 Y9.400
G1 X-9.972 Y9.400
G1 X-9.972 Y-9.400
G1 X-16.400 Y-9.400
G1 X-16.400 Y0.000
G1 X-16.800 Y0.000
G1 X-16.800 Y9.800
G1 X-9.572 Y9.800
G1 X-9.572 Y-9.800
G1 X-16.800 Y-9.800
G1 X-16.800 Y0.000 Z3.500
G1 X-16.800 Y0.000 Z3.900
G1 X-16.800 Y-9.800
G1 X-9.747 Y-9.800
G1 X-9.747 Y9.800
G1 X-16.800 Y9.800
G1 X-16.800 Y0.000
G1 X-16.400 Y0.000
G1 X-16.400 Y-9.400
G1 X-10.147 Y-9.400
G1 X-10.147 Y9.400
G1 X-16.400 Y9.400
G1 X-16.400 Y0.000
G1 X-16.000 Y0.000
G1 X-16.000 Y-9.000
G1 X-10.547 Y-9.000
G1 X-10.547 Y9.000
G1 X-16.000 Y9.000
G1 X-16.000 Y0.000
G1 X-15.600 Y0.000
G1 X-15.600 Y-8.600
G1 X-10.947 Y-8.600
G1 X-10.947 Y8.600
G1 X-15.600 Y8.600
G1 X-15.600 Y0.000
G1 X-15.200 Y0.000
G1 X-15.200 Y-8.200
G1 X-11.347 Y-8.200
G1 X-11.347 Y8.200
G1 X-15.200 Y8.200
G1 X-15.200 Y0.000
G1 X-14.800 Y0.000
G1 X-14.800 Y-7.800
G1 X-11.747 Y-7.800
G1 X-11.747 Y7.800
G1 X-14.800 Y7.800
G1 X-14.800 Y0.000
G1 X-14.400 Y0.000
G1 X-14.400 Y-7.400
G1 X-12.147 Y-7.400
G1 X-12.147 Y7.400
G1 X-14.400 Y7.400
G1 X-14.400 Y0.000
G1 X-14.000 Y0.000
G1 X-14.000 Y-7.000
G1 X-12.547 Y-7.000
G1 X-12.547 Y7.000
G1 X-14.000 Y7.000
G1 X-14.000 Y0.000
G1 X-13.600 Y0.000
G1 X-13.600 Y-6.600
G1 X-12.947 Y-6.600
G1 X-12.947 Y6.600
G1 X-13.600 Y6.600
G1 X-13.600 Y0.000
G1 X-13.200 Y0.000
G1 X-13.200 Y0.000 Z4.300
G1 X-13.200 Y0.000
G1 X-13.600 Y0.000
G1 X-13.600 Y6.600
G1 X-13.073 Y6.600
G1 X-13.073 Y-6.600
G1 X-13.600 Y-6.600
G1 X-13.600 Y0.000
G1 X-14.000 Y0.000
G1 X-14.000 Y7.000
G1 X-12.673 Y7.000
G1 X-12.673 Y-7.000
G1 X-14.000 Y-7.000
G1 X-14.000 Y0.000
G1 X-14.400 Y0.000
G1 X-14.400 Y7.400
G1 X-12.273 Y7.400
G1 X-12.273 Y-7.400
G1 X-14.400 Y-7.400
G1 X-14.400 Y0.000
G1 X-14.800 Y0.000
G1 X-14.800 Y7.800
G1 X-11.873 Y7.800
G1 X-11.873 Y-7.800
G1 X-14.800 Y-7.800
G1 X-14.800 Y0.000
G1 X-15.200 Y0.000
G1 X-15.200 Y8.200
G1 X-11.473 Y8.200
G1 X-11.473 Y-8.200
G1 X-15.200 Y-8.200
G1 X-15.200 Y0.000
G1 X-15.600 Y0.000
G1 X-15.600 Y8.600
G1 X-11.073 Y8.600
G1 X-11.073 Y-8.600
G1 X-15.600 Y-8.600
G1 X-15.600 Y0.000
G1 X-16.000 Y0.000
G1 X-16.000 Y9.000
G1 X-10.673 Y9.000
G1 X-10.673 Y-9.000
G1 X-16.000 Y-9.000
G1 X-16.000 Y0.000
G1 X-16.400 Y0.000
G1 X-16.400 Y9.400
G1 X-10.273 Y9.400
G1 X-10.273 Y-9.400
G1 X-16.400 Y-9.400
G1 X-16.400 Y0.000
G1 X-16.800 Y0.000
G1 X-16.800 Y9.800
G1 X-9.873 Y9.800
G1 X-9.873 Y-9.800
G1 X-16.800 Y-9.800
G1 X-16.800 Y0.000 Z4.300
G1 X-16.800 Y0.000 Z4.700
G1 X-16.800 Y-9.800
G1 X-9.955 Y-9.800
G1 X-9.955 Y9.800
G1 X-16.800 Y9.800
G1 X-16.800 Y0.000
G1 X-16.400 Y0.000
G1 X-16.400 Y-9.400
G1 X-10.355 Y-9.400
G1 X-10.355 Y9.400
G1 X-16.400 Y9.400
G1 X-16.400 Y0.000
G1 X-16.000 Y0.000
G1 X-16.000 Y-9.000
G1 X-10.755 Y-9.000
G1 X-10.755 Y9.000
G1 X-16.000 Y9.000
G1 X-16.000 Y0.000
G1 X-15.600 Y0.000
G1 X-15.600 Y-8.600
G1 X-11.155 Y-8.600
G1 X-11.155 Y8.600
G1 X-15.600 Y8.600
G1 X-15.600 Y0.000
G1 X-15.200 Y0.000
G1 X-15.200 Y-8.200
G1 X-11.555 Y-8.200
G1 X-11.555 Y8.200
G1 X-15.200 Y8.200
G1 X-15.200 Y0.000
G1 X-14.800 Y0.000
G1 X-14.800 Y-7.800
G1 X-11.955 Y-7.800
G1 X-11.955 Y7.800
G1 X-14.800 Y7.800
G1 X-14.800 Y0.000
G1 X-14.400 Y0.000
G1 X-14.400 Y-7.400
G1 X-12.355 Y-7.400
G1 X-12.355 Y7.400
G1 X-14.400 Y7.400
G1 X-14.400 Y0.000
G1 X-14.000 Y0.000
G1 X-14.000 Y-7.000
G1 X-12.755 Y-7.000
G1 X-12.755 Y7.000
G1 X-14.000 Y7.000
G1 X-14.000 Y0.000
G1 X-13.600 Y0.000
G1 X-13.600 Y-6.600
G1 X-13.155 Y-6.600
G1 X-13.155 Y6.600
G1 X-13.600 Y6.600
G1 X-13.600 Y0.000
G1 X-13.200 Y0.000
G1 X-13.200 Y0.000 Z5.100
G1 X-13.200 Y0.000
G1 X-13.600 Y0.000
G1 X-13.600 Y6.600
G1 X-13.195 Y6.600
G1 X-13.195 Y-6.600
G1 X-13.600 Y-6.600
G1 X-13.600 Y0.000
G1 X-14.000 Y0.000
G1 X-14.000 Y7.000
G1 X-12.795 Y7.000
G1 X-12.795 Y-7.000
G1 X-14.000 Y-7.000
G1 X-14.000 Y0.000
G1 X-14.400 Y0.000
G1 X-14.400 Y7.400
G1 X-12.395 Y7.400
G1 X-12.395 Y-7.400
G1 X-14.400 Y-7.400
G1 X-14.400 Y0.000
G1 X-14.800 Y0.000
G1 X-14.800 Y7.800
G1 X-11.995 Y7.800
G1 X-11.995 Y-7.800
G1 X-14.800 Y-7.800
G1 X-14.800 Y0.000
G1 X-15.200 Y0.000
G1 X-15.200 Y8.200
G1 X-11.595 Y8.200
G1 X-11.595 Y-8.200
G1 X-15.200 Y-8.200
G1 X-15.200 Y0.000
G1 X-15.600 Y0.000
G1 X-15.600 Y8.600
G1 X-11.195 Y8.600
G1 X-11.195 Y-8.600
G1 X-15.600 Y-8.600
G1 X-15.600 Y0.000
G1 X-16.000 Y0.000
G1 X-16.000 Y9.000
G1 X-10.795 Y9.000
G1 X-10.795 Y-9.000
G1 X-16.000 Y-9.000
G1 X-16.000 Y0.000
G1 X-16.400 Y0.000
G1 X-16.400 Y9.400
G1 X-10.395 Y9.400
G1 X-10.395 Y-9.400
G1 X-16.400 Y-9.400
G1 X-16.400 Y0.000
G1 X-16.800 Y0.000
G1 X-16.800 Y9.800
G1 X-9.995 Y9.800
G1 X-9.995 Y-9.800
G1 X-16.800 Y-9.800
G1 X-16.800 Y0.000 Z5.100
M9
G1 Z10.000
G1 X16.800 Y0.000
G1 Z1.500
M7
G4 P150
G1 X16.800 Y0.000 Z1.500
G1 X16.800 Y9.800
G1 X7.249 Y9.800
G1 X7.249 Y-9.800
G1 X16.800 Y-9.800
G1 X16.800 Y0.000
G1 X16.400 Y0.000
G1 X16.400 Y9.400
G1 X7.649 Y9.400
G1 X7.649 Y-9.400
G1 X16.400 Y-9.400
G1 X16.400 Y0.000
G1 X16.000 Y0.000
G1 X16.000 Y9.000
G1 X8.049 Y9.000
G1 X8.049 Y-9.000
G1 X16.000 Y-9.000
G1 X16.000 Y0.000
G1 X15.600 Y0.000
G1 X15.600 Y8.600
G1 X8.449 Y8.600
G1 X8.449 Y-8.600
G1 X15.600 Y-8.600
G1 X15.600 Y0.000
G1 X15.200 Y0.000
G1 X15.200 Y8.200
G1 X8.849 Y8.200
G1 X8.849 Y-8.200
G1 X15.200 Y-8.200
G1 X15.200 Y0.000
G1 X14.800 Y0.000
G1 X14.800 Y7.800
G1 X9.249 Y7.800
G1 X9.249 Y-7.800
G1 X14.800 Y-7.800
G1 X14.800 Y0.000
G1 X14.400 Y0.000
G1 X14.400 Y7.400
G1 X9.649 Y7.400
G1 X9.649 Y-7.400
G1 X14.400 Y-7.400
G1 X14.400 Y0.000
G1 X14.000 Y0.000
G1 X14.000 Y7.000
G1 X10.049 Y7.000
G1 X10.049 Y-7.000
G1 X14.000 Y-7.000
G1 X14.000 Y0.000
G1 X13.600 Y0.000
G1 X13.600 Y6.600
G1 X10.449 Y6.600
G1 X10.449 Y-6.600
G1 X13.600 Y-6.600
G1 X13.600 Y0.000
G1 X13.200 Y0.000
G1 X13.200 Y6.200
G1 X10.849 Y6.200
G1 X10.849 Y-6.200
G1 X13.200 Y-6.200
G1 X13.200 Y0.000
G1 X12.800 Y0.000
G1 X12.800 Y5.800
G1 X11.249 Y5.800
G1 X11.249 Y-5.800
G1 X12.800 Y-5.800
G1 X12.800 Y0.000
G1 X12.400 Y0.000
G1 X12.400 Y5.400
G1 X11.649 Y5.400
G1 X11.649 Y-5.400
G1 X12.400 Y-5.400
G1 X12.400 Y0.000
G1 X12.000 Y0.000
G1 X12.400 Y0.000 Z1.900
G1 X12.400 Y0.000
G1 X12.800 Y0.000
G1 X12.800 Y-5.800
G1 X12.107 Y-5.800
G1 X12.107 Y5.800
G1 X12.800 Y5.800
G1 X12.800 Y0.000
G1 X13.200 Y0.000
G1 X13.200 Y-6.200
G1 X11.707 Y-6.200
G1 X11.707 Y6.200
G1 X13.200 Y6.200
G1 X13.200 Y0.000
G1 X13.600 Y0.000
G1 X13.600 Y-6.600
G1 X11.307 Y-6.600
G1 X11.307 Y6.600
G1 X13.600 Y6.600
G1 X13.600 Y0.000
G1 X14.000 Y0.000
G1 X14.000 Y-7.000
G1 X10.907 Y-7.000
G1 X10.907 Y7.000
G1 X14.000 Y7.000
G1 X14.000 Y0.000
G1 X14.400 Y0.000
G1 X14.400 Y-7.400
G1 X10.507 Y-7.400
G1 X10.507 Y7.400
G1 X14.400 Y7.400
G1 X14.400 Y0.000
G1 X14.800 Y0.000
G1 X14.800 Y-7.800
G1 X10.107 Y-7.800
G1 X10.107 Y7.800
G1 X14.800 Y7.800
G1 X14.800 Y0.000
G1 X15.200 Y0.000
G1 X15.200 Y-8.200
G1 X9.707 Y-8.200
G1 X9.707 Y8.200
G1 X15.200 Y8.200
G1 X15.200 Y0.000
G1 X15.600 Y0.000
G1 X15.600 Y-8.600
G1 X9.307 Y-8.600
G1 X9.307 Y8.600
G1 X15.600 Y8.600
G1 X15.600 Y0.000
G1 X16.000 Y0.000
G1 X16.000 Y-9.000
G1 X8.907 Y-9.000
G1 X8.907 Y9.000
G1 X16.000 Y9.000
G1 X16.000 Y0.000
G1 X16.400 Y0.000
G1 X16.400 Y-9.400
G1 X8.507 Y-9.400
G1 X8.507 Y9.400
G1 X16.400 Y9.400
G1 X16.400 Y0.000
G1 X16.800 Y0.000
G1 X16.800 Y-9.800
G1 X8.107 Y-9.800
G1 X8.107 Y9.800
G1 X16.800 Y9.800
G1 X16.800 Y0.000 Z1.900
G1 X16.800 Y0.000 Z2.300
G1 X16.800 Y9.800
G1 X8.646 Y9.800
G1 X8.646 Y-9.800
G1 X16.800 Y-9.800
G1 X16.800 Y0.000
G1 X16.400 Y0.000
G1 X16.400 Y9.400
G1 X9.046 Y9.400
G1 X9.046 Y-9.400
G1 X16.400 Y-9.400
G1 X16.400 Y0.000
G1 X16.000 Y0.000
G1 X16.000 Y9.000
G1 X9.446 Y9.000
G1 X9.446 Y-9.000
G1 X16.000 Y-9.000
G1 X16.000 Y0.000
G1 X15.600 Y0.000
G1 X15.600 Y8.600
G1 X9.846 Y8.600
G1 X9.846 Y-8.600
G1 X15.600 Y-8.600
G1 X15.600 Y0.000
G1 X15.200 Y0.000
G1 X15.200 Y8.200
G1 X10.246 Y8.200
G1 X10.246 Y-8.200
G1 X15.200 Y-8.200
G1 X15.200 Y0.000
G1 X14.800 Y0.000
G1 X14.800 Y7.800
G1 X10.646 Y7.800
G1 X10.646 Y-7.800
G1 X14.800 Y-7.800
G1 X14.800 Y0.000
G1 X14.400 Y0.000
G1 X14.400 Y7.400
G1 X11.046 Y7.400
G1 X11.046 Y-7.400
G1 X14.400 Y-7.400
G1 X14.400 Y0.000
G1 X14.000 Y0.000
G1 X14.000 Y7.000
G1 X11.446 Y7.000
G1 X11.446 Y-7.000
G1 X14.000 Y-7.000
G1 X14.000 Y0.000
G1 X13.600 Y0.000
G1 X13.600 Y6.600
G1 X11.846 Y6.600
G1 X11.846 Y-6.600
G1 X13.600 Y-6.600
G1 X13.600 Y0.000
G1 X13.200 Y0.000
G1 X13.200 Y6.200
G1 X12.246 Y6.200
G1 X12.246 Y-6.200
G1 X13.200 Y-6.200
G1 X13.200 Y0.000
G1 X12.800 Y0.000
G1 X12.800 Y0.000 Z2.700
G1 X12.800 Y0.000
G1 X13.200 Y0.000
G1 X13.200 Y-6.200
G1 X12.640 Y-6.200
G1 X12.640 Y6.200
G1 X13.200 Y6.200
G1 X13.200 Y0.000
G1 X13.600 Y0.000
G1 X13.600 Y-6.600
G1 X12.240 Y-6.600
G1 X12.240 Y6.600
G1 X13.600 Y6.600
G1 X13.600 Y0.000
G1 X14.000 Y0.000
G1 X14.000 Y-7.000
G1 X11.840 Y-7.000
G1 X11.840 Y7.000
G1 X14.000 Y7.000
G1 X14.000 Y0.000
G1 X14.400 Y0.000
G1 X14.400 Y-7.400
G1 X11.440 Y-7.400
G1 X11.440 Y7.400
G1 X14.400 Y7.400
G1 X14.400 Y0.000
G1 X14.800 Y0.000
G1 X14.800 Y-7.800
G1 X11.040 Y-7.800
G1 X11.040 Y7.800
G1 X14.800 Y7.800
G1 X14.800 Y0.000
G1 X15.200 Y0.000
G1 X15.200 Y-8.200
G1 X10.640 Y-8.200
G1 X10.640 Y8.200
G1 X15.200 Y8.200
G1 X15.200 Y0.000
G1 X15.600 Y0.000
G1 X15.600 Y-8.600
G1 X10.240 Y-8.600
G1 X10.240 Y8.600
G1 X15.600 Y8.600
G1 X15.600 Y0.000
G1 X16.000 Y0.000
G1 X16.000 Y-9.000
G1 X9.840 Y-9.000
G1 X9.840 Y9.000
G1 X16.000 Y9.000
G1 X16.000 Y0.000
G1 X16.400 Y0.000
G1 X16.400 Y-9.400
G1 X9.440 Y-9.400
G1 X9.440 Y9.400
G1 X16.400 Y9.400
G1 X16.400 Y0.000
G1 X16.800 Y0.000
G1 X16.800 Y-9.800
G1 X9.040 Y-9.800
G1 X9.040 Y9.800
G1 X16.800 Y9.800
G1 X16.800 Y0.000 Z2.700
G1 X16.800 Y0.000 Z3.100
G1 X16.800 Y9.800
G1 X9.341 Y9.800
G1 X9.341 Y-9.800
G1 X16.800 Y-9.800
G1 X16.800 Y0.000
G1 X16.400 Y0.000
G1 X16.400 Y9.400
G1 X9.741 Y9.400
G1 X9.741 Y-9.400
G1 X16.400 Y-9.400
G1 X16.400 Y0.000
G1 X16.000 Y0.000
G1 X16.000 Y9.000
G1 X10.141 Y9.000
G1 X10.141 Y-9.000
G1 X16.000 Y-9.000
G1 X16.000 Y0.000
G1 X15.600 Y0.000
G1 X15.600 Y8.600
G1 X10.541 Y8.600
G1 X10.541 Y-8.600
G1 X15.600 Y-8.600
G1 X15.600 Y0.000
G1 X15.200 Y0.000
G1 X15.200 Y8.200
G1 X10.941 Y8.200
G1 X10.941 Y-8.200
G1 X15.200 Y-8.200
G1 X15.200 Y0.000
G1 X14.800 Y0.000
G1 X14.800 Y7.800
G1 X11.341 Y7.800
G1 X11.341 Y-7.800
G1 X14.800 Y-7.800
G1 X14.800 Y0.000
G1 X14.400 Y0.000
G1 X14.400 Y7.400
G1 X11.741 Y7.400
G1 X11.741 Y-7.400
G1 X14.400 Y-7.400
G1 X14.400 Y0.000
G1 X14.000 Y0.000
G1 X14.000 Y7.000
G1 X12.141 Y7.000
G1 X12.141 Y-7.000
G1 X14.000 Y-7.000
G1 X14.000 Y0.000
G1 X13.600 Y0.000
G1 X13.600 Y6.600
G1 X12.541 Y6.600
G1 X12.541 Y-6.600
G1 X13.600 Y-6.600
G1 X13.600 Y0.000
G1 X13.200 Y0.000
G1 X13.200 Y0.000 Z3.500
G1 X13.200 Y0.000
G1 X13.600 Y0.000
G1 X13.600 Y-6.600
G1 X12.772 Y-6.600
G1 X12.772 Y6.600
G1 X13.600 Y6.600
G1 X13.600 Y0.000
G1 X14.000 Y0.000
G1 X14.000 Y-7.000
G1 X12.372 Y-7.000
G1 X12.372 Y7.000
G1 X14.000 Y7.000
G1 X14.000 Y0.000
G1 X14.400 Y0.000
G1 X14.400 Y-7.400
G1 X11.972 Y-7.400
G1 X11.972 Y7.400
G1 X14.400 Y7.400
G1 X14.400 Y0.000
G1 X14.800 Y0.000
G1 X14.800 Y-7.800
G1 X11.572 Y-7.800
G1 X11.572 Y7.800
G1 X14.800 Y7.800
G1 X14.800 Y0.000
G1 X15.200 Y0.000
G1 X15.200 Y-8.200
G1 X11.172 Y-8.200
G1 X11.172 Y8.200
G1 X15.200 Y8.200
G1 X15.200 Y0.000
G1 X15.600 Y0.000
G1 X15.600 Y-8.600
G1 X10.772 Y-8.600
G1 X10.772 Y8.600
G1 X15.600 Y8.600
G1 X15.600 Y0.000
G1 X16.000 Y0.000
G1 X16.000 Y-9.000
G1 X10.372 Y-9.000
G1 X10.372 Y9.000
G1 X16.000 Y9.000
G1 X16.000 Y0.000
G1 X16.400 Y0.000
G1 X16.400 Y-9.400
G1 X9.972 Y-9.400
G1 X9.972 Y9.400
G1 X16.400 Y9.400
G1 X16.400 Y0.000
G1 X16.800 Y0.000
G1 X16.800 Y-9.800
G1 X9.572 Y-9.800
G1 X9.572 Y9.800
G1 X16.800 Y9.800
G1 X16.800 Y0.000 Z3.500
G1 X16.800 Y0.000 Z3.900
G1 X16.800 Y9.800
G1 X9.747 Y9.800
G1 X9.747 Y-9.800
G1 X16.800 Y-9.800
G1 X16.800 Y0.000
G1 X16.400 Y0.000
G1 X16.400 Y9.400
G1 X10.147 Y9.400
G1 X10.147 Y-9.400
G1 X16.400 Y-9.400
G1 X16.400 Y0.000
G1 X16.000 Y0.000
G1 X16.000 Y9.000
G1 X10.547 Y9.000
G1 X10.547 Y-9.000
G1 X16.000 Y-9.000
G1 X16.000 Y0.000
G1 X15.600 Y0.000
G1 X15.600 Y8.600
G1 X10.947 Y8.600
G1 X10.947 Y-8.600
G1 X15.600 Y-8.600
G1 X15.600 Y0.000
G1 X15.200 Y0.000
G1 X15.200 Y8.200
G1 X11.347 Y8.200
G1 X11.347 Y-8.200
G1 X15.200 Y-8.200
G1 X15.200 Y0.000
G1 X14.800 Y0.000
G1 X14.800 Y7.800
G1 X11.747 Y7.800
G1 X11.747 Y-7.800
G1 X14.800 Y-7.800
G1 X14.800 Y0.000
G1 X14.400 Y0.000
G1 X14.400 Y7.400
G1 X12.147 Y7.400
G1 X12.147 Y-7.400
G1 X14.400 Y-7.400
G1 X14.400 Y0.000
G1 X14.000 Y0.000
G1 X14.000 Y7.000
G1 X12.547 Y7.000
G1 X12.547 Y-7.000
G1 X14.000 Y-7.000
G1 X14.000 Y0.000
G1 X13.600 Y0.000
G1 X13.600 Y6.600
G1 X12.947 Y6.600
G1 X12.947 Y-6.600
G1 X13.600 Y-6.600
G1 X13.600 Y0.000
G1 X13.200 Y0.000
G1 X13.200 Y0.000 Z4.300
G1 X13.200 Y0.000
G1 X13.600 Y0.000
G1 X13.600 Y-6.600
G1 X13.073 Y-6.600
G1 X13.073 Y6.600
G1 X13.600 Y6.600
G1 X13.600 Y0.000
G1 X14.000 Y0.000
G1 X14.000 Y-7.000
G1 X12.673 Y-7.000
G1 X12.673 Y7.000
G1 X14.000 Y7.000
G1 X14.000 Y0.000
G1 X14.400 Y0.000
G1 X14.400 Y-7.400
G1 X12.273 Y-7.400
G1 X12.273 Y7.400
G1 X14.400 Y7.400
G1 X14.400 Y0.000
G1 X14.800 Y0.000
G1 X14.800 Y-7.800
G1 X11.873 Y-7.800
G1 X11.873 Y7.800
G1 X14.800 Y7.800
G1 X14.800 Y0.000
G1 X15.200 Y0.000
G1 X15.200 Y-8.200
G1 X11.473 Y-8.200
G1 X11.473 Y8.200
G1 X15.200 Y8.200
G1 X15.200 Y0.000
G1 X15.600 Y0.000
G1 X15.600 Y-8.600
G1 X11.073 Y-8.600
G1 X11.073 Y8.600
G1 X15.600 Y8.600
G1 X15.600 Y0.000
G1 X16.000 Y0.000
G1 X16.000 Y-9.000
G1 X10.673 Y-9.000
G1 X10.673 Y9.000
G1 X16.000 Y9.000
G1 X16.000 Y0.000
G1 X16.400 Y0.000
G1 X16.400 Y-9.400
G1 X10.273 Y-9.400
G1 X10.273 Y9.400
G1 X16.400 Y9.400
G1 X16.400 Y0.000
G1 X16.800 Y0.000
G1 X16.800 Y-9.800
G1 X9.873 Y-9.800
G1 X9.873 Y9.800
G1 X16.800 Y9.800
G1 X16.800 Y0.000 Z4.300
G1 X16.800 Y0.000 Z4.700
G1 X16.800 Y9.800
G1 X9.955 Y9.800
G1 X9.955 Y-9.800
G1 X16.800 Y-9.800
G1 X16.800 Y0.000
G1 X16.400 Y0.000
G1 X16.400 Y9.400
G1 X10.355 Y9.400
G1 X10.355 Y-9.400
G1 X16.400 Y-9.400
G1 X16.400 Y0.000
G1 X16.000 Y0.000
G1 X16.000 Y9.000
G1 X10.755 Y9.000
G1 X10.755 Y-9.000
G1 X16.000 Y-9.000
G1 X16.000 Y0.000
G1 X15.600 Y0.000
G1 X15.600 Y8.600
G1 X11.155 Y8.600
G1 X11.155 Y-8.600
G1 X15.600 Y-8.600
G1 X15.600 Y0.000
G1 X15.200 Y0.000
G1 X15.200 Y8.200
G1 X11.555 Y8.200
G1 X11.555 Y-8.200
G1 X15.200 Y-8.200
G1 X15.200 Y0.000
G1 X14.800 Y0.000
G1 X14.800 Y7.800
G1 X11.955 Y7.800
G1 X11.955 Y-7.800
G1 X14.800 Y-7.800
G1 X14.800 Y0.000
G1 X14.400 Y0.000
G1 X14.400 Y7.400
G1 X12.355 Y7.400
G1 X12.355 Y-7.400
G1 X14.400 Y-7.400
G1 X14.400 Y0.000
G1 X14.000 Y0.000
G1 X14.000 Y7.000
G1 X12.755 Y7.000
G1 X12.755 Y-7.000
G1 X14.000 Y-7.000
G1 X14.000 Y0.000
G1 X13.600 Y0.000
G1 X13.600 Y6.600
G1 X13.155 Y6.600
G1 X13.155 Y-6.600
G1 X13.600 Y-6.600
G1 X13.600 Y0.000
G1 X13.200 Y0.000
G1 X13.200 Y0.000 Z5.100
G1 X13.200 Y0.000
G1 X13.600 Y0.000
G1 X13.600 Y-6.600
G1 X13.195 Y-6.600
G1 X13.195 Y6.600
G1 X13.600 Y6.600
G1 X13.600 Y0.000
G1 X14.000 Y0.000
G1 X14.000 Y-7.000
G1 X12.795 Y-7.000
G1 X12.795 Y7.000
G1 X14.000 Y7.000
G1 X14.000 Y0.000
G1 X14.400 Y0.000
G1 X14.400 Y-7.400
G1 X12.395 Y-7.400
G1 X12.395 Y7.400
G1 X14.400 Y7.400
G1 X14.400 Y0.000
G1 X14.800 Y0.000
G1 X14.800 Y-7.800
G1 X11.995 Y-7.800
G1 X11.995 Y7.800
G1 X14.800 Y7.800
G1 X14.800 Y0.000
G1 X15.200 Y0.000
G1 X15.200 Y-8.200
G1 X11.595 Y-8.200
G1 X11.595 Y8.200
G1 X15.200 Y8.200
G1 X15.200 Y0.000
G1 X15.600 Y0.000
G1 X15.600 Y-8.600
G1 X11.195 Y-8.600
G1 X11.195 Y8.600
G1 X15.600 Y8.600
G1 X15.600 Y0.000
G1 X16.000 Y0.000
G1 X16.000 Y-9.000
G1 X10.795 Y-9.000
G1 X10.795 Y9.000
G1 X16.000 Y9.000
G1 X16.000 Y0.000
G1 X16.400 Y0.000
G1 X16.400 Y-9.400
G1 X10.395 Y-9.400
G1 X10.395 Y9.400
G1 X16.400 Y9.400
G1 X16.400 Y0.000
G1 X16.800 Y0.000
G1 X16.800 Y-9.800
G1 X9.995 Y-9.800
G1 X9.995 Y9.800
G1 X16.800 Y9.800
G1 X16.800 Y0.000 Z5.100
M9
G1 Z10.000
G1 X-4.600 Y-0.100
G1 Z1.500
M7
G4 P150
G1 X-3.351 Y0.000 Z1.500
G1 X-3.351 Y-9.800
G1 X3.351 Y-9.800
G1 X3.351 Y9.800
G1 X-3.351 Y9.800
G1 X-3.351 Y0.000
G1 X-2.951 Y0.000
G1 X-2.951 Y-9.400
G1 X2.951 Y-9.400
G1 X2.951 Y9.400
G1 X-2.951 Y9.400
G1 X-2.951 Y0.000
G1 X-2.551 Y0.000
G1 X-2.551 Y-9.000
G1 X2.551 Y-9.000
G1 X2.551 Y9.000
G1 X-2.551 Y9.000
G1 X-2.551 Y0.000
G1 X-2.151 Y0.000
G1 X-2.151 Y-8.600
G1 X2.151 Y-8.600
G1 X2.151 Y8.600
G1 X-2.151 Y8.600
G1 X-2.151 Y0.000
G1 X-1.751 Y0.000
G1 X-1.751 Y-8.200
G1 X1.751 Y-8.200
G1 X1.751 Y8.200
G1 X-1.751 Y8.200
G1 X-1.751 Y0.000
G1 X-1.351 Y0.000
G1 X-1.351 Y-7.800
G1 X1.351 Y-7.800
G1 X1.351 Y7.800
G1 X-1.351 Y7.800
G1 X-1.351 Y0.000
G1 X-0.951 Y0.000
G1 X-0.951 Y-7.400
G1 X0.951 Y-7.400
G1 X0.951 Y7.400
G1 X-0.951 Y7.400
G1 X-0.951 Y0.000
G1 X-0.551 Y0.000
G1 X-0.551 Y-7.000
G1 X0.551 Y-7.000
G1 X0.551 Y7.000
G1 X-0.551 Y7.000
G1 X-0.551 Y0.000
G1 X-0.151 Y0.000
G1 X-0.151 Y-6.600
G1 X0.151 Y-6.600
G1 X0.151 Y6.600
G1 X-0.151 Y6.600
G1 X-0.151 Y0.000
G1 X0.249 Y0.000
G1 X-0.093 Y0.000 Z1.900
G1 X-0.093 Y0.000
G1 X-0.493 Y0.000
G1 X-0.493 Y7.800
G1 X0.493 Y7.800
G1 X0.493 Y-7.800
G1 X-0.493 Y-7.800
G1 X-0.493 Y0.000
G1 X-0.893 Y0.000
G1 X-0.893 Y8.200
G1 X0.893 Y8.200
G1 X0.893 Y-8.200
G1 X-0.893 Y-8.200
G1 X-0.893 Y0.000
G1 X-1.293 Y0.000
G1 X-1.293 Y8.600
G1 X1.293 Y8.600
G1 X1.293 Y-8.600
G1 X-1.293 Y-8.600
G1 X-1.293 Y0.000
G1 X-1.693 Y0.000
G1 X-1.693 Y9.000
G1 X1.693 Y9.000
G1 X1.693 Y-9.000
G1 X-1.693 Y-9.000
G1 X-1.693 Y0.000
G1 X-2.093 Y0.000
G1 X-2.093 Y9.400
G1 X2.093 Y9.400
G1 X2.093 Y-9.400
G1 X-2.093 Y-9.400
G1 X-2.093 Y0.000
G1 X-2.493 Y0.000
G1 X-2.493 Y9.800
G1 X2.493 Y9.800
G1 X2.493 Y-9.800
G1 X-2.493 Y-9.800
G1 X-2.493 Y0.000 Z1.900
G1 X-1.954 Y0.000 Z2.300
G1 X-1.954 Y-9.800
G1 X1.954 Y-9.800
G1 X1.954 Y9.800
G1 X-1.954 Y9.800
G1 X-1.954 Y0.000
G1 X-1.554 Y0.000
G1 X-1.554 Y-9.400
G1 X1.554 Y-9.400
G1 X1.554 Y9.400
G1 X-1.554 Y9.400
G1 X-1.554 Y0.000
G1 X-1.154 Y0.000
G1 X-1.154 Y-9.000
G1 X1.154 Y-9.000
G1 X1.154 Y9.000
G1 X-1.154 Y9.000
G1 X-1.154 Y0.000
G1 X-0.754 Y0.000
G1 X-0.754 Y-8.600
G1 X0.754 Y-8.600
G1 X0.754 Y8.600
G1 X-0.754 Y8.600
G1 X-0.754 Y0.000
G1 X-0.354 Y0.000
G1 X-0.354 Y-8.200
G1 X0.354 Y-8.200
G1 X0.354 Y8.200
G1 X-0.354 Y8.200
G1 X-0.354 Y0.000
G1 X0.046 Y0.000
G1 X0.046 Y-7.800
G1 X-0.046 Y-7.800
G1 X-0.046 Y7.800
G1 X0.046 Y7.800
G1 X0.046 Y0.000
G1 X0.446 Y0.000
M9
G1 Z10.000
G1 X0.000 Y1.000
G1 Z1.500
M7
G4 P150
G1 X0.000 Y1.000 Z2.700
G1 X1.560 Y1.000
G1 X1.560 Y9.800
G1 X-1.560 Y9.800
G1 X-1.560 Y1.000
G1 X0.000 Y1.000
G1 X0.000 Y1.400
G1 X1.160 Y1.400
G1 X1.160 Y9.400
G1 X-1.160 Y9.400
G1 X-1.160 Y1.400
G1 X0.000 Y1.400
G1 X0.000 Y1.800
G1 X0.760 Y1.800
G1 X0.760 Y9.000
G1 X-0.760 Y9.000
G1 X-0.760 Y1.800
G1 X0.000 Y1.800
G1 X0.000 Y2.200
G1 X0.360 Y2.200
G1 X0.360 Y8.600
G1 X-0.360 Y8.600
G1 X-0.360 Y2.200
G1 X0.000 Y2.200
G1 X0.000 Y2.600
G1 X0.000 Y2.200 Z3.100
G1 X0.000 Y2.200
G1 X0.000 Y1.800
G1 X-0.459 Y1.800
G1 X-0.459 Y9.000
G1 X0.459 Y9.000
G1 X0.459 Y1.800
G1 X0.000 Y1.800
G1 X0.000 Y1.400
G1 X-0.859 Y1.400
G1 X-0.859 Y9.400
G1 X0.859 Y9.400
G1 X0.859 Y1.400
G1 X0.000 Y1.400
G1 X0.000 Y1.000
G1 X-1.259 Y1.000
G1 X-1.259 Y9.800
G1 X1.259 Y9.800
G1 X1.259 Y1.000
G1 X0.000 Y1.000 Z3.100
G1 X0.000 Y1.000 Z3.500
G1 X1.028 Y1.000
G1 X1.028 Y9.800
G1 X-1.028 Y9.800
G1 X-1.028 Y1.000
G1 X0.000 Y1.000
G1 X0.000 Y1.400
G1 X0.628 Y1.400
G1 X0.628 Y9.400
G1 X-0.628 Y9.400
G1 X-0.628 Y1.400
G1 X0.000 Y1.400
G1 X0.000 Y1.800
G1 X0.228 Y1.800
G1 X0.228 Y9.000
G1 X-0.228 Y9.000
G1 X-0.228 Y1.800
G1 X0.000 Y1.800
G1 X0.000 Y2.200
G1 X0.000 Y1.800 Z3.900
G1 X0.000 Y1.800
G1 X0.000 Y1.400
G1 X-0.453 Y1.400
G1 X-0.453 Y9.400
G1 X0.453 Y9.400
G1 X0.453 Y1.400
G1 X0.000 Y1.400
G1 X0.000 Y1.000
G1 X-0.853 Y1.000
G1 X-0.853 Y9.800
G1 X0.853 Y9.800
G1 X0.853 Y1.000
G1 X0.000 Y1.000 Z3.900
M9
G1 Z10.000
G1 X0.000 Y-1.000
G1 Z2.700
M7
G4 P150
G1 X0.000 Y-1.000 Z2.700
G1 X-1.560 Y-1.000
G1 X-1.560 Y-9.800
G1 X1.560 Y-9.800
G1 X1.560 Y-1.000
G1 X0.000 Y-1.000
G1 X0.000 Y-1.400
G1 X-1.160 Y-1.400
G1 X-1.160 Y-9.400
G1 X1.160 Y-9.400
G1 X1.160 Y-1.400
G1 X0.000 Y-1.400
G1 X0.000 Y-1.800
G1 X-0.760 Y-1.800
G1 X-0.760 Y-9.000
G1 X0.760 Y-9.000
G1 X0.760 Y-1.800
G1 X0.000 Y-1.800
G1 X0.000 Y-2.200
G1 X-0.360 Y-2.200
G1 X-0.360 Y-8.600
G1 X0.360 Y-8.600
G1 X0.360 Y-2.200
G1 X0.000 Y-2.200
G1 X0.000 Y-2.600
G1 X0.000 Y-2.200 Z3.100
G1 X0.000 Y-2.200
G1 X0.000 Y-1.800
G1 X0.459 Y-1.800
G1 X0.459 Y-9.000
G1 X-0.459 Y-9.000
G1 X-0.459 Y-1.800
G1 X0.000 Y-1.800
G1 X0.000 Y-1.400
G1 X0.859 Y-1.400
G1 X0.859 Y-9.400
G1 X-0.859 Y-9.400
G1 X-0.859 Y-1.400
G1 X0.000 Y-1.400
G1 X0.000 Y-1.000
G1 X1.259 Y-1.000
G1 X1.259 Y-9.800
G1 X-1.259 Y-9.800
G1 X-1.259 Y-1.000
G1 X0.000 Y-1.000 Z3.100
G1 X0.000 Y-1.000 Z3.500
G1 X-1.028 Y-1.000
G1 X-1.028 Y-9.800
G1 X1.028 Y-9.800
G1 X1.028 Y-1.000
G1 X0.000 Y-1.000
G1 X0.000 Y-1.400
G1 X-0.628 Y-1.400
G1 X-0.628 Y-9.400
G1 X0.628 Y-9.400
G1 X0.628 Y-1.400
G1 X0.000 Y-1.400
G1 X0.000 Y-1.800
G1 X-0.228 Y-1.800
G1 X-0.228 Y-9.000
G1 X0.228 Y-9.000
G1 X0.228 Y-1.800
G1 X0.000 Y-1.800
G1 X0.000 Y-2.200
G1 X0.000 Y-1.800 Z3.900
G1 X0.000 Y-1.800
G1 X0.000 Y-1.400
G1 X0.453 Y-1.400
G1 X0.453 Y-9.400
G1 X-0.453 Y-9.400
G1 X-0.453 Y-1.400
G1 X0.000 Y-1.400
G1 X0.000 Y-1.000
G1 X0.853 Y-1.000
G1 X0.853 Y-9.800
G1 X-0.853 Y-9.800
G1 X-0.853 Y-1.000
G1 X0.000 Y-1.000 Z3.900
M9
G1 Z10.000
G1 X0.000 Y0.000
G1 Z4.300
M7
G4 P150
G1 X-0.727 Y0.000 Z4.300
G1 X-0.727 Y-9.800
G1 X0.727 Y-9.800
G1 X0.727 Y9.800
G1 X-0.727 Y9.800
G1 X-0.727 Y0.000
G1 X-0.327 Y0.000
G1 X-0.327 Y-9.400
G1 X0.327 Y-9.400
G1 X0.327 Y9.400
G1 X-0.327 Y9.400
G1 X-0.327 Y0.000
G1 X0.073 Y0.000
G1 X0.073 Y-9.000
G1 X-0.073 Y-9.000
G1 X-0.073 Y9.000
G1 X0.073 Y9.000
G1 X0.073 Y0.000
G1 X0.473 Y0.000
G1 X0.155 Y0.000 Z4.700
G1 X0.155 Y0.000
G1 X-0.245 Y0.000
G1 X-0.245 Y9.400
G1 X0.245 Y9.400
G1 X0.245 Y-9.400
G1 X-0.245 Y-9.400
G1 X-0.245 Y0.000
G1 X-0.645 Y0.000
G1 X-0.645 Y9.800
G1 X0.645 Y9.800
G1 X0.645 Y-9.800
G1 X-0.645 Y-9.800
G1 X-0.645 Y0.000 Z4.700
G1 X-0.605 Y0.000 Z5.100
G1 X-0.605 Y-9.800
G1 X0.605 Y-9.800
G1 X0.605 Y9.800
G1 X-0.605 Y9.800
G1 X-0.605 Y0.000
G1 X-0.205 Y0.000
G1 X-0.205 Y-9.400
G1 X0.205 Y-9.400
G1 X0.205 Y9.400
G1 X-0.205 Y9.400
G1 X-0.205 Y0.000
G1 X0.195 Y0.000
G1 X0.195 Y-9.000
G1 X-0.195 Y-9.000
G1 X-0.195 Y9.000
G1 X0.195 Y9.000
G1 X0.195 Y0.000
G1 X0.595 Y0.000

;Finish
M9
G1 Z10.000
G28 X-100 Y-100;Home