;layer_height = 0.4
;line_width = 0.4
;layer_count = 10
;mesh = twist_half_short
G21 ;start of the code
G1 Z15 F300
G28 X0 Y0 ;Home
G92 X0 Y0 ;Consider this as current
G0 X50 Y50 F3000 ;Go-to Offset
G92 X0 Y0 ;Reset

G0 F3600 X-16.800 Y0.000 Z0.300 ;Go to start position
M7
G4 P150


G1 X-16.800 Y0.000 Z0.300
G1 X-16.800 Y-7.800
G1 X-7.800 Y-7.800
G1 X-7.800 Y7.800
G1 X-16.800 Y7.800
G1 X-16.800 Y0.000
G1 X-16.400 Y0.000
G1 X-16.400 Y-7.400
G1 X-8.200 Y-7.400
G1 X-8.200 Y7.400
G1 X-16.400 Y7.400
G1 X-16.400 Y0.000
G1 X-16.000 Y0.000
G1 X-16.000 Y-7.000
G1 X-8.600 Y-7.000
G1 X-8.600 Y7.000
G1 X-16.000 Y7.000
G1 X-16.000 Y0.000
G1 X-15.600 Y0.000
G1 X-15.600 Y-6.600
G1 X-9.000 Y-6.600
G1 X-9.000 Y6.600
G1 X-15.600 Y6.600
G1 X-15.600 Y0.000
G1 X-15.200 Y0.000
G1 X-15.200 Y-6.200
G1 X-9.400 Y-6.200
G1 X-9.400 Y6.200
G1 X-15.200 Y6.200
G1 X-15.200 Y0.000
G1 X-14.800 Y0.000
G1 X-14.800 Y-5.800
G1 X-9.800 Y-5.800
G1 X-9.800 Y5.800
G1 X-14.800 Y5.800
G1 X-14.800 Y0.000
G1 X-14.400 Y0.000
G1 X-14.400 Y-5.400
G1 X-10.200 Y-5.400
G1 X-10.200 Y5.400
G1 X-14.400 Y5.400
G1 X-14.400 Y0.000
G1 X-14.000 Y0.000
G1 X-14.000 Y-5.000
G1 X-10.600 Y-5.000
G1 X-10.600 Y5.000
G1 X-14.000 Y5.000
G1 X-14.000 Y0.000
G1 X-13.600 Y0.000
G1 X-13.600 Y-4.600
G1 X-11.000 Y-4.600
G1 X-11.000 Y4.600
G1 X-13.600 Y4.600
G1 X-13.600 Y0.000
G1 X-13.200 Y0.000
G1 X-13.200 Y-4.200
G1 X-11.400 Y-4.200
G1 X-11.400 Y4.200
G1 X-13.200 Y4.200
G1 X-13.200 Y0.000
G1 X-12.800 Y0.000
G1 X-12.800 Y-3.800
G1 X-11.800 Y-3.800
G1 X-11.800 Y3.800
G1 X-12.800 Y3.800
G1 X-12.800 Y0.000
G1 X-12.400 Y0.000
M9
G1 Z10.000
G1 X16.800 Y0.000
G1 Z0.300
M7
G4 P150
G1 X16.800 Y0.000 Z0.300
G1 X16.800 Y7.800
G1 X-6.800 Y7.800
G1 X-6.800 Y-7.800
G1 X16.800 Y-7.800
G1 X16.800 Y0.000
G1 X16.400 Y0.000
G1 X16.400 Y7.400
G1 X-6.400 Y7.400
G1 X-6.400 Y-7.400
G1 X16.400 Y-7.400
G1 X16.400 Y0.000
G1 X16.000 Y0.000
G1 X16.000 Y7.000
G1 X-6.000 Y7.000
G1 X-6.000 Y-7.000
G1 X16.000 Y-7.000
G1 X16.000 Y0.000
G1 X15.600 Y0.000
G1 X15.600 Y6.600
G1 X-5.600 Y6.600
G1 X-5.600 Y-6.600
G1 X15.600 Y-6.600
G1 X15.600 Y0.000
G1 X15.200 Y0.000
G1 X15.200 Y6.200
G1 X-5.200 Y6.200
G1 X-5.200 Y-6.200
G1 X15.200 Y-6.200
G1 X15.200 Y0.000
G1 X14.800 Y0.000
G1 X14.800 Y5.800
G1 X-4.800 Y5.800
G1 X-4.800 Y-5.800
G1 X14.800 Y-5.800
G1 X14.800 Y0.000
G1 X14.400 Y0.000
G1 X14.400 Y5.400
G1 X-4.400 Y5.400
G1 X-4.400 Y-5.400
G1 X14.400 Y-5.400
G1 X14.400 Y0.000
G1 X14.000 Y0.000
G1 X14.000 Y5.000
G1 X-4.000 Y5.000
G1 X-4.000 Y-5.000
G1 X14.000 Y-5.000
G1 X14.000 Y0.000
G1 X13.600 Y0.000
G1 X13.600 Y4.600
G1 X-3.600 Y4.600
G1 X-3.600 Y-4.600
G1 X13.600 Y-4.600
G1 X13.600 Y0.000
G1 X13.200 Y0.000
G1 X13.200 Y4.200
G1 X-3.200 Y4.200
G1 X-3.200 Y-4.200
G1 X13.200 Y-4.200
G1 X13.200 Y0.000
G1 X12.800 Y0.000
G1 X12.800 Y3.800
G1 X-2.800 Y3.800
G1 X-2.800 Y-3.800
G1 X12.800 Y-3.800
G1 X12.800 Y0.000
G1 X12.400 Y0.000
G1 X12.400 Y3.400
G1 X-2.400 Y3.400
G1 X-2.400 Y-3.400
G1 X12.400 Y-3.400
G1 X12.400 Y0.000
G1 X12.000 Y0.000
G1 X12.000 Y3.000
G1 X-2.000 Y3.000
G1 X-2.000 Y-3.000
G1 X12.000 Y-3.000
G1 X12.000 Y0.000
G1 X11.600 Y0.000
G1 X11.600 Y2.600
G1 X-1.600 Y2.600
G1 X-1.600 Y-2.600
G1 X11.600 Y-2.600
G1 X11.600 Y0.000
G1 X11.200 Y0.000
G1 X11.200 Y2.200
G1 X-1.200 Y2.200
G1 X-1.200 Y-2.200
G1 X11.200 Y-2.200
G1 X11.200 Y0.000
G1 X10.800 Y0.000
G1 X10.800 Y1.800
G1 X-0.800 Y1.800
G1 X-0.800 Y-1.800
G1 X10.800 Y-1.800
G1 X10.800 Y0.000
G1 X10.400 Y0.000
G1 X10.400 Y1.400
G1 X-0.400 Y1.400
G1 X-0.400 Y-1.400
G1 X10.400 Y-1.400
G1 X10.400 Y0.000
G1 X10.000 Y0.000
G1 X10.000 Y1.000
G1 X0.000 Y1.000
G1 X0.000 Y-1.000
G1 X10.000 Y-1.000
G1 X10.000 Y0.000
G1 X9.600 Y0.000
G1 X9.600 Y0.600
G1 X0.400 Y0.600
G1 X0.400 Y-0.600
G1 X9.600 Y-0.600
G1 X9.600 Y0.000
G1 X9.200 Y0.000
M9
G1 Z10.000
G1 X-16.800 Y-7.800
G1 Z0.700
M7
G4 P150
G1 X16.800 Y-7.800
G1 X16.800 Y-7.400
G4 P5
G1 X-16.800 Y-7.400
G4 P5
G1 X-16.800 Y-7.000
G4 P5
G1 X16.800 Y-7.000
G4 P5
G1 X16.800 Y-6.600
G4 P5
G1 X-16.800 Y-6.600
G4 P5
G1 X-16.800 Y-6.200
G4 P5
G1 X16.800 Y-6.200
G4 P5
G1 X16.800 Y-5.800
G4 P5
G1 X-16.800 Y-5.800
G4 P5
G1 X-16.800 Y-5.400
G4 P5
G1 X16.800 Y-5.400
G4 P5
G1 X16.800 Y-5.000
G4 P5
G1 X-16.800 Y-5.000
G4 P5
G1 X-16.800 Y-4.600
G4 P5
G1 X16.800 Y-4.600
G4 P5
G1 X16.800 Y-4.200
G4 P5
G1 X-16.800 Y-4.200
G4 P5
G1 X-16.800 Y-3.800
G4 P5
G1 X16.800 Y-3.800
G4 P5
G1 X16.800 Y-3.400
G4 P5
G1 X-16.800 Y-3.400
G4 P5
G1 X-16.800 Y-3.000
G4 P5
G1 X16.800 Y-3.000
G4 P5
G1 X16.800 Y-2.600
G4 P5
G1 X-16.800 Y-2.600
G4 P5
G1 X-16.800 Y-2.200
G4 P5
G1 X16.800 Y-2.200
G4 P5
G1 X16.800 Y-1.800
G4 P5
G1 X-16.800 Y-1.800
G4 P5
G1 X-16.800 Y-1.400
G4 P5
G1 X16.800 Y-1.400
G4 P5
G1 X16.800 Y-1.000
G4 P5
G1 X-16.800 Y-1.000
G4 P5
G1 X-16.800 Y-0.600
G4 P5
G1 X16.800 Y-0.600
G4 P5
G1 X16.800 Y-0.200
G4 P5
G1 X-16.800 Y-0.200
G4 P5
G1 X-16.800 Y0.200
G4 P5
G1 X16.800 Y0.200
G4 P5
G1 X16.800 Y0.600
G4 P5
G1 X-16.800 Y0.600
G4 P5
G1 X-16.800 Y1.000
G4 P5
G1 X16.800 Y1.000
G4 P5
G1 X16.800 Y1.400
G4 P5
G1 X-16.800 Y1.400
G4 P5
G1 X-16.800 Y1.800
G4 P5
G1 X16.800 Y1.800
G4 P5
G1 X16.800 Y2.200
G4 P5
G1 X-16.800 Y2.200
G4 P5
G1 X-16.800 Y2.600
G4 P5
G1 X16.800 Y2.600
G4 P5
G1 X16.800 Y3.000
G4 P5
G1 X-16.800 Y3.000
G4 P5
G1 X-16.800 Y3.400
G4 P5
G1 X16.800 Y3.400
G4 P5
G1 X16.800 Y3.800
G4 P5
G1 X-16.800 Y3.800
G4 P5
G1 X-16.800 Y4.200
G4 P5
G1 X16.800 Y4.200
G4 P5
G1 X16.800 Y4.600
G4 P5
G1 X-16.800 Y4.600
G4 P5
G1 X-16.800 Y5.000
G4 P5
G1 X16.800 Y5.000
G4 P5
G1 X16.800 Y5.400
G4 P5
G1 X-16.800 Y5.400
G4 P5
G1 X-16.800 Y5.800
G4 P5
G1 X16.800 Y5.800
G4 P5
G1 X16.800 Y6.200
G4 P5
G1 X-16.800 Y6.200
G4 P5
G1 X-16.800 Y6.600
G4 P5
G1 X16.800 Y6.600
G4 P5
G1 X16.800 Y7.000
G4 P5
G1 X-16.800 Y7.000
G4 P5
G1 X-16.800 Y7.400
G4 P5
G1 X16.800 Y7.400
G4 P5
G1 X16.800 Y7.800
G4 P5
G1 X-16.800 Y7.800
G4 P5
M9
G1 Z10.000
G1 X-16.800 Y0.000
G1 Z1.100
M7
G4 P150
G1 X-16.800 Y0.000 Z1.100
G1 X-16.800 Y-7.800
G1 X-9.049 Y-7.800
G1 X-9.049 Y7.800
G1 X-16.800 Y7.800
G1 X-16.800 Y0.000
G1 X-16.400 Y0.000
G1 X-16.400 Y-7.400
G1 X-9.449 Y-7.400
G1 X-9.449 Y7.400
G1 X-16.400 Y7.400
G1 X-16.400 Y0.000
G1 X-16.000 Y0.000
G1 X-16.000 Y-7.000
G1 X-9.849 Y-7.000
G1 X-9.849 Y7.000
G1 X-16.000 Y7.000
G1 X-16.000 Y0.000
G1 X-15.600 Y0.000
G1 X-15.600 Y-6.600
G1 X-10.249 Y-6.600
G1 X-10.249 Y6.600
G1 X-15.600 Y6.600
G1 X-15.600 Y0.000
G1 X-15.200 Y0.000
G1 X-15.200 Y-6.200
G1 X-10.649 Y-6.200
G1 X-10.649 Y6.200
G1 X-15.200 Y6.200
G1 X-15.200 Y0.000
G1 X-14.800 Y0.000
G1 X-14.800 Y-5.800
G1 X-11.049 Y-5.800
G1 X-11.049 Y5.800
G1 X-14.800 Y5.800
G1 X-14.800 Y0.000
G1 X-14.400 Y0.000
G1 X-14.400 Y-5.400
G1 X-11.449 Y-5.400
G1 X-11.449 Y5.400
G1 X-14.400 Y5.400
G1 X-14.400 Y0.000
G1 X-14.000 Y0.000
G1 X-14.000 Y-5.000
G1 X-11.849 Y-5.000
G1 X-11.849 Y5.000
G1 X-14.000 Y5.000
G1 X-14.000 Y0.000
G1 X-13.600 Y0.000
G1 X-13.600 Y-4.600
G1 X-12.249 Y-4.600
G1 X-12.249 Y4.600
G1 X-13.600 Y4.600
G1 X-13.600 Y0.000
G1 X-13.200 Y0.000
G1 X-13.200 Y-4.200
G1 X-12.649 Y-4.200
G1 X-12.649 Y4.200
G1 X-13.200 Y4.200
G1 X-13.200 Y0.000
G1 X-12.800 Y0.000
G1 X-13.200 Y0.000 Z1.500
G1 X-13.200 Y0.000
G1 X-13.600 Y0.000
G1 X-13.600 Y4.600
G1 X-13.107 Y4.600
G1 X-13.107 Y-4.600
G1 X-13.600 Y-4.600
G1 X-13.600 Y0.000
G1 X-14.000 Y0.000
G1 X-14.000 Y5.000
G1 X-12.707 Y5.000
G1 X-12.707 Y-5.000
G1 X-14.000 Y-5.000
G1 X-14.000 Y0.000
G1 X-14.400 Y0.000
G1 X-14.400 Y5.400
G1 X-12.307 Y5.400
G1 X-12.307 Y-5.400
G1 X-14.400 Y-5.400
G1 X-14.400 Y0.000
G1 X-14.800 Y0.000
G1 X-14.800 Y5.800
G1 X-11.907 Y5.800
G1 X-11.907 Y-5.800
G1 X-14.800 Y-5.800
G1 X-14.800 Y0.000
G1 X-15.200 Y0.000
G1 X-15.200 Y6.200
G1 X-11.507 Y6.200
G1 X-11.507 Y-6.200
G1 X-15.200 Y-6.200
G1 X-15.200 Y0.000
G1 X-15.600 Y0.000
G1 X-15.600 Y6.600
G1 X-11.107 Y6.600
G1 X-11.107 Y-6.600
G1 X-15.600 Y-6.600
G1 X-15.600 Y0.000
G1 X-16.000 Y0.000
G1 X-16.000 Y7.000
G1 X-10.707 Y7.000
G1 X-10.707 Y-7.000
G1 X-16.000 Y-7.000
G1 X-16.000 Y0.000
G1 X-16.400 Y0.000
G1 X-16.400 Y7.400
G1 X-10.307 Y7.400
G1 X-10.307 Y-7.400
G1 X-16.400 Y-7.400
G1 X-16.400 Y0.000
G1 X-16.800 Y0.000
G1 X-16.800 Y7.800
G1 X-9.907 Y7.800
G1 X-9.907 Y-7.800
G1 X-16.800 Y-7.800
G1 X-16.800 Y0.000 Z1.500
G1 X-16.800 Y0.000 Z1.900
G1 X-16.800 Y-7.800
G1 X-10.446 Y-7.800
G1 X-10.446 Y7.800
G1 X-16.800 Y7.800
G1 X-16.800 Y0.000
G1 X-16.400 Y0.000
G1 X-16.400 Y-7.400
G1 X-10.846 Y-7.400
G1 X-10.846 Y7.400
G1 X-16.400 Y7.400
G1 X-16.400 Y0.000
G1 X-16.000 Y0.000
G1 X-16.000 Y-7.000
G1 X-11.246 Y-7.000
G1 X-11.246 Y7.000
G1 X-16.000 Y7.000
G1 X-16.000 Y0.000
G1 X-15.600 Y0.000
G1 X-15.600 Y-6.600
G1 X-11.646 Y-6.600
G1 X-11.646 Y6.600
G1 X-15.600 Y6.600
G1 X-15.600 Y0.000
G1 X-15.200 Y0.000
G1 X-15.200 Y-6.200
G1 X-12.046 Y-6.200
G1 X-12.046 Y6.200
G1 X-15.200 Y6.200
G1 X-15.200 Y0.000
G1 X-14.800 Y0.000
G1 X-14.800 Y-5.800
G1 X-12.446 Y-5.800
G1 X-12.446 Y5.800
G1 X-14.800 Y5.800
G1 X-14.800 Y0.000
G1 X-14.400 Y0.000
G1 X-14.400 Y-5.400
G1 X-12.846 Y-5.400
G1 X-12.846 Y5.400
G1 X-14.400 Y5.400
G1 X-14.400 Y0.000
G1 X-14.000 Y0.000
G1 X-14.000 Y-5.000
G1 X-13.246 Y-5.000
G1 X-13.246 Y5.000
G1 X-14.000 Y5.000
G1 X-14.000 Y0.000
G1 X-13.600 Y0.000
G1 X-14.000 Y0.000 Z2.300
G1 X-14.000 Y0.000
G1 X-14.400 Y0.000
G1 X-14.400 Y5.400
G1 X-13.240 Y5.400
G1 X-13.240 Y-5.400
G1 X-14.400 Y-5.400
G1 X-14.400 Y0.000
G1 X-14.800 Y0.000
G1 X-14.800 Y5.800
G1 X-12.840 Y5.800
G1 X-12.840 Y-5.800
G1 X-14.800 Y-5.800
G1 X-14.800 Y0.000
G1 X-15.200 Y0.000
G1 X-15.200 Y6.200
G1 X-12.440 Y6.200
G1 X-12.440 Y-6.200
G1 X-15.200 Y-6.200
G1 X-15.200 Y0.000
G1 X-15.600 Y0.000
G1 X-15.600 Y6.600
G1 X-12.040 Y6.600
G1 X-12.040 Y-6.600
G1 X-15.600 Y-6.600
G1 X-15.600 Y0.000
G1 X-16.000 Y0.000
G1 X-16.000 Y7.000
G1 X-11.640 Y7.000
G1 X-11.640 Y-7.000
G1 X-16.000 Y-7.000
G1 X-16.000 Y0.000
G1 X-16.400 Y0.000
G1 X-16.400 Y7.400
G1 X-11.240 Y7.400
G1 X-11.240 Y-7.400
G1 X-16.400 Y-7.400
G1 X-16.400 Y0.000
G1 X-16.800 Y0.000
G1 X-16.800 Y7.800
G1 X-10.840 Y7.800
G1 X-10.840 Y-7.800
G1 X-16.800 Y-7.800
G1 X-16.800 Y0.000 Z2.300
G1 X-16.800 Y0.000 Z2.700
G1 X-16.800 Y-7.800
G1 X-11.141 Y-7.800
G1 X-11.141 Y7.800
G1 X-16.800 Y7.800
G1 X-16.800 Y0.000
G1 X-16.400 Y0.000
G1 X-16.400 Y-7.400
G1 X-11.541 Y-7.400
G1 X-11.541 Y7.400
G1 X-16.400 Y7.400
G1 X-16.400 Y0.000
G1 X-16.000 Y0.000
G1 X-16.000 Y-7.000
G1 X-11.941 Y-7.000
G1 X-11.941 Y7.000
G1 X-16.000 Y7.000
G1 X-16.000 Y0.000
G1 X-15.600 Y0.000
G1 X-15.600 Y-6.600
G1 X-12.341 Y-6.600
G1 X-12.341 Y6.600
G1 X-15.600 Y6.600
G1 X-15.600 Y0.000
G1 X-15.200 Y0.000
G1 X-15.200 Y-6.200
G1 X-12.741 Y-6.200
G1 X-12.741 Y6.200
G1 X-15.200 Y6.200
G1 X-15.200 Y0.000
G1 X-14.800 Y0.000
G1 X-14.800 Y-5.800
G1 X-13.141 Y-5.800
G1 X-13.141 Y5.800
G1 X-14.800 Y5.800
G1 X-14.800 Y0.000
G1 X-14.400 Y0.000
G1 X-14.400 Y-5.400
G1 X-13.541 Y-5.400
G1 X-13.541 Y5.400
G1 X-14.400 Y5.400
G1 X-14.400 Y0.000
G1 X-14.000 Y0.000
G1 X-14.000 Y0.000 Z3.100
G1 X-14.000 Y0.000
G1 X-14.400 Y0.000
G1 X-14.400 Y5.400
G1 X-13.772 Y5.400
G1 X-13.772 Y-5.400
G1 X-14.400 Y-5.400
G1 X-14.400 Y0.000
G1 X-14.800 Y0.000
G1 X-14.800 Y5.800
G1 X-13.372 Y5.800
G1 X-13.372 Y-5.800
G1 X-14.800 Y-5.800
G1 X-14.800 Y0.000
G1 X-15.200 Y0.000
G1 X-15.200 Y6.200
G1 X-12.972 Y6.200
G1 X-12.972 Y-6.200
G1 X-15.200 Y-6.200
G1 X-15.200 Y0.000
G1 X-15.600 Y0.000
G1 X-15.600 Y6.600
G1 X-12.572 Y6.600
G1 X-12.572 Y-6.600
G1 X-15.600 Y-6.600
G1 X-15.600 Y0.000
G1 X-16.000 Y0.000
G1 X-16.000 Y7.000
G1 X-12.172 Y7.000
G1 X-12.172 Y-7.000
G1 X-16.000 Y-7.000
G1 X-16.000 Y0.000
G1 X-16.400 Y0.000
G1 X-16.400 Y7.400
G1 X-11.772 Y7.400
G1 X-11.772 Y-7.400
G1 X-16.400 Y-7.400
G1 X-16.400 Y0.000
G1 X-16.800 Y0.000
G1 X-16.800 Y7.800
G1 X-11.372 Y7.800
G1 X-11.372 Y-7.800
G1 X-16.800 Y-7.800
G1 X-16.800 Y0.000 Z3.100
G1 X-16.800 Y0.000 Z3.500
G1 X-16.800 Y-7.800
G1 X-11.547 Y-7.800
G1 X-11.547 Y7.800
G1 X-16.800 Y7.800
G1 X-16.800 Y0.000
G1 X-16.400 Y0.000
G1 X-16.400 Y-7.400
G1 X-11.947 Y-7.400
G1 X-11.947 Y7.400
G1 X-16.400 Y7.400
G1 X-16.400 Y0.000
G1 X-16.000 Y0.000
G1 X-16.000 Y-7.000
G1 X-12.347 Y-7.000
G1 X-12.347 Y7.000
G1 X-16.000 Y7.000
G1 X-16.000 Y0.000
G1 X-15.600 Y0.000
G1 X-15.600 Y-6.600
G1 X-12.747 Y-6.600
G1 X-12.747 Y6.600
G1 X-15.600 Y6.600
G1 X-15.600 Y0.000
G1 X-15.200 Y0.000
G1 X-15.200 Y-6.200
G1 X-13.147 Y-6.200
G1 X-13.147 Y6.200
G1 X-15.200 Y6.200
G1 X-15.200 Y0.000
G1 X-14.800 Y0.000
G1 X-14.800 Y-5.800
G1 X-13.547 Y-5.800
G1 X-13.547 Y5.800
G1 X-14.800 Y5.800
G1 X-14.800 Y0.000
G1 X-14.400 Y0.000
G1 X-14.400 Y-5.400
G1 X-13.947 Y-5.400
G1 X-13.947 Y5.400
G1 X-14.400 Y5.400
G1 X-14.400 Y0.000
G1 X-14.000 Y0.000
G1 X-14.400 Y0.000 Z3.900
G1 X-14.400 Y0.000
G1 X-14.800 Y0.000
G1 X-14.800 Y5.800
G1 X-13.673 Y5.800
G1 X-13.673 Y-5.800
G1 X-14.800 Y-5.800
G1 X-14.800 Y0.000
G1 X-15.200 Y0.000
G1 X-15.200 Y6.200
G1 X-13.273 Y6.200
G1 X-13.273 Y-6.200
G1 X-15.200 Y-6.200
G1 X-15.200 Y0.000
G1 X-15.600 Y0.000
G1 X-15.600 Y6.600
G1 X-12.873 Y6.600
G1 X-12.873 Y-6.600
G1 X-15.600 Y-6.600
G1 X-15.600 Y0.000
G1 X-16.000 Y0.000
G1 X-16.000 Y7.000
G1 X-12.473 Y7.000
G1 X-12.473 Y-7.000
G1 X-16.000 Y-7.000
G1 X-16.000 Y0.000
G1 X-16.400 Y0.000
G1 X-16.400 Y7.400
G1 X-12.073 Y7.400
G1 X-12.073 Y-7.400
G1 X-16.400 Y-7.400
G1 X-16.400 Y0.000
G1 X-16.800 Y0.000
G1 X-16.800 Y7.800
G1 X-11.673 Y7.800
G1 X-11.673 Y-7.800
G1 X-16.800 Y-7.800
G1 X-16.800 Y0.000 Z3.900
G1 X-16.800 Y0.000 Z4.300
G1 X-16.800 Y-7.800
G1 X-11.755 Y-7.800
G1 X-11.755 Y7.800
G1 X-16.800 Y7.800
G1 X-16.800 Y0.000
G1 X-16.400 Y0.000
G1 X-16.400 Y-7.400
G1 X-12.155 Y-7.400
G1 X-12.155 Y7.400
G1 X-16.400 Y7.400
G1 X-16.400 Y0.000
G1 X-16.000 Y0.000
G1 X-16.000 Y-7.000
G1 X-12.555 Y-7.000
G1 X-12.555 Y7.000
G1 X-16.000 Y7.000
G1 X-16.000 Y0.000
G1 X-15.600 Y0.000
G1 X-15.600 Y-6.600
G1 X-12.955 Y-6.600
G1 X-12.955 Y6.600
G1 X-15.600 Y6.600
G1 X-15.600 Y0.000
G1 X-15.200 Y0.000
G1 X-15.200 Y-6.200
G1 X-13.355 Y-6.200
G1 X-13.355 Y6.200
G1 X-15.200 Y6.200
G1 X-15.200 Y0.000
G1 X-14.800 Y0.000
G1 X-14.800 Y-5.800
G1 X-13.755 Y-5.800
G1 X-13.755 Y5.800
G1 X-14.800 Y5.800
G1 X-14.800 Y0.000
G1 X-14.400 Y0.000
G1 X-14.400 Y0.000 Z4.700
G1 X-14.400 Y0.000
G1 X-14.800 Y0.000
G1 X-14.800 Y5.800
G1 X-13.795 Y5.800
G1 X-13.795 Y-5.800
G1 X-14.800 Y-5.800
G1 X-14.800 Y0.000
G1 X-15.200 Y0.000
G1 X-15.200 Y6.200
G1 X-13.395 Y6.200
G1 X-13.395 Y-6.200
G1 X-15.200 Y-6.200
G1 X-15.200 Y0.000
G1 X-15.600 Y0.000
G1 X-15.600 Y6.600
G1 X-12.995 Y6.600
G1 X-12.995 Y-6.600
G1 X-15.600 Y-6.600
G1 X-15.600 Y0.000
G1 X-16.000 Y0.000
G1 X-16.000 Y7.000
G1 X-12.595 Y7.000
G1 X-12.595 Y-7.000
G1 X-16.000 Y-7.000
G1 X-16.000 Y0.000
G1 X-16.400 Y0.000
G1 X-16.400 Y7.400
G1 X-12.195 Y7.400
G1 X-12.195 Y-7.400
G1 X-16.400 Y-7.400
G1 X-16.400 Y0.000
G1 X-16.800 Y0.000
G1 X-16.800 Y7.800
G1 X-11.795 Y7.800
G1 X-11.795 Y-7.800
G1 X-16.800 Y-7.800
G1 X-16.800 Y0.000 Z4.700
M9
G1 Z10.000
G1 X2.800 Y0.000
G1 Z1.100
M7
G4 P150
G1 X2.805 Y0.000 Z1.100
G1 X2.805 Y7.800
G1 X-5.551 Y7.800
G1 X-5.551 Y-7.800
G1 X2.805 Y-7.800
G1 X2.805 Y0.000
G1 X2.405 Y0.000
G1 X2.405 Y7.400
G1 X-5.151 Y7.400
G1 X-5.151 Y-7.400
G1 X2.405 Y-7.400
G1 X2.405 Y0.000
G1 X2.005 Y0.000
G1 X2.005 Y7.000
G1 X-4.751 Y7.000
G1 X-4.751 Y-7.000
G1 X2.005 Y-7.000
G1 X2.005 Y0.000
G1 X1.605 Y0.000
G1 X1.605 Y6.600
G1 X-4.351 Y6.600
G1 X-4.351 Y-6.600
G1 X1.605 Y-6.600
G1 X1.605 Y0.000
G1 X1.205 Y0.000
G1 X1.205 Y6.200
G1 X-3.951 Y6.200
G1 X-3.951 Y-6.200
G1 X1.205 Y-6.200
G1 X1.205 Y0.000
G1 X0.805 Y0.000
G1 X0.805 Y5.800
G1 X-3.551 Y5.800
G1 X-3.551 Y-5.800
G1 X0.805 Y-5.800
G1 X0.805 Y0.000
G1 X0.405 Y0.000
G1 X0.405 Y5.400
G1 X-3.151 Y5.400
G1 X-3.151 Y-5.400
G1 X0.405 Y-5.400
G1 X0.405 Y0.000
G1 X0.005 Y0.000
G1 X0.005 Y5.000
G1 X-2.751 Y5.000
G1 X-2.751 Y-5.000
G1 X0.005 Y-5.000
G1 X0.005 Y0.000
G1 X-0.395 Y0.000
G1 X-0.395 Y4.600
G1 X-2.351 Y4.600
G1 X-2.351 Y-4.600
G1 X-0.395 Y-4.600
G1 X-0.395 Y0.000
G1 X-0.795 Y0.000
G1 X-0.795 Y4.200
G1 X-1.951 Y4.200
G1 X-1.951 Y-4.200
G1 X-0.795 Y-4.200
G1 X-0.795 Y0.000
G1 X-1.195 Y0.000
G1 X-0.795 Y0.000 Z1.500
G1 X-0.795 Y0.000
G1 X-0.395 Y0.000
G1 X-0.395 Y-4.600
G1 X-1.493 Y-4.600
G1 X-1.493 Y4.600
G1 X-0.395 Y4.600
G1 X-0.395 Y0.000
G1 X0.005 Y0.000
G1 X0.005 Y-5.000
G1 X-1.893 Y-5.000
G1 X-1.893 Y5.000
G1 X0.005 Y5.000
G1 X0.005 Y0.000
G1 X0.405 Y0.000
G1 X0.405 Y-5.400
G1 X-2.293 Y-5.400
G1 X-2.293 Y5.400
G1 X0.405 Y5.400
G1 X0.405 Y0.000
G1 X0.805 Y0.000
G1 X0.805 Y-5.800
G1 X-2.693 Y-5.800
G1 X-2.693 Y5.800
G1 X0.805 Y5.800
G1 X0.805 Y0.000
G1 X1.205 Y0.000
G1 X1.205 Y-6.200
G1 X-3.093 Y-6.200
G1 X-3.093 Y6.200
G1 X1.205 Y6.200
G1 X1.205 Y0.000
G1 X1.605 Y0.000
G1 X1.605 Y-6.600
G1 X-3.493 Y-6.600
G1 X-3.493 Y6.600
G1 X1.605 Y6.600
G1 X1.605 Y0.000
G1 X2.005 Y0.000
G1 X2.005 Y-7.000
G1 X-3.893 Y-7.000
G1 X-3.893 Y7.000
G1 X2.005 Y7.000
G1 X2.005 Y0.000
G1 X2.405 Y0.000
G1 X2.405 Y-7.400
G1 X-4.293 Y-7.400
G1 X-4.293 Y7.400
G1 X2.405 Y7.400
G1 X2.405 Y0.000
G1 X2.805 Y0.000
G1 X2.805 Y-7.800
G1 X-4.693 Y-7.800
G1 X-4.693 Y7.800
G1 X2.805 Y7.800
G1 X2.805 Y0.000 Z1.500
G1 X2.845 Y0.000 Z1.900
G1 X2.845 Y7.800
G1 X-4.154 Y7.800
G1 X-4.154 Y-7.800
G1 X2.845 Y-7.800
G1 X2.845 Y0.000
G1 X2.445 Y0.000
G1 X2.445 Y7.400
G1 X-3.754 Y7.400
G1 X-3.754 Y-7.400
G1 X2.445 Y-7.400
G1 X2.445 Y0.000
G1 X2.045 Y0.000
G1 X2.045 Y7.000
G1 X-3.354 Y7.000
G1 X-3.354 Y-7.000
G1 X2.045 Y-7.000
G1 X2.045 Y0.000
G1 X1.645 Y0.000
G1 X1.645 Y6.600
G1 X-2.954 Y6.600
G1 X-2.954 Y-6.600
G1 X1.645 Y-6.600
G1 X1.645 Y0.000
G1 X1.245 Y0.000
G1 X1.245 Y6.200
G1 X-2.554 Y6.200
G1 X-2.554 Y-6.200
G1 X1.245 Y-6.200
G1 X1.245 Y0.000
G1 X0.845 Y0.000
G1 X0.845 Y5.800
G1 X-2.154 Y5.800
G1 X-2.154 Y-5.800
G1 X0.845 Y-5.800
G1 X0.845 Y0.000
G1 X0.445 Y0.000
G1 X0.445 Y5.400
G1 X-1.754 Y5.400
G1 X-1.754 Y-5.400
G1 X0.445 Y-5.400
G1 X0.445 Y0.000
G1 X0.045 Y0.000
G1 X0.045 Y5.000
G1 X-1.354 Y5.000
G1 X-1.354 Y-5.000
G1 X0.045 Y-5.000
G1 X0.045 Y0.000
G1 X-0.355 Y0.000
G1 X-0.355 Y4.600
G1 X-0.954 Y4.600
G1 X-0.954 Y-4.600
G1 X-0.355 Y-4.600
G1 X-0.355 Y0.000
G1 X-0.755 Y0.000
M9
G1 Z10.000
G1 X0.000 Y1.000
G1 Z1.100
M7
G4 P150
G1 X0.000 Y1.000 Z2.300
G1 X2.927 Y1.000
G1 X2.927 Y7.800
G1 X-3.760 Y7.800
G1 X-3.760 Y1.000
G1 X-0.000 Y1.000
G1 X0.000 Y1.400
G1 X2.527 Y1.400
G1 X2.527 Y7.400
G1 X-3.360 Y7.400
G1 X-3.360 Y1.400
G1 X0.000 Y1.400
G1 X0.000 Y1.800
G1 X2.127 Y1.800
G1 X2.127 Y7.000
G1 X-2.960 Y7.000
G1 X-2.960 Y1.800
G1 X-0.000 Y1.800
G1 X0.000 Y2.200
G1 X1.727 Y2.200
G1 X1.727 Y6.600
G1 X-2.560 Y6.600
G1 X-2.560 Y2.200
G1 X0.000 Y2.200
G1 X0.000 Y2.600
G1 X1.327 Y2.600
G1 X1.327 Y6.200
G1 X-2.160 Y6.200
G1 X-2.160 Y2.600
G1 X0.000 Y2.600
G1 X0.000 Y3.000
G1 X0.927 Y3.000
G1 X0.927 Y5.800
G1 X-1.760 Y5.800
G1 X-1.760 Y3.000
G1 X0.000 Y3.000
G1 X0.000 Y3.400
G1 X0.527 Y3.400
G1 X0.527 Y5.400
G1 X-1.360 Y5.400
G1 X-1.360 Y3.400
G1 X0.000 Y3.400
G1 X0.000 Y3.800
G1 X0.000 Y3.800 Z2.700
G1 X0.000 Y3.800
G1 X0.000 Y3.400
G1 X-1.059 Y3.400
G1 X-1.059 Y5.400
G1 X0.653 Y5.400
G1 X0.653 Y3.400
G1 X0.000 Y3.400
G1 X0.000 Y3.000
G1 X-1.459 Y3.000
G1 X-1.459 Y5.800
G1 X1.053 Y5.800
G1 X1.053 Y3.000
G1 X0.000 Y3.000
G1 X0.000 Y2.600
G1 X-1.859 Y2.600
G1 X-1.859 Y6.200
G1 X1.453 Y6.200
G1 X1.453 Y2.600
G1 X0.000 Y2.600
G1 X0.000 Y2.200
G1 X-2.259 Y2.200
G1 X-2.259 Y6.600
G1 X1.853 Y6.600
G1 X1.853 Y2.200
G1 X0.000 Y2.200
G1 X0.000 Y1.800
G1 X-2.659 Y1.800
G1 X-2.659 Y7.000
G1 X2.253 Y7.000
G1 X2.253 Y1.800
G1 X0.000 Y1.800
G1 X0.000 Y1.400
G1 X-3.059 Y1.400
G1 X-3.059 Y7.400
G1 X2.653 Y7.400
G1 X2.653 Y1.400
G1 X0.000 Y1.400
G1 X0.000 Y1.000
G1 X-3.459 Y1.000
G1 X-3.459 Y7.800
G1 X3.053 Y7.800
G1 X3.053 Y1.000
G1 X0.000 Y1.000 Z2.700
M9
G1 Z10.000
G1 X0.000 Y-1.000
G1 Z1.100
M7
G4 P150
G1 X0.000 Y-1.000 Z2.300
G1 X-3.760 Y-1.000
G1 X-3.760 Y-7.800
G1 X2.927 Y-7.800
G1 X2.927 Y-1.000
G1 X0.000 Y-1.000
G1 X0.000 Y-1.400
G1 X-3.360 Y-1.400
G1 X-3.360 Y-7.400
G1 X2.527 Y-7.400
G1 X2.527 Y-1.400
G1 X-0.000 Y-1.400
G1 X0.000 Y-1.800
G1 X-2.960 Y-1.800
G1 X-2.960 Y-7.000
G1 X2.127 Y-7.000
G1 X2.127 Y-1.800
G1 X0.000 Y-1.800
G1 X0.000 Y-2.200
G1 X-2.560 Y-2.200
G1 X-2.560 Y-6.600
G1 X1.727 Y-6.600
G1 X1.727 Y-2.200
G1 X-0.000 Y-2.200
G1 X0.000 Y-2.600
G1 X-2.160 Y-2.600
G1 X-2.160 Y-6.200
G1 X1.327 Y-6.200
G1 X1.327 Y-2.600
G1 X0.000 Y-2.600
G1 X0.000 Y-3.000
G1 X-1.760 Y-3.000
G1 X-1.760 Y-5.800
G1 X0.927 Y-5.800
G1 X0.927 Y-3.000
G1 X0.000 Y-3.000
G1 X0.000 Y-3.400
G1 X-1.360 Y-3.400
G1 X-1.360 Y-5.400
G1 X0.527 Y-5.400
G1 X0.527 Y-3.400
G1 X0.000 Y-3.400
G1 X0.000 Y-3.800
G1 X0.000 Y-3.800 Z2.700
G1 X0.000 Y-3.800
G1 X0.000 Y-3.400
G1 X0.653 Y-3.400
G1 X0.653 Y-5.400
G1 X-1.059 Y-5.400
G1 X-1.059 Y-3.400
G1 X0.000 Y-3.400
G1 X0.000 Y-3.000
G1 X1.053 Y-3.000
G1 X1.053 Y-5.800
G1 X-1.459 Y-5.800
G1 X-1.459 Y-3.000
G1 X0.000 Y-3.000
G1 X0.000 Y-2.600
G1 X1.453 Y-2.600
G1 X1.453 Y-6.200
G1 X-1.859 Y-6.200
G1 X-1.859 Y-2.600
G1 X0.000 Y-2.600
G1 X0.000 Y-2.200
G1 X1.853 Y-2.200
G1 X1.853 Y-6.600
G1 X-2.259 Y-6.600
G1 X-2.259 Y-2.200
G1 X0.000 Y-2.200
G1 X0.000 Y-1.800
G1 X2.253 Y-1.800
G1 X2.253 Y-7.000
G1 X-2.659 Y-7.000
G1 X-2.659 Y-1.800
G1 X0.000 Y-1.800
G1 X0.000 Y-1.400
G1 X2.653 Y-1.400
G1 X2.653 Y-7.400
G1 X-3.059 Y-7.400
G1 X-3.059 Y-1.400
G1 X0.000 Y-1.400
G1 X0.000 Y-1.000
G1 X3.053 Y-1.000
G1 X3.053 Y-7.800
G1 X-3.459 Y-7.800
G1 X-3.459 Y-1.000
G1 X0.000 Y-1.000 Z2.700

;Finish
M9
G1 Z10.000
G28 X-100 Y-100;Home